{"type":"FeatureCollection","features":[{"type":"Feature","properties":{},"geometry":{"type":"Polygon","coordinates":[[[5.6799614,50.0368513],[5.6801904,50.0368533],[5.6802883,50.0368641],[5.6808428,50.0366517],[5.6808032,50.0365108],[5.6805297,50.0362965],[5.6803742,50.0361201],[5.6801838,50.036003],[5.6800362,50.0358307],[5.6799422,50.0357911],[5.6798512,50.0359409],[5.6797037,50.0359582],[5.6796419,50.0364043],[5.6799614,50.0368513]]]}},{"type":"Feature","properties":{},"geometry":{"type":"Polygon","coordinates":[[[5.6836852,50.0366201],[5.6838787,50.0367248],[5.6837768,50.0370846],[5.6839485,50.037715],[5.6837496,50.0380971],[5.6835222,50.0383405],[5.6834561,50.0384269],[5.6833059,50.0384441],[5.6830477,50.0383635],[5.683125,50.0380854],[5.6831963,50.0377387],[5.683296,50.0370664],[5.6833756,50.0368213],[5.6836852,50.0366201]]]}},{"type":"Feature","properties":{},"geometry":{"type":"Polygon","coordinates":[[[5.6836546,50.0363388],[5.6836599,50.036425],[5.6839389,50.0365388],[5.6841982,50.0365489],[5.6843787,50.0363803],[5.684678,50.0361826],[5.6846629,50.0359136],[5.684545,50.0357876],[5.6843213,50.0357529],[5.6840009,50.0359006],[5.6836546,50.0363388]]]}},{"type":"Feature","properties":{},"geometry":{"type":"Polygon","coordinates":[[[5.6848971,50.0361034],[5.6848258,50.0356912],[5.6851212,50.0353903],[5.6859868,50.0352726],[5.6866081,50.0352922],[5.6872293,50.0355473],[5.6872916,50.0356395],[5.6860954,50.0358875],[5.6854624,50.0359771],[5.6849474,50.0361839],[5.6848971,50.0361034]]]}},{"type":"Feature","properties":{},"geometry":{"type":"Polygon","coordinates":[[[5.7339366,50.0518411],[5.7339527,50.0517919],[5.7339656,50.0517607],[5.7339639,50.0517433],[5.7339688,50.0517048],[5.7339582,50.0516687],[5.7339472,50.0516267],[5.7339402,50.0515732],[5.7339585,50.0515419],[5.7340236,50.0514791],[5.7341005,50.0514386],[5.7342525,50.0513867],[5.7342923,50.0513609],[5.734349,50.051345],[5.7343835,50.0513427],[5.7344125,50.0513596],[5.7344295,50.0513948],[5.7344616,50.0514686],[5.7344884,50.0515497],[5.734518,50.0516562],[5.734537,50.0517328],[5.7345429,50.0517566],[5.7345328,50.0517853],[5.7345116,50.0518021],[5.734467,50.0518149],[5.7344096,50.0518044],[5.734371,50.0518092],[5.7342743,50.0518291],[5.7341596,50.051866],[5.7340462,50.0519043],[5.7339631,50.0519106],[5.7339411,50.0518979],[5.7339359,50.0518594],[5.7339366,50.0518411]]]}},{"type":"Feature","properties":{},"geometry":{"type":"Polygon","coordinates":[[[5.7681028,50.0015908],[5.768343,50.0016501],[5.7686509,50.0017531],[5.7690512,50.0019352],[5.7691805,50.0022162],[5.7693037,50.0023785],[5.7692421,50.0026358],[5.7690389,50.0027071],[5.7686146,50.0026378],[5.7682383,50.0025764],[5.7680843,50.0025725],[5.7679427,50.0024616],[5.7679488,50.0022795],[5.7679796,50.0020579],[5.7679611,50.0018758],[5.7678934,50.0017135],[5.7678133,50.0016224],[5.7677807,50.0015312],[5.7678322,50.0015],[5.7681028,50.0015908]]]}},{"type":"Feature","properties":{},"geometry":{"type":"Polygon","coordinates":[[[5.7034203,50.0488471],[5.7036236,50.0488665],[5.7038095,50.0488693],[5.7039868,50.0488554],[5.704017,50.0487916],[5.7039652,50.0486833],[5.7036711,50.0486638],[5.703429,50.0487083],[5.7033641,50.0487777],[5.7034203,50.0488471]]]}},{"type":"Feature","properties":{},"geometry":{"type":"Polygon","coordinates":[[[5.7188685,50.0648287],[5.7190353,50.0647508],[5.7193718,50.0647625],[5.7198024,50.0648968],[5.7200504,50.0649875],[5.7200933,50.0650581],[5.7203674,50.0651681],[5.7206566,50.0652406],[5.7209811,50.0652423],[5.7212628,50.065368],[5.7215498,50.0654437],[5.7219419,50.065454],[5.7222216,50.0654128],[5.7222418,50.0654195],[5.7222579,50.0654248],[5.7221345,50.0654782],[5.7221533,50.0655178],[5.722113,50.0655798],[5.7220124,50.0656555],[5.7219097,50.0656812],[5.7214483,50.0658534],[5.7206759,50.0660049],[5.7202467,50.0662459],[5.7194742,50.0663768],[5.7193112,50.0664811],[5.719088,50.0664663],[5.7188885,50.0663667],[5.7185289,50.0661872],[5.7184137,50.065759],[5.7185592,50.0653406],[5.718635,50.0651751],[5.7188685,50.0648287]]]}},{"type":"Feature","properties":{},"geometry":{"type":"Polygon","coordinates":[[[5.7047369,49.996327],[5.7046787,49.9962187],[5.7046708,49.9961508],[5.7049596,49.9958469],[5.7061058,49.9962867],[5.7062927,49.9963484],[5.7063279,49.9964178],[5.7062481,49.9965478],[5.7060198,49.9967669],[5.7058763,49.9967794],[5.7047369,49.996327]]]}},{"type":"Feature","properties":{},"geometry":{"type":"Polygon","coordinates":[[[5.6808413,50.0031405],[5.6809416,50.0033137],[5.681075,50.0034072],[5.6812688,50.0034987],[5.6814793,50.0035192],[5.6817073,50.0034752],[5.6818801,50.0033867],[5.6820793,50.0032485],[5.6820773,50.0031611],[5.6818525,50.0028313],[5.6818007,50.0027812],[5.6817343,50.0027171],[5.6816241,50.0026959],[5.6816261,50.0026558],[5.681531,50.0026323],[5.6813243,50.0026436],[5.6811186,50.0027035],[5.6809605,50.0028107],[5.6808464,50.0029775],[5.6808413,50.0031405]]]}},{"type":"Feature","properties":{},"geometry":{"type":"Polygon","coordinates":[[[5.7135558,49.9832548],[5.7136308,49.9830573],[5.7140145,49.9832978],[5.7143511,49.9834685],[5.7144168,49.9834849],[5.714414,49.9835135],[5.714186,49.9836494],[5.7141177,49.9836808],[5.7139769,49.9836513],[5.7135558,49.9832548]]]}},{"type":"Feature","properties":{},"geometry":{"type":"Polygon","coordinates":[[[5.7579163,50.0238252],[5.757997,50.0237783],[5.7581098,50.0236745],[5.7581507,50.0236308],[5.7581546,50.0236052],[5.758139,50.0235752],[5.7580165,50.023492],[5.7578666,50.0234058],[5.757819,50.0234114],[5.7577869,50.0234252],[5.7575845,50.0236958],[5.7575884,50.0237545],[5.7576312,50.0237977],[5.7576876,50.0238352],[5.7577567,50.0238545],[5.7578423,50.0238527],[5.7579163,50.0238252]]]}},{"type":"Feature","properties":{},"geometry":{"type":"Polygon","coordinates":[[[5.7578997,50.0233002],[5.7581877,50.0230752],[5.7583005,50.0230114],[5.7585184,50.0229364],[5.7587597,50.0229177],[5.758892,50.0229489],[5.758927,50.0230202],[5.7589571,50.0231226],[5.7590379,50.0238327],[5.7590184,50.0238852],[5.7586293,50.0238489],[5.7585106,50.0237877],[5.758213,50.0235839],[5.7578997,50.0233677],[5.7578803,50.0233377],[5.7578997,50.0233002]]]}},{"type":"Feature","properties":{},"geometry":{"type":"Polygon","coordinates":[[[5.6945982,49.9876558],[5.6947672,49.9876213],[5.6948099,49.9873394],[5.6948434,49.9872023],[5.6949855,49.9870738],[5.6949174,49.9870349],[5.6945781,49.9873014],[5.6945001,49.9874368],[5.6945017,49.9875523],[5.6945982,49.9876558]]]}},{"type":"Feature","properties":{},"geometry":{"type":"Polygon","coordinates":[[[5.6936728,49.9839668],[5.693509,49.9838755],[5.6934664,49.983596],[5.693619,49.9834547],[5.6939435,49.9832909],[5.6943542,49.9832028],[5.6943753,49.983403],[5.6941823,49.9835579],[5.6940854,49.9836357],[5.6936728,49.9839668]]]}},{"type":"Feature","properties":{},"geometry":{"type":"Polygon","coordinates":[[[5.6837578,49.9899626],[5.6838761,49.9897852],[5.6843432,49.9898626],[5.6841088,49.990253],[5.6838587,49.9901184],[5.6837578,49.9899626]]]}},{"type":"Feature","properties":{},"geometry":{"type":"Polygon","coordinates":[[[5.7747342,49.9807054],[5.7749649,49.9808055],[5.7754986,49.9809935],[5.7756427,49.980792],[5.7752304,49.9806744],[5.7750668,49.9805985],[5.7748791,49.980564],[5.7747342,49.9807054]]]}},{"type":"Feature","properties":{},"geometry":{"type":"Polygon","coordinates":[[[5.7756274,49.9810624],[5.7756373,49.9809921],[5.7757848,49.9808437],[5.7761477,49.9809969],[5.7763328,49.9812298],[5.7765635,49.9814798],[5.7766619,49.9815819],[5.7766198,49.9816609],[5.7765072,49.9816437],[5.7762416,49.9814712],[5.7759949,49.9812798],[5.7757151,49.9811249],[5.7756274,49.9810624]]]}},{"type":"Feature","properties":{},"geometry":{"type":"Polygon","coordinates":[[[5.7782104,49.9830097],[5.7779609,49.9829648],[5.7778456,49.9829183],[5.7775747,49.9828182],[5.777462,49.9827458],[5.7774746,49.9826754],[5.7776793,49.9826803],[5.7781004,49.9828027],[5.7782908,49.9828907],[5.7783016,49.9829631],[5.7782104,49.9830097]]]}},{"type":"Feature","properties":{},"geometry":{"type":"Polygon","coordinates":[[[5.7588716,49.9805433],[5.758877,49.9806295],[5.7592471,49.9806675],[5.7595529,49.9807261],[5.759713,49.9807713],[5.7607162,49.980761],[5.7609182,49.9807451],[5.7609745,49.9806433],[5.7609066,49.9804195],[5.7608879,49.9803625],[5.7607089,49.9803242],[5.760438,49.9802777],[5.7602503,49.9802501],[5.7597989,49.9803453],[5.7593088,49.9804795],[5.7590621,49.9805191],[5.7589655,49.9805295],[5.7588716,49.9805433]]]}},{"type":"Feature","properties":{},"geometry":{"type":"Polygon","coordinates":[[[5.7643648,49.9800103],[5.764169,49.9799819],[5.7641199,49.9799486],[5.7640966,49.9798068],[5.7641145,49.9797658],[5.7642629,49.9797551],[5.7643997,49.9798068],[5.7644721,49.9799155],[5.7644694,49.9799845],[5.7643648,49.9800103]]]}},{"type":"Feature","properties":{},"geometry":{"type":"Polygon","coordinates":[[[5.7111498,50.0495837],[5.7112088,50.0495113],[5.7112946,50.0495423],[5.711241,50.0496095],[5.7111498,50.0495837]]]}},{"type":"Feature","properties":{},"geometry":{"type":"Polygon","coordinates":[[[5.7110639,50.0497146],[5.7111195,50.0496463],[5.7112168,50.0496715],[5.7111777,50.0497166],[5.7111624,50.0497341],[5.7111101,50.0497237],[5.7110639,50.0497146]]]}},{"type":"Feature","properties":{},"geometry":{"type":"Polygon","coordinates":[[[5.7112276,50.0494545],[5.7113662,50.0492605],[5.711503,50.0492915],[5.7113375,50.0494889],[5.7112276,50.0494545]]]}},{"type":"Feature","properties":{},"geometry":{"type":"Polygon","coordinates":[[[5.6956643,50.0485969],[5.6956574,50.0484865],[5.6956925,50.0483833],[5.6958197,50.0483676],[5.695953,50.0483931],[5.6962788,50.0484552],[5.6962757,50.0485511],[5.6959659,50.0485579],[5.6958438,50.0485984],[5.69575,50.0486311],[5.6956643,50.0485969]]]}},{"type":"Feature","properties":{},"geometry":{"type":"Polygon","coordinates":[[[5.7309851,50.0343709],[5.7307397,50.034433],[5.7306766,50.0344648],[5.7305318,50.0346526],[5.7305237,50.0346957],[5.7305506,50.0347259],[5.7306659,50.0348284],[5.7307102,50.0348421],[5.7307812,50.0348275],[5.7309167,50.0347336],[5.7310119,50.0346776],[5.731036,50.0346509],[5.7311876,50.0345639],[5.7312962,50.0344847],[5.7314531,50.0343218],[5.731425,50.0342969],[5.7313633,50.0342831],[5.7312372,50.0343063],[5.7309851,50.0343709]]]}},{"type":"Feature","properties":{},"geometry":{"type":"Polygon","coordinates":[[[5.7307826,50.0325498],[5.7306203,50.0325671],[5.7305801,50.0326257],[5.7306216,50.0326636],[5.7306659,50.0327239],[5.7307316,50.032866],[5.7308389,50.0329013],[5.7309864,50.0328962],[5.7313552,50.0328135],[5.7315363,50.0327566],[5.7316074,50.0326929],[5.7315752,50.0326205],[5.7315175,50.0325791],[5.7313888,50.0325662],[5.731311,50.032499],[5.7311983,50.0324146],[5.7311058,50.0324534],[5.7310079,50.0325145],[5.7309596,50.0325361],[5.7307826,50.0325498]]]}},{"type":"Feature","properties":{},"geometry":{"type":"Polygon","coordinates":[[[5.7305144,50.0324404],[5.7305599,50.0325076],[5.7305962,50.032543],[5.7308764,50.0324706],[5.7310226,50.0324327],[5.7311219,50.0323689],[5.7311366,50.0323353],[5.7312131,50.0323164],[5.7312037,50.0322647],[5.7309945,50.0322681],[5.7308738,50.0322811],[5.7307799,50.0321639],[5.730505,50.0321958],[5.7305184,50.0322526],[5.7306592,50.0322561],[5.7307812,50.0322423],[5.7308094,50.0322983],[5.7305412,50.0323827],[5.730513,50.0324137],[5.7305144,50.0324404]]]}},{"type":"Feature","properties":{},"geometry":{"type":"Polygon","coordinates":[[[5.7266687,50.0361924],[5.7266727,50.036437],[5.7266754,50.0366403],[5.7266942,50.0366899],[5.7269986,50.0366787],[5.727238,50.0366696],[5.7275693,50.0365998],[5.7277101,50.036574],[5.7279408,50.0365611],[5.7280789,50.0365318],[5.72815,50.0365094],[5.7281419,50.0364715],[5.7280762,50.0364095],[5.7279582,50.0363621],[5.7274834,50.0362269],[5.7271334,50.0361631],[5.7268424,50.036114],[5.7267338,50.0361175],[5.7266868,50.0361476],[5.7266687,50.0361924]]]}},{"type":"Feature","properties":{},"geometry":{"type":"Polygon","coordinates":[[[5.7713789,50.0554374],[5.7709873,50.0551911],[5.7707459,50.0550895],[5.7706788,50.0551136],[5.7703301,50.0554443],[5.7703382,50.0554925],[5.7707083,50.0556544],[5.7708558,50.0557112],[5.7709551,50.0557198],[5.7710892,50.0556699],[5.7712448,50.0555493],[5.7713789,50.0554374]]]}},{"type":"Feature","properties":{},"geometry":{"type":"Polygon","coordinates":[[[5.7713413,50.0553392],[5.7713869,50.0553564],[5.7714808,50.0553375],[5.7717302,50.0552049],[5.7715854,50.0549414],[5.7714808,50.0548846],[5.7713038,50.0548364],[5.771116,50.054845],[5.7709497,50.0549001],[5.7708585,50.0549793],[5.770829,50.0550258],[5.7708666,50.055062],[5.7712126,50.0552411],[5.7713413,50.0553392]]]}},{"type":"Feature","properties":{},"geometry":{"type":"Polygon","coordinates":[[[5.7718429,50.0551636],[5.7718965,50.0551859],[5.7719985,50.0551825],[5.7720762,50.0551515],[5.7721755,50.0550947],[5.7721755,50.0549896],[5.7721326,50.0548949],[5.7717302,50.0548725],[5.7716981,50.0548984],[5.7717946,50.0551394],[5.7718429,50.0551636]]]}},{"type":"Feature","properties":{},"geometry":{"type":"Polygon","coordinates":[[[5.7754961,50.0552204],[5.775378,50.0550551],[5.775134,50.0550585],[5.7748872,50.0552755],[5.7748201,50.05526],[5.7749784,50.0550241],[5.7745627,50.0549328],[5.7744822,50.0549896],[5.7742381,50.0556285],[5.7743105,50.0556699],[5.7744527,50.0556612],[5.7749569,50.0555028],[5.7752359,50.0553685],[5.7754961,50.0552204]]]}},{"type":"Feature","properties":{},"geometry":{"type":"Polygon","coordinates":[[[5.7756194,50.0551791],[5.7758957,50.0550189],[5.7759842,50.0549845],[5.7759118,50.0548966],[5.7756838,50.0549603],[5.775606,50.0549896],[5.7755767,50.0550309],[5.7755363,50.0550878],[5.7756194,50.0551791]]]}},{"type":"Feature","properties":{},"geometry":{"type":"Polygon","coordinates":[[[5.7022742,49.9960377],[5.702419,49.9960049],[5.7025156,49.9959601],[5.7025317,49.9958877],[5.7024486,49.9958549],[5.702411,49.9958549],[5.7022635,49.9959204],[5.7022206,49.9959584],[5.7022259,49.9959998],[5.7022742,49.9960377]]]}},{"type":"Feature","properties":{},"geometry":{"type":"Polygon","coordinates":[[[5.7031426,49.9882501],[5.7031842,49.988259],[5.7032119,49.9882521],[5.7032273,49.9882461],[5.7032535,49.988264],[5.7032766,49.9882818],[5.7032951,49.9882759],[5.7033013,49.988262],[5.703289,49.9882451],[5.7032736,49.9882234],[5.7032474,49.9882125],[5.7032243,49.9882174],[5.7032166,49.9882323],[5.7031981,49.9882392],[5.7031703,49.9882392],[5.7031518,49.9882343],[5.7031334,49.9882392],[5.7031426,49.9882501]]]}},{"type":"Feature","properties":{},"geometry":{"type":"Polygon","coordinates":[[[5.7656068,50.0058635],[5.7655692,50.0056669],[5.7654941,50.0054911],[5.7657891,50.0054532],[5.7660549,50.0058738],[5.7660788,50.0059117],[5.7659068,50.0058941],[5.7656068,50.0058635]]]}},{"type":"Feature","properties":{},"geometry":{"type":"Polygon","coordinates":[[[5.7753365,49.9814963],[5.7754223,49.9815084],[5.7754786,49.9814911],[5.7755135,49.9814463],[5.7755283,49.9813083],[5.7755041,49.981266],[5.775421,49.9812289],[5.7753083,49.9811858],[5.7752654,49.9812005],[5.7751796,49.9813359],[5.7751635,49.9813988],[5.7751983,49.9814445],[5.7753365,49.9814963]]]}},{"type":"Feature","properties":{},"geometry":{"type":"Polygon","coordinates":[[[5.7779248,49.9803295],[5.777953,49.9803131],[5.7779664,49.9802674],[5.7779436,49.9802475],[5.7777813,49.980182],[5.777721,49.9801768],[5.7776579,49.9802467],[5.7776593,49.9802769],[5.7776861,49.9803036],[5.7778417,49.9803312],[5.7779248,49.9803295]]]}},{"type":"Feature","properties":{},"geometry":{"type":"Polygon","coordinates":[[[5.7785659,49.9803545],[5.7785685,49.9802924],[5.7785524,49.9802838],[5.7783298,49.9802562],[5.7781582,49.9802519],[5.7781193,49.980276],[5.7781072,49.9803105],[5.7781112,49.9803321],[5.7781447,49.9803467],[5.7785363,49.9803648],[5.7785659,49.9803545]]]}},{"type":"Feature","properties":{},"geometry":{"type":"Polygon","coordinates":[[[5.7790393,49.9803321],[5.7787684,49.9803045],[5.7787482,49.980364],[5.7787898,49.9803838],[5.7790232,49.9803855],[5.7790393,49.9803321]]]}},{"type":"Feature","properties":{},"geometry":{"type":"Polygon","coordinates":[[[5.767377,50.0011889],[5.7674226,50.0012088],[5.767554,50.0011743],[5.7677083,50.0011079],[5.7677284,50.0010717],[5.767605,50.0009329],[5.7674186,50.0008183],[5.7672402,50.0007148],[5.7671826,50.0006993],[5.7671034,50.0007528],[5.7671745,50.0008821],[5.767377,50.0011889]]]}},{"type":"Feature","properties":{},"geometry":{"type":"Polygon","coordinates":[[[5.7582307,49.9805606],[5.7586223,49.9805778],[5.7585847,49.9804813],[5.7582629,49.9804571],[5.7582253,49.9805089],[5.7582307,49.9805606]]]}},{"type":"Feature","properties":{},"geometry":{"type":"Polygon","coordinates":[[[5.770542,50.0061979],[5.77066,50.0061057],[5.770601,50.0060367],[5.7703154,50.0059678],[5.7702135,50.0059566],[5.7702121,50.0060583],[5.770373,50.0061496],[5.7705139,50.006197],[5.770542,50.0061979]]]}},{"type":"Feature","properties":{},"geometry":{"type":"Polygon","coordinates":[[[5.7605186,50.0052489],[5.7608083,50.0051696],[5.7608029,50.0051265],[5.7607426,50.0051205],[5.7604891,50.0051851],[5.7604811,50.0052144],[5.7605186,50.0052489]]]}},{"type":"Feature","properties":{},"geometry":{"type":"Polygon","coordinates":[[[5.735338,49.9842205],[5.7354507,49.9842274],[5.735617,49.9842049],[5.7356974,49.9841791],[5.7357269,49.9841101],[5.7357162,49.984029],[5.7355848,49.9839807],[5.7350832,49.9839962],[5.7347479,49.9839687],[5.734697,49.9840842],[5.7348525,49.9841256],[5.7349357,49.9841791],[5.7352066,49.9842205],[5.735338,49.9842205]]]}},{"type":"Feature","properties":{},"geometry":{"type":"Polygon","coordinates":[[[5.6967571,49.9896132],[5.6968349,49.98952],[5.6968215,49.9894683],[5.6961671,49.9891398],[5.6959806,49.9891605],[5.6957947,49.9890696],[5.6957503,49.9891082],[5.6959417,49.9892001],[5.6959458,49.9893045],[5.6961684,49.9894321],[5.6966029,49.9896218],[5.6967571,49.9896132]]]}},{"type":"Feature","properties":{},"geometry":{"type":"Polygon","coordinates":[[[5.7265182,50.019677],[5.7266136,50.0196635],[5.7267179,50.0196204],[5.7268383,50.0195487],[5.7269189,50.0194755],[5.7268611,50.0194117],[5.7267665,50.0193751],[5.7266609,50.0193577],[5.7266004,50.0193733],[5.7264552,50.019471],[5.7263786,50.019539],[5.7263508,50.0195966],[5.7265182,50.019677]]]}},{"type":"Feature","properties":{},"geometry":{"type":"Polygon","coordinates":[[[5.7312088,50.0300917],[5.7311164,50.0300731],[5.7310606,50.0301449],[5.7310814,50.0301856],[5.7310411,50.0303691],[5.7312007,50.0303906],[5.7313228,50.0301649],[5.731257,50.030127],[5.7312088,50.0300917]]]}},{"type":"Feature","properties":{},"geometry":{"type":"Polygon","coordinates":[[[5.7559988,50.0589669],[5.7563442,50.0590971],[5.7564127,50.059123],[5.756447,50.0590907],[5.7564551,50.0589882],[5.7564577,50.0589348],[5.7563679,50.0588599],[5.756164,50.0587377],[5.7559736,50.0589021],[5.7559988,50.0589669]]]}},{"type":"Feature","properties":{},"geometry":{"type":"Polygon","coordinates":[[[5.7577653,50.0598053],[5.7578015,50.0597984],[5.7578538,50.0597622],[5.7578377,50.0597295],[5.7576084,50.0596236],[5.7575454,50.0596288],[5.7575454,50.0596572],[5.757591,50.0596959],[5.7577345,50.0597958],[5.7577653,50.0598053]]]}},{"type":"Feature","properties":{},"geometry":{"type":"Polygon","coordinates":[[[5.6818816,50.0624406],[5.682005,50.0624338],[5.6821042,50.0620102],[5.6822088,50.0618191],[5.6821874,50.0618001],[5.6819849,50.0617949],[5.6818038,50.0617984],[5.6816724,50.0618828],[5.6816831,50.0619637],[5.6818736,50.0622168],[5.6818816,50.0624406]]]}},{"type":"Feature","properties":{},"geometry":{"type":"Polygon","coordinates":[[[5.6885093,50.034206],[5.6887078,50.0339993],[5.6884128,50.033889],[5.6881231,50.0340648],[5.6885093,50.034206]]]}},{"type":"Feature","properties":{},"geometry":{"type":"Polygon","coordinates":[[[5.6880426,50.0345162],[5.6883269,50.0342198],[5.6879729,50.0340682],[5.68793,50.0342198],[5.6877637,50.0343094],[5.6876081,50.0343646],[5.6880426,50.0345162]]]}},{"type":"Feature","properties":{},"geometry":{"type":"Polygon","coordinates":[[[5.6872541,50.0348228],[5.6873453,50.0348332],[5.6874311,50.0347849],[5.6874365,50.0347332],[5.6880212,50.0346471],[5.687989,50.0346126],[5.6875062,50.0344369],[5.6872648,50.034561],[5.6870824,50.0347505],[5.6872541,50.0348228]]]}},{"type":"Feature","properties":{},"geometry":{"type":"Polygon","coordinates":[[[5.6875706,50.0354568],[5.6877315,50.0352122],[5.6879568,50.0347953],[5.6873667,50.0349124],[5.687018,50.0351915],[5.6875706,50.0354568]]]}},{"type":"Feature","properties":{},"geometry":{"type":"Polygon","coordinates":[[[5.6901991,50.035226],[5.6900918,50.0350089],[5.6895447,50.0351364],[5.6895232,50.0352673],[5.6901991,50.035226]]]}},{"type":"Feature","properties":{},"geometry":{"type":"Polygon","coordinates":[[[5.6846255,50.0488568],[5.6845691,50.0489032],[5.6844538,50.048998],[5.6845745,50.0490411],[5.6846175,50.0490445],[5.6849232,50.049172],[5.684934,50.0491547],[5.6847757,50.0490738],[5.6846684,50.0489636],[5.6846255,50.0488568]]]}},{"type":"Feature","properties":{},"geometry":{"type":"Polygon","coordinates":[[[5.6855053,50.0492357],[5.6855643,50.0491857],[5.6855321,50.0491065],[5.6854677,50.0490824],[5.6854194,50.0490876],[5.6853443,50.0491323],[5.6852826,50.0491203],[5.6853041,50.0490703],[5.6852746,50.0490376],[5.6852183,50.0490221],[5.6851405,50.049029],[5.6850734,50.0490686],[5.6850761,50.04911],[5.685111,50.0491392],[5.6851941,50.0491651],[5.6853041,50.0492167],[5.6854141,50.0492443],[5.6855053,50.0492357]]]}},{"type":"Feature","properties":{},"geometry":{"type":"Polygon","coordinates":[[[5.6809321,50.037376],[5.6813049,50.0372761],[5.6813317,50.0372072],[5.6808919,50.036773],[5.6805029,50.0369436],[5.6809321,50.037376]]]}},{"type":"Feature","properties":{},"geometry":{"type":"Polygon","coordinates":[[[5.6941554,50.0210398],[5.6944612,50.0208606],[5.6944478,50.0208089],[5.6934875,50.0203557],[5.6933668,50.020447],[5.6933641,50.0204987],[5.6940964,50.0210174],[5.6941554,50.0210398]]]}},{"type":"Feature","properties":{},"geometry":{"type":"Polygon","coordinates":[[[5.7603979,49.984424],[5.7605106,49.9841825],[5.7606608,49.9838548],[5.7607841,49.9836996],[5.7608673,49.9836617],[5.7607278,49.9838669],[5.7606581,49.98401],[5.7605776,49.9841894],[5.7605106,49.9843326],[5.7604408,49.9844688],[5.7603979,49.984424]]]}},{"type":"Feature","properties":{},"geometry":{"type":"Polygon","coordinates":[[[5.7179537,49.9998955],[5.7180269,49.9998876],[5.7179811,49.9997141],[5.717908,49.9997221],[5.7179537,49.9998955]]]}},{"type":"Feature","properties":{},"geometry":{"type":"Polygon","coordinates":[[[5.7363372,49.9936422],[5.7366483,49.9936344],[5.7366412,49.9935171],[5.7363301,49.9935249],[5.7363372,49.9936422]]]}},{"type":"Feature","properties":{},"geometry":{"type":"Polygon","coordinates":[[[5.7219826,49.987702],[5.7220014,49.9877028],[5.7220108,49.9876985],[5.7220054,49.9876882],[5.7219438,49.9876145],[5.7219391,49.9876007],[5.7218572,49.9876011],[5.7218432,49.9876205],[5.7218412,49.9876403],[5.7218519,49.9876489],[5.7218666,49.9876485],[5.7218948,49.987636],[5.7219189,49.9876395],[5.7219826,49.987702]]]}}]}