{"type":"FeatureCollection","features":[{"type":"Feature","properties":{"b":"hedge"},"geometry":{"type":"LineString","coordinates":[[5.7072225,50.0185093],[5.7073488,50.0182756],[5.7064052,50.0180842],[5.7060323,50.0188684],[5.7063757,50.0189166],[5.7064239,50.0188494],[5.7066305,50.0188598],[5.70666,50.018939],[5.7069807,50.0189555],[5.7071187,50.0186531]]}},{"type":"Feature","properties":{"b":"hedge"},"geometry":{"type":"LineString","coordinates":[[5.7471417,49.979851],[5.7477459,49.980039]]}},{"type":"Feature","properties":{"b":"hedge"},"geometry":{"type":"LineString","coordinates":[[5.7463098,49.9806836],[5.746845,49.9808557],[5.7481076,49.9810946]]}},{"type":"Feature","properties":{"b":"hedge"},"geometry":{"type":"LineString","coordinates":[[5.7461551,49.9809164],[5.7464908,49.9810328],[5.7469315,49.9811205],[5.7470889,49.9811559]]}},{"type":"Feature","properties":{"b":"tree_row"},"geometry":{"type":"LineString","coordinates":[[5.6880282,50.0080138],[5.6886565,50.0054419],[5.6895989,50.0061266],[5.6902135,50.0063109],[5.6931363,50.0064777],[5.6946578,50.0066707],[5.6960865,50.0070131],[5.6968787,50.0073818],[5.6971507,50.0072869],[5.6975322,50.0069579],[5.6977447,50.006719]]}},{"type":"Feature","properties":{"b":"tree_row"},"geometry":{"type":"LineString","coordinates":[[5.6983789,50.005283],[5.6979454,50.0061676],[5.6941532,50.0052451],[5.6940359,50.0056353]]}},{"type":"Feature","properties":{"b":"tree_row"},"geometry":{"type":"LineString","coordinates":[[5.7100014,50.0088376],[5.709862,50.0093927],[5.7094811,50.0098202],[5.7090358,50.0100718],[5.7086818,50.0101442],[5.7081883,50.0099512],[5.7083653,50.009734],[5.7088535,50.0093823]]}},{"type":"Feature","properties":{"b":"hedge"},"geometry":{"type":"LineString","coordinates":[[5.715006,50.0062947],[5.7147794,50.0064262],[5.7147063,50.0063799],[5.7149243,50.0062453],[5.7149207,50.0062277]]}},{"type":"Feature","properties":{"b":"hedge"},"geometry":{"type":"LineString","coordinates":[[5.7150198,50.0063939],[5.715095,50.0063472],[5.7151174,50.0063632]]}},{"type":"Feature","properties":{"b":"hedge"},"geometry":{"type":"LineString","coordinates":[[5.7151794,50.0063933],[5.7149888,50.006505],[5.7149309,50.0064984],[5.7149065,50.0065219],[5.7150117,50.006601]]}},{"type":"Feature","properties":{"b":"tree_row"},"geometry":{"type":"LineString","coordinates":[[5.7211885,50.0043602],[5.7207118,50.0040526]]}},{"type":"Feature","properties":{"b":"tree_row"},"geometry":{"type":"LineString","coordinates":[[5.7214652,50.0066691],[5.7222218,50.0068581],[5.7222908,50.0069188],[5.722484,50.0069642]]}},{"type":"Feature","properties":{"b":"hedge"},"geometry":{"type":"LineString","coordinates":[[5.7214208,50.0055661],[5.7214221,50.005553],[5.7214128,50.0055453],[5.7213929,50.0055422],[5.7213783,50.0055516],[5.7213429,50.0055405],[5.7213951,50.0054657],[5.7214448,50.0055019],[5.7214885,50.0055336],[5.7214562,50.0055769],[5.7214208,50.0055661]]}},{"type":"Feature","properties":{"b":"hedge"},"geometry":{"type":"LineString","coordinates":[[5.7213929,50.0055422],[5.7213951,50.0054657]]}},{"type":"Feature","properties":{"b":"hedge"},"geometry":{"type":"LineString","coordinates":[[5.7214128,50.0055453],[5.7214448,50.0055019]]}},{"type":"Feature","properties":{"b":"hedge"},"geometry":{"type":"LineString","coordinates":[[5.7214221,50.005553],[5.7214885,50.0055336]]}},{"type":"Feature","properties":{"b":"hedge"},"geometry":{"type":"LineString","coordinates":[[5.7802892,49.9884733],[5.7798799,49.9887105],[5.7797983,49.9887578],[5.779827,49.9888629]]}},{"type":"Feature","properties":{"b":"hedge"},"geometry":{"type":"LineString","coordinates":[[5.7808363,49.9883388],[5.7810871,49.988505]]}},{"type":"Feature","properties":{"b":"hedge"},"geometry":{"type":"LineString","coordinates":[[5.7532304,49.9945018],[5.7523754,49.9950346],[5.752877,49.9953915]]}},{"type":"Feature","properties":{"b":"hedge"},"geometry":{"type":"LineString","coordinates":[[5.7521474,49.9847741],[5.7541376,49.985576],[5.754025,49.9857968]]}},{"type":"Feature","properties":{"b":"hedge"},"geometry":{"type":"LineString","coordinates":[[5.7475823,49.9832357],[5.7477379,49.9831856],[5.747813,49.9830873],[5.7481563,49.9823768]]}},{"type":"Feature","properties":{"b":"hedge"},"geometry":{"type":"LineString","coordinates":[[5.7498997,49.9834944],[5.749948,49.9837031],[5.7502162,49.9842394]]}},{"type":"Feature","properties":{"b":"hedge"},"geometry":{"type":"LineString","coordinates":[[5.7835373,50.0136858],[5.7833844,50.0133307],[5.7833749,50.0133116],[5.7830857,50.0127282]]}},{"type":"Feature","properties":{"b":"hedge"},"geometry":{"type":"LineString","coordinates":[[5.7404181,49.9887613],[5.7401097,49.9890975],[5.7410511,49.9894373],[5.7413316,49.9893432]]}},{"type":"Feature","properties":{"b":"hedge"},"geometry":{"type":"LineString","coordinates":[[5.7271922,50.0152887],[5.726307,50.0155093],[5.7258242,50.0156438]]}},{"type":"Feature","properties":{"b":"hedge"},"geometry":{"type":"LineString","coordinates":[[5.7642519,50.0566779],[5.7640236,50.0566613],[5.7623666,50.0571061],[5.7628843,50.0575056]]}},{"type":"Feature","properties":{"b":"tree_row"},"geometry":{"type":"LineString","coordinates":[[5.7374928,50.0142609],[5.7381621,50.0150053],[5.738554,50.0154428],[5.7388228,50.0157571],[5.7390946,50.0160622],[5.7393806,50.0163801],[5.7397582,50.0168121],[5.7400957,50.0171999],[5.740848,50.0180417]]}},{"type":"Feature","properties":{"b":"tree_row"},"geometry":{"type":"LineString","coordinates":[[5.7386943,50.0153723],[5.7386683,50.0154141],[5.7387269,50.0155352],[5.7391192,50.015981],[5.7395528,50.0164811],[5.7398996,50.0168753],[5.7403917,50.0174352],[5.7407906,50.0178851],[5.7408816,50.0179966],[5.740938,50.0180049]]}},{"type":"Feature","properties":{"b":"hedge"},"geometry":{"type":"LineString","coordinates":[[5.6959412,49.9982392],[5.6956394,49.998205]]}},{"type":"Feature","properties":{"b":"hedge"},"geometry":{"type":"LineString","coordinates":[[5.6959792,49.9982023],[5.6957309,49.9980995]]}},{"type":"Feature","properties":{"b":"tree_row"},"geometry":{"type":"LineString","coordinates":[[5.7143457,49.9827545],[5.713851,49.982332],[5.7136478,49.9821395],[5.7133878,49.9819278],[5.7128301,49.98163],[5.7120424,49.9812015]]}},{"type":"Feature","properties":{"b":"tree_row"},"geometry":{"type":"LineString","coordinates":[[5.7116501,49.9809988],[5.7118187,49.9811123]]}},{"type":"Feature","properties":{"b":"hedge"},"geometry":{"type":"LineString","coordinates":[[5.6873742,50.024263],[5.688576,50.0248155],[5.6886384,50.0247928]]}},{"type":"Feature","properties":{"b":"hedge"},"geometry":{"type":"LineString","coordinates":[[5.6835696,50.0262732],[5.6828768,50.0261988],[5.6816498,50.026073],[5.6811902,50.0260232],[5.6809655,50.0260365],[5.6805911,50.0260962]]}},{"type":"Feature","properties":{"b":"hedge"},"geometry":{"type":"LineString","coordinates":[[5.6929323,50.0490049],[5.6928679,50.0486156]]}},{"type":"Feature","properties":{"b":"hedge"},"geometry":{"type":"LineString","coordinates":[[5.6950526,50.0538707],[5.6951739,50.0535278]]}},{"type":"Feature","properties":{"b":"hedge"},"geometry":{"type":"LineString","coordinates":[[5.6959353,50.0546042],[5.6960681,50.0540214]]}},{"type":"Feature","properties":{"b":"hedge"},"geometry":{"type":"LineString","coordinates":[[5.6965051,50.0547696],[5.6966993,50.0541279]]}},{"type":"Feature","properties":{"b":"hedge"},"geometry":{"type":"LineString","coordinates":[[5.6968571,50.0548111],[5.6970108,50.0542058]]}},{"type":"Feature","properties":{"b":"hedge"},"geometry":{"type":"LineString","coordinates":[[5.6971686,50.054889],[5.6973223,50.0542916]]}},{"type":"Feature","properties":{"b":"hedge"},"geometry":{"type":"LineString","coordinates":[[5.7910261,49.9890424],[5.7910368,49.9885836]]}},{"type":"Feature","properties":{"b":"hedge"},"geometry":{"type":"LineString","coordinates":[[5.7393548,50.0316798],[5.74028,50.0312007]]}},{"type":"Feature","properties":{"b":"hedge"},"geometry":{"type":"LineString","coordinates":[[5.7068739,49.9879503],[5.7072457,49.9870866]]}},{"type":"Feature","properties":{"b":"hedge"},"geometry":{"type":"LineString","coordinates":[[5.7085404,49.9892463],[5.7088585,49.9885938]]}},{"type":"Feature","properties":{"b":"hedge"},"geometry":{"type":"LineString","coordinates":[[5.7057162,49.9915933],[5.706177,49.9913],[5.7066286,49.9909932],[5.7068474,49.9910082],[5.707171,49.9907284]]}},{"type":"Feature","properties":{"b":"hedge"},"geometry":{"type":"LineString","coordinates":[[5.6995231,50.0028181],[5.6998535,50.0028163]]}},{"type":"Feature","properties":{"b":"hedge"},"geometry":{"type":"LineString","coordinates":[[5.6982068,50.0027954],[5.6982664,50.0024194],[5.6983964,50.002355],[5.6987729,50.0023428]]}},{"type":"Feature","properties":{"b":"hedge"},"geometry":{"type":"LineString","coordinates":[[5.7072118,50.0019329],[5.7073039,50.0019259]]}},{"type":"Feature","properties":{"b":"hedge"},"geometry":{"type":"LineString","coordinates":[[5.7068963,50.0021296],[5.7068868,50.0019407],[5.7070656,50.0019381]]}},{"type":"Feature","properties":{"b":"hedge"},"geometry":{"type":"LineString","coordinates":[[5.7075883,50.0023193],[5.7075179,50.0019329],[5.7073716,50.0019268]]}},{"type":"Feature","properties":{"b":"hedge"},"geometry":{"type":"LineString","coordinates":[[5.7090886,50.001573],[5.7090753,50.0014444]]}},{"type":"Feature","properties":{"b":"hedge"},"geometry":{"type":"LineString","coordinates":[[5.7173966,50.0005879],[5.7173854,50.0005952],[5.7175495,50.0007204],[5.7175612,50.000716]]}},{"type":"Feature","properties":{"b":"hedge"},"geometry":{"type":"LineString","coordinates":[[5.7174175,50.0005796],[5.717429,50.0005738],[5.7176019,50.0007049],[5.7175861,50.0007094]]}},{"type":"Feature","properties":{"b":"hedge"},"geometry":{"type":"LineString","coordinates":[[5.7176373,50.0006974],[5.7176242,50.0007017],[5.7175115,50.0006169],[5.7175223,50.0006124]]}},{"type":"Feature","properties":{"b":"hedge"},"geometry":{"type":"LineString","coordinates":[[5.7176605,50.0006905],[5.7176722,50.0006859],[5.7175555,50.0005944],[5.7175426,50.0006005]]}},{"type":"Feature","properties":{"b":"hedge"},"geometry":{"type":"LineString","coordinates":[[5.7177081,50.0006781],[5.7176964,50.0006835],[5.7175713,50.0005857],[5.7175812,50.0005802]]}},{"type":"Feature","properties":{"b":"hedge"},"geometry":{"type":"LineString","coordinates":[[5.71773,50.0006702],[5.717744,50.0006656],[5.7176107,50.0005611],[5.7175992,50.0005671]]}},{"type":"Feature","properties":{"b":"hedge"},"geometry":{"type":"LineString","coordinates":[[5.7177802,50.0006566],[5.7177666,50.0006628],[5.717563,50.0005051],[5.7175729,50.0005001]]}},{"type":"Feature","properties":{"b":"hedge"},"geometry":{"type":"LineString","coordinates":[[5.7175897,50.000488],[5.7176009,50.0004816],[5.7178187,50.0006484],[5.7178039,50.0006529]]}},{"type":"Feature","properties":{"b":"hedge"},"geometry":{"type":"LineString","coordinates":[[5.7178247,50.0004552],[5.7178689,50.0004335],[5.7178861,50.0004462],[5.7179535,50.0004104],[5.7179749,50.0004259],[5.7180161,50.0004022]]}},{"type":"Feature","properties":{"b":"hedge"},"geometry":{"type":"LineString","coordinates":[[5.7179749,50.0004259],[5.718014,50.0004558],[5.7180285,50.0004669],[5.7180718,50.0004435],[5.7181152,50.0004766],[5.7181309,50.0004886],[5.7181673,50.0005164]]}},{"type":"Feature","properties":{"b":"hedge"},"geometry":{"type":"LineString","coordinates":[[5.7179656,50.0004813],[5.718014,50.0004558]]}},{"type":"Feature","properties":{"b":"hedge"},"geometry":{"type":"LineString","coordinates":[[5.7180126,50.0004265],[5.718035,50.0004441],[5.7180802,50.0004202],[5.7180425,50.0003906]]}},{"type":"Feature","properties":{"b":"hedge"},"geometry":{"type":"LineString","coordinates":[[5.7180802,50.0004202],[5.718219,50.0005271],[5.7181617,50.0005427],[5.7181034,50.0005586],[5.7180737,50.0005667],[5.7180164,50.0005824],[5.7179613,50.0005976],[5.7177947,50.0004721],[5.7178042,50.0004669]]}},{"type":"Feature","properties":{"b":"hedge"},"geometry":{"type":"LineString","coordinates":[[5.7178861,50.0004462],[5.717907,50.000463],[5.7179445,50.0004931],[5.71792,50.0005057]]}},{"type":"Feature","properties":{"b":"hedge"},"geometry":{"type":"LineString","coordinates":[[5.717907,50.000463],[5.7178612,50.0004861],[5.7178794,50.0005009],[5.7179162,50.0005311],[5.7179505,50.0005592],[5.717963,50.0005695]]}},{"type":"Feature","properties":{"b":"hedge"},"geometry":{"type":"LineString","coordinates":[[5.7178794,50.0005009],[5.7179014,50.00049]]}},{"type":"Feature","properties":{"b":"hedge"},"geometry":{"type":"LineString","coordinates":[[5.7179162,50.0005311],[5.7179389,50.00052]]}},{"type":"Feature","properties":{"b":"hedge"},"geometry":{"type":"LineString","coordinates":[[5.7179505,50.0005592],[5.7179739,50.0005483]]}},{"type":"Feature","properties":{"b":"hedge"},"geometry":{"type":"LineString","coordinates":[[5.7180164,50.0005824],[5.7179941,50.0005585],[5.7180154,50.0005489],[5.7179817,50.0005213],[5.717964,50.0005062],[5.7180059,50.0004843],[5.718023,50.0004965],[5.7180684,50.0004743]]}},{"type":"Feature","properties":{"b":"hedge"},"geometry":{"type":"LineString","coordinates":[[5.7179817,50.0005213],[5.7179589,50.0005317]]}},{"type":"Feature","properties":{"b":"hedge"},"geometry":{"type":"LineString","coordinates":[[5.7180017,50.0005086],[5.7180222,50.000524],[5.7181152,50.0004766]]}},{"type":"Feature","properties":{"b":"hedge"},"geometry":{"type":"LineString","coordinates":[[5.7180154,50.0005489],[5.7180291,50.0005591]]}},{"type":"Feature","properties":{"b":"hedge"},"geometry":{"type":"LineString","coordinates":[[5.7180737,50.0005667],[5.7180389,50.0005374],[5.7180835,50.0005138],[5.7181107,50.000536]]}},{"type":"Feature","properties":{"b":"hedge"},"geometry":{"type":"LineString","coordinates":[[5.7181034,50.0005586],[5.7180845,50.0005424]]}},{"type":"Feature","properties":{"b":"hedge"},"geometry":{"type":"LineString","coordinates":[[5.7181261,50.0005149],[5.7181617,50.0005427]]}},{"type":"Feature","properties":{"b":"hedge"},"geometry":{"type":"LineString","coordinates":[[5.7181309,50.0004886],[5.7181091,50.0004986]]}},{"type":"Feature","properties":{"b":"hedge"},"geometry":{"type":"LineString","coordinates":[[5.7180161,50.0004022],[5.718037,50.0004184]]}},{"type":"Feature","properties":{"b":"hedge"},"geometry":{"type":"LineString","coordinates":[[5.7184083,50.0004956],[5.7184205,50.0004923],[5.7182618,50.0003663],[5.7182512,50.0003713]]}},{"type":"Feature","properties":{"b":"hedge"},"geometry":{"type":"LineString","coordinates":[[5.7183875,50.0005016],[5.7183764,50.000505],[5.7182172,50.0003831],[5.7182264,50.0003784]]}},{"type":"Feature","properties":{"b":"hedge"},"geometry":{"type":"LineString","coordinates":[[5.7184574,50.0004835],[5.7184468,50.000487],[5.7183364,50.0004018],[5.7183445,50.000398]]}},{"type":"Feature","properties":{"b":"hedge"},"geometry":{"type":"LineString","coordinates":[[5.7184776,50.000476],[5.7184872,50.0004723],[5.718375,50.0003838],[5.7183659,50.0003876]]}},{"type":"Feature","properties":{"b":"hedge"},"geometry":{"type":"LineString","coordinates":[[5.7185235,50.0004636],[5.7185144,50.0004672],[5.7183913,50.0003733],[5.7183994,50.000369]]}},{"type":"Feature","properties":{"b":"hedge"},"geometry":{"type":"LineString","coordinates":[[5.7185457,50.0004585],[5.718555,50.0004551],[5.7184287,50.0003553],[5.7184211,50.0003583]]}},{"type":"Feature","properties":{"b":"hedge"},"geometry":{"type":"LineString","coordinates":[[5.7185907,50.000444],[5.7185815,50.0004477],[5.7183843,50.0002922],[5.718393,50.0002885]]}},{"type":"Feature","properties":{"b":"hedge"},"geometry":{"type":"LineString","coordinates":[[5.7186122,50.0004397],[5.7186223,50.0004362],[5.7184246,50.0002738],[5.7184141,50.0002782]]}},{"type":"Feature","properties":{"b":"hedge"},"geometry":{"type":"LineString","coordinates":[[5.7179486,49.9996677],[5.7179195,49.9996714],[5.7178936,49.9996806],[5.7178733,49.9996945],[5.7178605,49.9997117],[5.7178566,49.9997305],[5.7178618,49.9997493],[5.7178758,49.9997661],[5.717897,49.9997794]]}},{"type":"Feature","properties":{"b":"hedge"},"geometry":{"type":"LineString","coordinates":[[5.7180186,49.9997736],[5.718038,49.9997565],[5.7180474,49.9997363],[5.7180455,49.9997152],[5.7180327,49.9996957],[5.7180103,49.9996802],[5.7179812,49.9996705],[5.7179486,49.9996677]]}},{"type":"Feature","properties":{"b":"tree_row"},"geometry":{"type":"LineString","coordinates":[[5.7861283,50.0160626],[5.7865843,50.0160419],[5.7868096,50.0159747],[5.7873219,50.0159678],[5.7876518,50.0160005],[5.7881346,50.016197]]}},{"type":"Feature","properties":{"b":"tree_row"},"geometry":{"type":"LineString","coordinates":[[5.785203,50.0152077],[5.7868096,50.0159747]]}},{"type":"Feature","properties":{"b":"hedge"},"geometry":{"type":"LineString","coordinates":[[5.7823062,50.0173535],[5.782038,50.0174672],[5.7816946,50.017643],[5.7815123,50.0178705],[5.7814087,50.018107]]}},{"type":"Feature","properties":{"b":"hedge"},"geometry":{"type":"LineString","coordinates":[[5.7810134,50.0187908],[5.7797796,50.0196232]]}},{"type":"Feature","properties":{"b":"hedge"},"geometry":{"type":"LineString","coordinates":[[5.6994726,50.0030022],[5.6994777,50.003279],[5.6999134,50.0032691]]}},{"type":"Feature","properties":{"b":"hedge"},"geometry":{"type":"LineString","coordinates":[[5.7033359,50.0064159],[5.7034198,50.0061828]]}},{"type":"Feature","properties":{"b":"hedge"},"geometry":{"type":"LineString","coordinates":[[5.7034324,50.0064484],[5.703529,50.0062346]]}},{"type":"Feature","properties":{"b":"hedge"},"geometry":{"type":"LineString","coordinates":[[5.7035764,50.0064687],[5.703647,50.0062987]]}},{"type":"Feature","properties":{"b":"hedge"},"geometry":{"type":"LineString","coordinates":[[5.7037188,50.0064901],[5.7037711,50.006366]]}},{"type":"Feature","properties":{"b":"hedge"},"geometry":{"type":"LineString","coordinates":[[5.7038462,50.0065341],[5.7038998,50.0064107]]}},{"type":"Feature","properties":{"b":"hedge"},"geometry":{"type":"LineString","coordinates":[[5.7030389,50.0064842],[5.7033404,50.0061461],[5.7034198,50.0061828],[5.7035123,50.0062256],[5.703529,50.0062346],[5.703647,50.0062987],[5.7037711,50.006366],[5.7038123,50.0063883],[5.7038998,50.0064107],[5.7040701,50.0064542],[5.7045344,50.0065705],[5.7044575,50.0067235],[5.704266,50.0066867]]}},{"type":"Feature","properties":{"b":"hedge"},"geometry":{"type":"LineString","coordinates":[[5.7031302,50.0075974],[5.702693,50.0075233],[5.702595,50.007735],[5.702892,50.0078154],[5.7030239,50.0078372]]}},{"type":"Feature","properties":{"b":"hedge"},"geometry":{"type":"LineString","coordinates":[[5.7031143,50.0072046],[5.7026007,50.0071144]]}},{"type":"Feature","properties":{"b":"hedge"},"geometry":{"type":"LineString","coordinates":[[5.7031656,50.0066262],[5.7029851,50.0068116]]}},{"type":"Feature","properties":{"b":"hedge"},"geometry":{"type":"LineString","coordinates":[[5.7027457,50.0067676],[5.7029851,50.0068116],[5.703461,50.0068989]]}},{"type":"Feature","properties":{"b":"hedge"},"geometry":{"type":"LineString","coordinates":[[5.702246,50.0068572],[5.7026763,50.0069336],[5.7031641,50.0070171]]}},{"type":"Feature","properties":{"b":"hedge"},"geometry":{"type":"LineString","coordinates":[[5.7019536,50.007083],[5.7019855,50.0070029]]}},{"type":"Feature","properties":{"b":"hedge"},"geometry":{"type":"LineString","coordinates":[[5.7020742,50.0069057],[5.7020003,50.0068902],[5.7019626,50.0069987],[5.7019855,50.0070029],[5.7026007,50.0071144]]}},{"type":"Feature","properties":{"b":"hedge"},"geometry":{"type":"LineString","coordinates":[[5.7020772,50.0072128],[5.7025272,50.0072903]]}},{"type":"Feature","properties":{"b":"hedge"},"geometry":{"type":"LineString","coordinates":[[5.7022264,50.0066717],[5.7027457,50.0067676],[5.7026763,50.0069336],[5.7026007,50.0071144],[5.7025272,50.0072903],[5.702436,50.0075083]]}},{"type":"Feature","properties":{"b":"hedge"},"geometry":{"type":"LineString","coordinates":[[5.7021902,50.0064862],[5.7021254,50.0066354],[5.7025641,50.0067168]]}},{"type":"Feature","properties":{"b":"hedge"},"geometry":{"type":"LineString","coordinates":[[5.7033631,50.005962],[5.7032093,50.0059281],[5.7029711,50.006462]]}},{"type":"Feature","properties":{"b":"hedge"},"geometry":{"type":"LineString","coordinates":[[5.7030736,50.005653],[5.7031453,50.0055036]]}},{"type":"Feature","properties":{"b":"hedge"},"geometry":{"type":"LineString","coordinates":[[5.7033585,50.0055584],[5.7032206,50.0058424]]}},{"type":"Feature","properties":{"b":"hedge"},"geometry":{"type":"LineString","coordinates":[[5.7028136,50.0056869],[5.7028942,50.0055071],[5.7030261,50.0055319],[5.7030932,50.0054902],[5.7031453,50.0055036],[5.7033585,50.0055584],[5.7036434,50.0056316],[5.7036796,50.0057857]]}},{"type":"Feature","properties":{"b":"hedge"},"geometry":{"type":"LineString","coordinates":[[5.7021712,50.0055993],[5.7023674,50.005635]]}},{"type":"Feature","properties":{"b":"hedge"},"geometry":{"type":"LineString","coordinates":[[5.7023478,50.0053274],[5.7027751,50.0054476],[5.702739,50.0055352]]}},{"type":"Feature","properties":{"b":"hedge"},"geometry":{"type":"LineString","coordinates":[[5.7016664,50.0051618],[5.7015021,50.0053909]]}},{"type":"Feature","properties":{"b":"hedge"},"geometry":{"type":"LineString","coordinates":[[5.702047,50.0052514],[5.7023478,50.0053274],[5.7021712,50.0055993],[5.7021495,50.0056326],[5.7020259,50.0055827]]}},{"type":"Feature","properties":{"b":"hedge"},"geometry":{"type":"LineString","coordinates":[[5.701331,50.0050828],[5.7016664,50.0051618],[5.702047,50.0052514],[5.7019197,50.0053928]]}},{"type":"Feature","properties":{"b":"hedge"},"geometry":{"type":"LineString","coordinates":[[5.7002102,50.0049205],[5.7002524,50.0048318],[5.7006828,50.0049249],[5.7005856,50.0052053],[5.7003527,50.0051341]]}},{"type":"Feature","properties":{"b":"hedge"},"geometry":{"type":"LineString","coordinates":[[5.6991097,50.0049355],[5.69891,50.0049079],[5.698986,50.0046761]]}},{"type":"Feature","properties":{"b":"hedge"},"geometry":{"type":"LineString","coordinates":[[5.6992575,50.0048304],[5.6992912,50.0047119]]}},{"type":"Feature","properties":{"b":"hedge"},"geometry":{"type":"LineString","coordinates":[[5.6993954,50.0049811],[5.6995266,50.0049985],[5.6996128,50.0047509]]}},{"type":"Feature","properties":{"b":"hedge"},"geometry":{"type":"LineString","coordinates":[[5.6986055,50.0048149],[5.6986545,50.0046662],[5.6987668,50.0046594],[5.698986,50.0046761],[5.699014,50.0046783],[5.6992912,50.0047119],[5.6996128,50.0047509],[5.6999253,50.0047887],[5.6998755,50.0049215]]}},{"type":"Feature","properties":{"b":"hedge"},"geometry":{"type":"LineString","coordinates":[[5.699063,50.0058855],[5.6988374,50.005847]]}},{"type":"Feature","properties":{"b":"hedge"},"geometry":{"type":"LineString","coordinates":[[5.699008,50.0059596],[5.6987993,50.0059328]]}},{"type":"Feature","properties":{"b":"hedge"},"geometry":{"type":"LineString","coordinates":[[5.6989892,50.0060415],[5.6987671,50.0060053]]}},{"type":"Feature","properties":{"b":"hedge"},"geometry":{"type":"LineString","coordinates":[[5.6989688,50.0061209],[5.6987314,50.0060856]]}},{"type":"Feature","properties":{"b":"hedge"},"geometry":{"type":"LineString","coordinates":[[5.6985075,50.0058865],[5.6987993,50.0059328]]}},{"type":"Feature","properties":{"b":"hedge"},"geometry":{"type":"LineString","coordinates":[[5.6984397,50.0055851],[5.698402,50.0056723],[5.6988759,50.0057603]]}},{"type":"Feature","properties":{"b":"hedge"},"geometry":{"type":"LineString","coordinates":[[5.6995929,50.0057983],[5.6989035,50.0056938]]}},{"type":"Feature","properties":{"b":"hedge"},"geometry":{"type":"LineString","coordinates":[[5.6993327,50.0053864],[5.6994452,50.0050775],[5.6996668,50.0051085]]}},{"type":"Feature","properties":{"b":"hedge"},"geometry":{"type":"LineString","coordinates":[[5.6990404,50.0053449],[5.6993327,50.0053864],[5.6997768,50.0054495],[5.69981,50.0053671]]}},{"type":"Feature","properties":{"b":"hedge"},"geometry":{"type":"LineString","coordinates":[[5.6982339,50.0060933],[5.6986929,50.0061723],[5.6987314,50.0060856],[5.6987671,50.0060053],[5.6987993,50.0059328],[5.6988374,50.005847],[5.6988759,50.0057603],[5.6988889,50.005731],[5.6989035,50.0056938],[5.6990404,50.0053449],[5.6985844,50.0052799],[5.6985407,50.0053793]]}},{"type":"Feature","properties":{"b":"hedge"},"geometry":{"type":"LineString","coordinates":[[5.6991286,50.0062454],[5.6988067,50.0063161]]}},{"type":"Feature","properties":{"b":"hedge"},"geometry":{"type":"LineString","coordinates":[[5.6991248,50.0062701],[5.6988271,50.0063399]]}},{"type":"Feature","properties":{"b":"hedge"},"geometry":{"type":"LineString","coordinates":[[5.6996954,50.0067182],[5.6997408,50.0065802]]}},{"type":"Feature","properties":{"b":"hedge"},"geometry":{"type":"LineString","coordinates":[[5.6993849,50.0067918],[5.6994724,50.0065412]]}},{"type":"Feature","properties":{"b":"hedge"},"geometry":{"type":"LineString","coordinates":[[5.6991912,50.0066509],[5.6992395,50.0065074]]}},{"type":"Feature","properties":{"b":"hedge"},"geometry":{"type":"LineString","coordinates":[[5.698506,50.0066523],[5.6987585,50.0066916],[5.6988505,50.0064508]]}},{"type":"Feature","properties":{"b":"hedge"},"geometry":{"type":"LineString","coordinates":[[5.6999253,50.0063878],[5.6998469,50.0065957],[5.6997408,50.0065802],[5.6994724,50.0065412],[5.6992395,50.0065074],[5.6988505,50.0064508],[5.6987872,50.0063525],[5.6984043,50.0064368],[5.6983982,50.006477],[5.6982897,50.0065162]]}},{"type":"Feature","properties":{"b":"hedge"},"geometry":{"type":"LineString","coordinates":[[5.7002155,50.0069352],[5.7000187,50.0069018],[5.7001297,50.0066495]]}},{"type":"Feature","properties":{"b":"hedge"},"geometry":{"type":"LineString","coordinates":[[5.7004378,50.0068558],[5.7004869,50.006705]]}},{"type":"Feature","properties":{"b":"hedge"},"geometry":{"type":"LineString","coordinates":[[5.7006436,50.0070268],[5.7007441,50.0067444]]}},{"type":"Feature","properties":{"b":"hedge"},"geometry":{"type":"LineString","coordinates":[[5.7009481,50.0069473],[5.7010017,50.0067831]]}},{"type":"Feature","properties":{"b":"hedge"},"geometry":{"type":"LineString","coordinates":[[5.7016152,50.0069551],[5.701314,50.0069077]]}},{"type":"Feature","properties":{"b":"hedge"},"geometry":{"type":"LineString","coordinates":[[5.7016875,50.0071401],[5.7013014,50.0070729]]}},{"type":"Feature","properties":{"b":"hedge"},"geometry":{"type":"LineString","coordinates":[[5.7013777,50.0066916],[5.7013182,50.0068306],[5.701314,50.0069077],[5.7013054,50.0070641],[5.7013014,50.0070729],[5.701233,50.0072264]]}},{"type":"Feature","properties":{"b":"hedge"},"geometry":{"type":"LineString","coordinates":[[5.7012707,50.0067487],[5.7012993,50.0066552],[5.7010024,50.0065259]]}},{"type":"Feature","properties":{"b":"hedge"},"geometry":{"type":"LineString","coordinates":[[5.7005275,50.0064426],[5.7001446,50.0063806],[5.7001039,50.0063932],[5.7000203,50.0066325],[5.7001297,50.0066495],[5.7004869,50.006705],[5.7006247,50.0067265],[5.7007441,50.0067444],[5.7010017,50.0067831],[5.7013182,50.0068306]]}},{"type":"Feature","properties":{"b":"hedge"},"geometry":{"type":"LineString","coordinates":[[5.701943,50.006383],[5.7015149,50.0063094],[5.7014425,50.0064871],[5.7018443,50.0065525]]}},{"type":"Feature","properties":{"b":"hedge"},"geometry":{"type":"LineString","coordinates":[[5.7010702,50.0060667],[5.7019882,50.0061999]]}},{"type":"Feature","properties":{"b":"hedge"},"geometry":{"type":"LineString","coordinates":[[5.7017455,50.0057697],[5.7018074,50.0056031],[5.7014493,50.0054728]]}},{"type":"Feature","properties":{"b":"hedge"},"geometry":{"type":"LineString","coordinates":[[5.7011561,50.0058773],[5.7011501,50.0058995],[5.701665,50.0059766]]}},{"type":"Feature","properties":{"b":"hedge"},"geometry":{"type":"LineString","coordinates":[[5.7010901,50.0056283],[5.7014591,50.0056796],[5.7017455,50.0057697],[5.701665,50.0059766],[5.7016121,50.0061122],[5.7012353,50.0060584]]}},{"type":"Feature","properties":{"b":"hedge"},"geometry":{"type":"LineString","coordinates":[[5.7010401,50.005762],[5.7010901,50.0056283],[5.7011132,50.0055667]]}},{"type":"Feature","properties":{"b":"hedge"},"geometry":{"type":"LineString","coordinates":[[5.700225,50.0054194],[5.7001499,50.0056215]]}},{"type":"Feature","properties":{"b":"hedge"},"geometry":{"type":"LineString","coordinates":[[5.6999449,50.0053827],[5.6999841,50.0052654]]}},{"type":"Feature","properties":{"b":"hedge"},"geometry":{"type":"LineString","coordinates":[[5.7005253,50.0054587],[5.700225,50.0054194],[5.6999449,50.0053827],[5.6998906,50.0055367]]}},{"type":"Feature","properties":{"b":"hedge"},"geometry":{"type":"LineString","coordinates":[[5.7005758,50.0052974],[5.7002645,50.0051981],[5.7001808,50.005186]]}},{"type":"Feature","properties":{"b":"hedge"},"geometry":{"type":"LineString","coordinates":[[5.7007808,50.0055386],[5.7005253,50.0054587],[5.7005758,50.0052974],[5.7008569,50.005388]]}},{"type":"Feature","properties":{"b":"hedge"},"geometry":{"type":"LineString","coordinates":[[5.7010551,50.0055793],[5.7010725,50.0055382]]}},{"type":"Feature","properties":{"b":"hedge"},"geometry":{"type":"LineString","coordinates":[[5.7006933,50.0058215],[5.7007808,50.0055386],[5.7010551,50.0055793],[5.7009511,50.0058574]]}},{"type":"Feature","properties":{"b":"hedge"},"geometry":{"type":"LineString","coordinates":[[5.7003233,50.0058414],[5.7006534,50.0058879]]}},{"type":"Feature","properties":{"b":"hedge"},"geometry":{"type":"LineString","coordinates":[[5.7002479,50.0060463],[5.7003233,50.0058414],[5.7000187,50.0058002]]}},{"type":"Feature","properties":{"b":"hedge"},"geometry":{"type":"LineString","coordinates":[[5.6997406,50.0059678],[5.7002479,50.0060463],[5.7001551,50.0062945]]}},{"type":"Feature","properties":{"b":"hedge"},"geometry":{"type":"LineString","coordinates":[[5.6997979,50.0062415],[5.7001551,50.0062945],[5.7004642,50.0063404]]}},{"type":"Feature","properties":{"b":"tree_row"},"geometry":{"type":"LineString","coordinates":[[5.7028008,49.9868824],[5.7032546,49.9858743]]}},{"type":"Feature","properties":{"b":"tree_row"},"geometry":{"type":"LineString","coordinates":[[5.7199717,49.9808417],[5.720146,49.9813057],[5.724813,49.9818593],[5.7253573,49.9813207]]}}]}