{"type":"FeatureCollection","features":[{"type":"Feature","properties":{},"geometry":{"type":"Polygon","coordinates":[[[-1.231807,49.3135906],[-1.2296862,49.3153072],[-1.229021,49.314913],[-1.2311053,49.3131477],[-1.231807,49.3135906]]]}},{"type":"Feature","properties":{},"geometry":{"type":"Polygon","coordinates":[[[-1.2531921,49.3099107],[-1.2499166,49.3093186],[-1.2498018,49.3092392],[-1.2497664,49.3091507],[-1.2498432,49.3089494],[-1.2498554,49.3089175],[-1.2502492,49.3089479],[-1.2534174,49.3096309],[-1.2533745,49.3098338],[-1.2533176,49.3098852],[-1.2531921,49.3099107]]]}},{"type":"Feature","properties":{},"geometry":{"type":"Polygon","coordinates":[[[-1.2379979,49.3059207],[-1.2382328,49.3058518],[-1.2388157,49.306479],[-1.2401564,49.3071395],[-1.2407211,49.3072435],[-1.2406104,49.3074315],[-1.2404157,49.3075243],[-1.2399939,49.3074732],[-1.2397234,49.307478],[-1.2393878,49.3075006],[-1.2388168,49.3076748],[-1.2382049,49.3081329],[-1.2382917,49.3081724],[-1.231807,49.3135906],[-1.2311053,49.3131477],[-1.2380088,49.3075596],[-1.2383286,49.3072428],[-1.2383034,49.307086],[-1.2384314,49.3070578],[-1.2384531,49.3068852],[-1.238367,49.3066698],[-1.2381374,49.3064108],[-1.2381857,49.3063579],[-1.2378501,49.3059854],[-1.2379979,49.3059207]]]}},{"type":"Feature","properties":{},"geometry":{"type":"Polygon","coordinates":[[[-1.2873969,49.3260408],[-1.2874245,49.3259418],[-1.2861102,49.3257594],[-1.285233,49.3256431],[-1.2833077,49.3253629],[-1.2829094,49.325296],[-1.2822301,49.3252179],[-1.2812894,49.3250682],[-1.2810231,49.3250173],[-1.2788168,49.3247322],[-1.2778419,49.3245634],[-1.277468,49.3245268],[-1.2771944,49.3245698],[-1.2763099,49.3245156],[-1.2756208,49.324444],[-1.2749684,49.3244758],[-1.2743063,49.3244981],[-1.2737468,49.3245411],[-1.2734267,49.3246462],[-1.2730846,49.3248039],[-1.2727792,49.3248198],[-1.2723247,49.3246526],[-1.2718053,49.3242401],[-1.2715819,49.3239614],[-1.2715624,49.3238022],[-1.2715746,49.3237337],[-1.2718434,49.3235426],[-1.2721195,49.3233276],[-1.2721512,49.3230871],[-1.2721415,49.3229677],[-1.272034,49.3225711],[-1.2718141,49.3221809],[-1.2715966,49.3219628],[-1.2712203,49.3216872],[-1.2710346,49.3216474],[-1.2706706,49.3216283],[-1.2703676,49.3217318],[-1.2700499,49.321813],[-1.2695882,49.3219675],[-1.2692412,49.3221156],[-1.2688674,49.3221953],[-1.2685033,49.3222192],[-1.2682565,49.3221746],[-1.2682028,49.3220933],[-1.2681441,49.3218592],[-1.2680366,49.3216426],[-1.2678143,49.3213639],[-1.2676945,49.3212301],[-1.2675284,49.3210725],[-1.2674111,49.3209769],[-1.2669664,49.3208065],[-1.2668076,49.3207874],[-1.2667343,49.3208049],[-1.2666512,49.3207396],[-1.266551,49.3206727],[-1.2664631,49.3206632],[-1.2662554,49.3206902],[-1.2661678,49.3207565],[-1.2659743,49.3207677],[-1.2653737,49.3207654],[-1.2651632,49.3207922],[-1.2643154,49.3207954],[-1.2625708,49.320789],[-1.2611561,49.3207492],[-1.2605379,49.3207237],[-1.2603822,49.3206966],[-1.2601281,49.3208909],[-1.2608433,49.3208957],[-1.2624095,49.3209658],[-1.2642176,49.3209626],[-1.2646428,49.3209164],[-1.264782,49.320953],[-1.2650019,49.320953],[-1.2653611,49.3208989],[-1.2657545,49.3208893],[-1.2665975,49.3208814],[-1.2667441,49.3208957],[-1.2669395,49.3209403],[-1.2672718,49.3210502],[-1.2675479,49.3212827],[-1.2677654,49.3215805],[-1.2679487,49.3218704],[-1.2680195,49.3220153],[-1.2680317,49.3221443],[-1.2681368,49.3222701],[-1.2683249,49.3223259],[-1.2685375,49.322345],[-1.2688063,49.3223179],[-1.2690506,49.3222781],[-1.2695344,49.3221571],[-1.269918,49.3219803],[-1.270392,49.3218608],[-1.2705508,49.3217796],[-1.270761,49.321743],[-1.2710149,49.3217451],[-1.2711592,49.3218012],[-1.2713132,49.3219183],[-1.2715319,49.3220887],[-1.2716357,49.3222105],[-1.2716925,49.3222172],[-1.2717806,49.3223276],[-1.2718696,49.3225358],[-1.2719085,49.322715],[-1.2719344,49.3229256],[-1.2719603,49.3231283],[-1.2719448,49.3232994],[-1.2717115,49.3234898],[-1.2715474,49.3236283],[-1.2713833,49.3238062],[-1.2713815,49.3239154],[-1.271442,49.3240641],[-1.2715405,49.3241789],[-1.2717616,49.3243771],[-1.2720899,49.324608],[-1.2723301,49.3247735],[-1.2726134,49.3248872],[-1.2728812,49.3249267],[-1.2730834,49.3249109],[-1.2734444,49.324787],[-1.2735758,49.3247048],[-1.2737416,49.3246508],[-1.2739956,49.3246023],[-1.2741424,49.3246068],[-1.2748456,49.324599],[-1.2751791,49.3245595],[-1.275846,49.3245742],[-1.2764438,49.3246305],[-1.2771176,49.3246936],[-1.27761,49.3247059],[-1.2781404,49.3247735],[-1.2787071,49.3248264],[-1.2797161,49.3249807],[-1.2809842,49.3251507],[-1.282439,49.3253669],[-1.2835948,49.3255426],[-1.2836829,49.3255719],[-1.2837399,49.3256181],[-1.283797,49.3256113],[-1.2838782,49.3255854],[-1.2854694,49.3258005],[-1.2868999,49.3260032],[-1.2873969,49.3260408]]]}},{"type":"Feature","properties":{},"geometry":{"type":"Polygon","coordinates":[[[-1.2268751,49.3170402],[-1.2267909,49.3169952],[-1.2268085,49.3167137],[-1.229021,49.314913],[-1.2296862,49.3153072],[-1.227542,49.31704],[-1.2270054,49.3171173],[-1.2268751,49.3170402]]]}},{"type":"Feature","properties":{},"geometry":{"type":"Polygon","coordinates":[[[-1.2784722,49.319831],[-1.2785137,49.3197184],[-1.2784584,49.319644],[-1.2782338,49.3196283],[-1.2781889,49.3194886],[-1.278486,49.3193332],[-1.2786484,49.3191823],[-1.2788039,49.3190787],[-1.2791564,49.3188039],[-1.2795019,49.3184728],[-1.2793775,49.3183985],[-1.279305,49.3184863],[-1.2788385,49.3189413],[-1.2787486,49.3190179],[-1.2786277,49.31893],[-1.2784826,49.318921],[-1.2783443,49.3189638],[-1.2782545,49.3190449],[-1.2781232,49.319144],[-1.2779608,49.3190584],[-1.2776913,49.3189773],[-1.2776636,49.3188534],[-1.2777293,49.3187859],[-1.2779297,49.3188377],[-1.2779988,49.3187926],[-1.2778848,49.3186507],[-1.2776774,49.3185809],[-1.2775289,49.3186147],[-1.2773008,49.3185268],[-1.2773457,49.318448],[-1.2774528,49.318225],[-1.2774528,49.3180719],[-1.2773112,49.3180561],[-1.2771833,49.3182138],[-1.2771108,49.3182295],[-1.2770935,49.3180561],[-1.2769553,49.3179795],[-1.276817,49.3178556],[-1.2767825,49.3177655],[-1.2766235,49.3177655],[-1.2763575,49.3178489],[-1.2761709,49.3180448],[-1.2763056,49.3183894],[-1.2763091,49.318448],[-1.276202,49.3185629],[-1.2760983,49.3186057],[-1.2759877,49.3186913],[-1.2759255,49.3188197],[-1.2758081,49.3189233],[-1.2758495,49.3190179],[-1.2758596,49.3190814],[-1.2756456,49.3190854],[-1.2755247,49.3191237],[-1.2753519,49.319099],[-1.2749891,49.3191012],[-1.2747161,49.319162],[-1.2744846,49.3193445],[-1.2744466,49.3195157],[-1.2745088,49.3196823],[-1.2746367,49.3198423],[-1.2746574,49.3200179],[-1.2747576,49.3202026],[-1.2748543,49.3202837],[-1.2749476,49.320117],[-1.2750306,49.3200968],[-1.2751342,49.3201013],[-1.275307,49.3199571],[-1.2752897,49.320063],[-1.2752932,49.3202116],[-1.2752172,49.3202792],[-1.2750409,49.3203175],[-1.2750548,49.3203693],[-1.2751964,49.3203986],[-1.2753865,49.3203873],[-1.2753658,49.3202747],[-1.2754176,49.3201688],[-1.2757044,49.3201936],[-1.2762054,49.3199616],[-1.2762918,49.3199571],[-1.2761778,49.3198378],[-1.2761121,49.3196621],[-1.2762296,49.3195832],[-1.2765302,49.3195337],[-1.2766546,49.3195585],[-1.276665,49.3197544],[-1.2765855,49.3198648],[-1.276665,49.3199278],[-1.276779,49.3199684],[-1.27709,49.320099],[-1.2771557,49.3201779],[-1.2772144,49.3203333],[-1.2773665,49.3204346],[-1.2775911,49.3205045],[-1.277864,49.3206216],[-1.2779262,49.3205315],[-1.2780057,49.3204504],[-1.2780472,49.3204346],[-1.2780161,49.3203558],[-1.2781474,49.3203288],[-1.2783651,49.3204234],[-1.2783582,49.320581],[-1.2785862,49.3205225],[-1.2787279,49.3205337],[-1.2788316,49.3204369],[-1.2787763,49.3203738],[-1.2785828,49.3203378],[-1.2784722,49.3202905],[-1.2785793,49.3201779],[-1.2785931,49.3200089],[-1.2786277,49.3199098],[-1.2784722,49.319831]]]}},{"type":"Feature","properties":{},"geometry":{"type":"Polygon","coordinates":[[[-1.2270836,49.3131779],[-1.2269749,49.3130782],[-1.2268381,49.3129571],[-1.2266839,49.3131391],[-1.2263668,49.3135806],[-1.2263366,49.3136659],[-1.2261628,49.3139186],[-1.2260776,49.3140434],[-1.2257115,49.3145215],[-1.2255424,49.314762],[-1.2253873,49.3149599],[-1.2253081,49.3150554],[-1.225243,49.3151647],[-1.2251534,49.3152975],[-1.2251199,49.3153694],[-1.2251,49.3154817],[-1.2251004,49.315586],[-1.2251106,49.3156736],[-1.2251395,49.3157612],[-1.2251688,49.3158213],[-1.2252388,49.3158231],[-1.2252818,49.3157715],[-1.2253705,49.3156041],[-1.2255291,49.3153606],[-1.225638,49.3152299],[-1.2257292,49.3151021],[-1.2257643,49.315023],[-1.225827,49.3149216],[-1.2259224,49.3147791],[-1.2260016,49.3146821],[-1.2260641,49.3145746],[-1.2261123,49.3145577],[-1.2261969,49.314418],[-1.226375,49.3141625],[-1.2266423,49.3138191],[-1.2268414,49.3135697],[-1.2268428,49.3135075],[-1.226905,49.3134239],[-1.2270836,49.3131779]]]}},{"type":"Feature","properties":{},"geometry":{"type":"Polygon","coordinates":[[[-1.2575909,49.285454],[-1.2571927,49.2856985],[-1.2566949,49.285922],[-1.2565397,49.2859392],[-1.256487,49.2859048],[-1.2563406,49.2854922],[-1.2566188,49.285412],[-1.2572864,49.2853031],[-1.2574826,49.2852974],[-1.2576202,49.2853604],[-1.2575909,49.285454]]]}},{"type":"Feature","properties":{},"geometry":{"type":"Polygon","coordinates":[[[-1.2436001,49.291746],[-1.2436147,49.2915894],[-1.243603,49.2915016],[-1.243401,49.2913526],[-1.2431784,49.2913354],[-1.2431462,49.291366],[-1.2430759,49.2916429],[-1.2430759,49.2917613],[-1.2431755,49.2917727],[-1.2432106,49.2917059],[-1.2433395,49.2917365],[-1.2435093,49.2917575],[-1.2436001,49.291746]]]}},{"type":"Feature","properties":{},"geometry":{"type":"Polygon","coordinates":[[[-1.2406952,49.2960954],[-1.2407479,49.2958223],[-1.2407304,49.2956581],[-1.2408211,49.2955531],[-1.2408241,49.2954977],[-1.2409471,49.295385],[-1.2407802,49.2953545],[-1.2406777,49.2953525],[-1.240663,49.2954251],[-1.2404815,49.2957784],[-1.2404376,49.2958777],[-1.2404961,49.2960496],[-1.2405898,49.2960935],[-1.2406952,49.2960954]]]}},{"type":"Feature","properties":{},"geometry":{"type":"Polygon","coordinates":[[[-1.2586743,49.2852458],[-1.2585777,49.2849689],[-1.2580155,49.2851732],[-1.2578222,49.2852496],[-1.2579804,49.2853986],[-1.2581063,49.2854578],[-1.2582468,49.2854426],[-1.2584049,49.2853776],[-1.2586743,49.2852458]]]}},{"type":"Feature","properties":{},"geometry":{"type":"Polygon","coordinates":[[[-1.2583779,49.3207517],[-1.2584924,49.3207788],[-1.2586225,49.3207924],[-1.2585841,49.3205119],[-1.2582087,49.3200033],[-1.2577155,49.3197779],[-1.2572592,49.3196339],[-1.2559564,49.3196867],[-1.255132,49.3199218],[-1.2547051,49.3200561],[-1.2544107,49.3201809],[-1.2541237,49.3204447],[-1.254028,49.3206942],[-1.2541384,49.321246],[-1.2542929,49.3216058],[-1.2545947,49.3217977],[-1.2548891,49.3219128],[-1.2551762,49.3218984],[-1.2552792,49.3218265],[-1.2548008,49.3216633],[-1.2544696,49.3212843],[-1.2542929,49.3209917],[-1.2542635,49.3206175],[-1.2548523,49.3201809],[-1.2555001,49.319965],[-1.2565526,49.3197539],[-1.2571929,49.3197731],[-1.2576419,49.3199074],[-1.2582013,49.3203056],[-1.2584001,49.3206031],[-1.2583779,49.3207517]]]}},{"type":"Feature","properties":{},"geometry":{"type":"Polygon","coordinates":[[[-1.2778709,49.3179935],[-1.2777641,49.3179503],[-1.2779776,49.3177056],[-1.277352,49.3173578],[-1.2771201,49.3175353],[-1.2770023,49.3174897],[-1.2771238,49.3173794],[-1.276995,49.317317],[-1.2767668,49.317269],[-1.2767337,49.3172378],[-1.2769803,49.3171011],[-1.2772268,49.3171995],[-1.277812,49.3174993],[-1.2782131,49.317732],[-1.2778709,49.3179935]]]}},{"type":"Feature","properties":{},"geometry":{"type":"Polygon","coordinates":[[[-1.2714981,49.320616],[-1.2716803,49.3205889],[-1.2717765,49.3205583],[-1.2716412,49.3203531],[-1.2714799,49.3201919],[-1.2713498,49.320141],[-1.2711051,49.3199307],[-1.270923,49.3199986],[-1.2713211,49.3204684],[-1.2712587,49.3204837],[-1.2711286,49.3203429],[-1.2710375,49.3203141],[-1.2710271,49.3203565],[-1.2713446,49.3206838],[-1.2714226,49.3206838],[-1.2714356,49.3206431],[-1.2713654,49.3205431],[-1.2714278,49.3205346],[-1.2714981,49.320616]]]}},{"type":"Feature","properties":{},"geometry":{"type":"Polygon","coordinates":[[[-1.2612451,49.3211876],[-1.2614533,49.321096],[-1.2613934,49.3210112],[-1.2612477,49.3210112],[-1.2611332,49.3210214],[-1.2606908,49.3213436],[-1.2601599,49.3215726],[-1.2599414,49.3216235],[-1.2596395,49.3216659],[-1.2593168,49.3216812],[-1.2591581,49.3216727],[-1.2589889,49.321632],[-1.258864,49.3215574],[-1.2587963,49.3214878],[-1.2587183,49.3215353],[-1.2586636,49.3216371],[-1.2589056,49.3217796],[-1.2591425,49.321844],[-1.2595874,49.321861],[-1.2599309,49.3217982],[-1.2605139,49.3216354],[-1.2610421,49.3213436],[-1.2612451,49.3211876]]]}},{"type":"Feature","properties":{},"geometry":{"type":"Polygon","coordinates":[[[-1.266551,49.3206727],[-1.266753,49.3204212],[-1.2672461,49.3202845],[-1.2680042,49.3201022],[-1.268214,49.3200422],[-1.2683723,49.319975],[-1.2684459,49.3198695],[-1.2684496,49.3196848],[-1.2683539,49.3193657],[-1.2683097,49.3191954],[-1.268652,49.3187588],[-1.2688801,49.3185189],[-1.2690347,49.3183294],[-1.2691709,49.3182502],[-1.2695094,49.3181711],[-1.2698296,49.318243],[-1.2705473,49.3184925],[-1.2711214,49.318646],[-1.2713422,49.318754],[-1.2718317,49.3192962],[-1.2720267,49.3194809],[-1.2721408,49.3195432],[-1.2724315,49.3195528],[-1.2729541,49.319205],[-1.2738668,49.3186892],[-1.2740655,49.3186868],[-1.2741796,49.3187948],[-1.2744483,49.3188835],[-1.2747537,49.31885],[-1.2751696,49.3187228],[-1.2754198,49.3187036],[-1.2755045,49.3187372],[-1.2754567,49.318778],[-1.2753168,49.318814],[-1.2753389,49.3188835],[-1.2753941,49.3189387],[-1.2755008,49.3189651],[-1.2756223,49.3189723],[-1.2756775,49.3189339],[-1.275637,49.3188979],[-1.2756848,49.318766],[-1.2756296,49.3186916],[-1.2754051,49.3185957],[-1.2752211,49.3186149],[-1.2749561,49.3186604],[-1.2746176,49.318766],[-1.2744372,49.318766],[-1.27429,49.3187108],[-1.2740987,49.3186125],[-1.2741244,49.3185333],[-1.2749267,49.3180463],[-1.2753683,49.3178544],[-1.2760344,49.3174873],[-1.2765497,49.3171347],[-1.2767968,49.3169346],[-1.2766893,49.3169218],[-1.2765276,49.3170531],[-1.2760712,49.317377],[-1.2757584,49.3175713],[-1.2748568,49.3180079],[-1.2746028,49.3181447],[-1.2740619,49.3184853],[-1.273911,49.3184925],[-1.2737822,49.3186149],[-1.2726119,49.3193297],[-1.2723506,49.3194761],[-1.2721592,49.3194449],[-1.2720745,49.3194113],[-1.271482,49.318766],[-1.2713017,49.3186149],[-1.2707166,49.3184685],[-1.2698517,49.3181735],[-1.269491,49.3181111],[-1.2690531,49.3182046],[-1.2687992,49.3183798],[-1.2685158,49.3187708],[-1.2681993,49.319121],[-1.2681809,49.3192938],[-1.2683612,49.3197687],[-1.2683134,49.3198791],[-1.2681073,49.3199894],[-1.2669738,49.3202533],[-1.2668119,49.3202365],[-1.2666573,49.3203013],[-1.2664631,49.3206632],[-1.266551,49.3206727]]]}},{"type":"Feature","properties":{},"geometry":{"type":"Polygon","coordinates":[[[-1.2475705,49.3129218],[-1.2477208,49.3126945],[-1.2479729,49.3127959],[-1.2479957,49.3128351],[-1.2477838,49.3130231],[-1.2477476,49.3130092],[-1.2475705,49.3129218]]]}},{"type":"Feature","properties":{},"geometry":{"type":"Polygon","coordinates":[[[-1.2484829,49.3230826],[-1.2481251,49.3233375],[-1.247932,49.3234923],[-1.2477523,49.3235074],[-1.2477174,49.3234378],[-1.2478762,49.3234074],[-1.2481906,49.3231731],[-1.2483708,49.3229791],[-1.2484363,49.3228273],[-1.2483708,49.3225291],[-1.2481187,49.3220853],[-1.247895,49.3218179],[-1.2476059,49.321599],[-1.2471858,49.3214262],[-1.2467433,49.3212986],[-1.2463425,49.3212441],[-1.2459225,49.3212318],[-1.2455491,49.3212074],[-1.2451763,49.3211769],[-1.2448405,49.3211283],[-1.2445792,49.3210248],[-1.2443738,49.3208731],[-1.2443191,49.3208136],[-1.2441093,49.3209458],[-1.2440348,49.3208972],[-1.2442434,49.3207636],[-1.2442617,49.3205811],[-1.244355,49.3203804],[-1.2445696,49.3201007],[-1.2446908,49.3199972],[-1.2458302,49.319502],[-1.2458957,49.3195632],[-1.2448507,49.3200353],[-1.2445986,49.320236],[-1.2444205,49.3205447],[-1.2444205,49.3207028],[-1.2445508,49.3208731],[-1.244804,49.3209899],[-1.2450095,49.3210692],[-1.2453909,49.3211161],[-1.2458104,49.3211406],[-1.2463892,49.3211588],[-1.246725,49.3212136],[-1.2472979,49.3213595],[-1.2477271,49.3215563],[-1.2480254,49.3217811],[-1.2482217,49.3220186],[-1.2484052,49.3223158],[-1.24852,49.3225899],[-1.2485854,49.322742],[-1.2485854,49.3228941],[-1.2484829,49.3230826]]]}},{"type":"Feature","properties":{},"geometry":{"type":"Polygon","coordinates":[[[-1.2533633,49.3110318],[-1.25302,49.3111682],[-1.2529905,49.3111717],[-1.252969,49.3111629],[-1.2528832,49.3110737],[-1.2528805,49.3110528],[-1.2529047,49.3110335],[-1.2532587,49.3108954],[-1.2532936,49.3108936],[-1.2533204,49.3109111],[-1.2533901,49.311002],[-1.2533901,49.3110213],[-1.2533633,49.3110318]]]}},{"type":"Feature","properties":{},"geometry":{"type":"Polygon","coordinates":[[[-1.2645017,49.3217454],[-1.2643919,49.3216716],[-1.2643541,49.3215061],[-1.264385,49.321468],[-1.2644296,49.3214692],[-1.2644811,49.3214904],[-1.2645446,49.3215553],[-1.2645961,49.32159],[-1.2646819,49.3216235],[-1.2647127,49.3216403],[-1.2647213,49.3216705],[-1.2646544,49.3217566],[-1.2645772,49.3217723],[-1.2645017,49.3217454]]]}},{"type":"Feature","properties":{},"geometry":{"type":"Polygon","coordinates":[[[-1.2774923,49.3178977],[-1.2771747,49.3177166],[-1.2771187,49.3177318],[-1.277128,49.3177546],[-1.2774386,49.3179236],[-1.2774642,49.3179281],[-1.2774946,49.3179205],[-1.2774923,49.3178977]]]}},{"type":"Feature","properties":{},"geometry":{"type":"Polygon","coordinates":[[[-1.2420398,49.2861538],[-1.2421632,49.2861923],[-1.2421203,49.2862938],[-1.2415409,49.2869201],[-1.2394166,49.2874974],[-1.2389392,49.2876024],[-1.2384027,49.2869691],[-1.2388587,49.2867626],[-1.240527,49.2864617],[-1.2406933,49.2865352],[-1.2408489,49.2865107],[-1.2409991,49.2863708],[-1.2420398,49.2861538]]]}},{"type":"Feature","properties":{},"geometry":{"type":"Polygon","coordinates":[[[-1.2301442,49.2845144],[-1.229986,49.2845704],[-1.2298948,49.2846964],[-1.2301281,49.2849588],[-1.2303588,49.2851111],[-1.2305546,49.2850673],[-1.2310642,49.2847559],[-1.2312493,49.2846212],[-1.2312707,49.2844987],[-1.2312573,49.2843955],[-1.2310481,49.284161],[-1.2308872,49.2840403],[-1.2307557,49.284035],[-1.2302434,49.2842747],[-1.2302354,49.284322],[-1.2302837,49.2844217],[-1.2302837,49.2844899],[-1.2302166,49.2845127],[-1.2301442,49.2845144]]]}},{"type":"Feature","properties":{},"geometry":{"type":"Polygon","coordinates":[[[-1.2320513,49.290475],[-1.2308389,49.2907759],[-1.2306297,49.2907549],[-1.2304795,49.2907934],[-1.2303722,49.2909299],[-1.2295783,49.2910943],[-1.2295139,49.2909614],[-1.2294227,49.2909334],[-1.2289989,49.2910313],[-1.2288916,49.2907689],[-1.22931,49.2906919],[-1.229353,49.290615],[-1.229251,49.290398],[-1.2310535,49.2899782],[-1.2313163,49.2900692],[-1.2315416,49.2903421],[-1.2319601,49.2903421],[-1.2320513,49.290475]]]}},{"type":"Feature","properties":{},"geometry":{"type":"Polygon","coordinates":[[[-1.2216993,49.3106459],[-1.2214807,49.3105296],[-1.2214067,49.3100539],[-1.2214619,49.3100583],[-1.2220855,49.3104159],[-1.2216993,49.3106459]]]}},{"type":"Feature","properties":{},"geometry":{"type":"Polygon","coordinates":[[[-1.2668878,49.3125755],[-1.2675047,49.3123517],[-1.2674966,49.3122887],[-1.2670527,49.312169],[-1.2670085,49.3121357],[-1.2669347,49.3121357],[-1.2668382,49.3120841],[-1.263873,49.3115893],[-1.2624313,49.3113121],[-1.2623777,49.3113786],[-1.2623334,49.3113838],[-1.2622382,49.3113812],[-1.2622194,49.311403],[-1.2622382,49.3114651],[-1.26221,49.3115526],[-1.2622798,49.3116216],[-1.2651068,49.3121856],[-1.2652141,49.3122223],[-1.2653455,49.3122153],[-1.2655601,49.3123202],[-1.2664318,49.3125056],[-1.2668878,49.3125755]]]}},{"type":"Feature","properties":{},"geometry":{"type":"Polygon","coordinates":[[[-1.2718968,49.3133117],[-1.2720135,49.313323],[-1.2720162,49.3132854],[-1.2719545,49.3132487],[-1.2716688,49.31317],[-1.2714194,49.3131831],[-1.2713416,49.3131228],[-1.271068,49.3130704],[-1.2694037,49.3126734],[-1.2691033,49.3126559],[-1.2690282,49.3127224],[-1.2690175,49.3128483],[-1.269114,49.3128903],[-1.2711632,49.3132575],[-1.2713537,49.3132496],[-1.2714207,49.3132339],[-1.2714542,49.3132688],[-1.2718177,49.3133108],[-1.2718445,49.3132924],[-1.2718713,49.3132986],[-1.2718968,49.3133117]]]}},{"type":"Feature","properties":{},"geometry":{"type":"Polygon","coordinates":[[[-1.2316467,49.309148],[-1.2317178,49.3091228],[-1.231795,49.3090725],[-1.2318316,49.3090155],[-1.2317755,49.3089407],[-1.2317153,49.308905],[-1.2316148,49.3088658],[-1.23156,49.3088373],[-1.2315186,49.3088193],[-1.231487,49.3088199],[-1.231458,49.3088327],[-1.2314378,49.308856],[-1.2314149,49.3088689],[-1.2312828,49.3088803],[-1.2311467,49.3088943],[-1.2310877,49.3089128],[-1.2310622,49.3089459],[-1.2310694,49.3089784],[-1.2310917,49.3090049],[-1.2311405,49.3090195],[-1.2312102,49.3090495],[-1.2313336,49.3091162],[-1.231419,49.3091387],[-1.2315694,49.3091533],[-1.2316467,49.309148]]]}},{"type":"Feature","properties":{},"geometry":{"type":"Polygon","coordinates":[[[-1.2674815,49.3002936],[-1.2668979,49.3003988],[-1.2669048,49.2998056],[-1.2672446,49.2997541],[-1.2673202,49.2997877],[-1.2674815,49.3002936]]]}},{"type":"Feature","properties":{},"geometry":{"type":"Polygon","coordinates":[[[-1.249335,49.2958777],[-1.2492997,49.2958555],[-1.2492556,49.2958417],[-1.249207,49.2958376],[-1.2491589,49.2958437],[-1.2491137,49.2958607],[-1.2490799,49.2958865],[-1.2490611,49.2959182],[-1.2490597,49.2959522],[-1.2490758,49.2959845],[-1.2491075,49.2960115],[-1.2491512,49.29603],[-1.2492019,49.296038],[-1.2492537,49.2960344],[-1.2493007,49.2960198],[-1.2493357,49.2959974],[-1.2493582,49.295969],[-1.2493658,49.2959375],[-1.2493578,49.295906],[-1.249335,49.2958777]]]}},{"type":"Feature","properties":{},"geometry":{"type":"Polygon","coordinates":[[[-1.2358863,49.3044882],[-1.2360077,49.3044351],[-1.2360413,49.3043905],[-1.2360232,49.3043559],[-1.2360129,49.3043239],[-1.2359897,49.3042574],[-1.2360077,49.3042405],[-1.2360232,49.3042321],[-1.2361059,49.3041749],[-1.2361563,49.3041445],[-1.2362506,49.3041108],[-1.2364999,49.3040013],[-1.2365555,49.3040039],[-1.2366394,49.30403],[-1.2367466,49.3040544],[-1.2368138,49.3040451],[-1.2369146,49.3039803],[-1.2369533,49.303939],[-1.2369533,49.3039247],[-1.2369146,49.3039196],[-1.2368551,49.3039188],[-1.2368267,49.303918],[-1.2368332,49.3039053],[-1.236819,49.3038699],[-1.2368513,49.3038607],[-1.2369792,49.3038514],[-1.2370851,49.3038295],[-1.2372155,49.3038447],[-1.237275,49.3038489],[-1.2372491,49.3038952],[-1.2373021,49.3039719],[-1.2373796,49.304046],[-1.2374959,49.304153],[-1.2375294,49.304153],[-1.237554,49.3041403],[-1.2375592,49.3040898],[-1.2375333,49.3040729],[-1.2374894,49.3040485],[-1.2373757,49.3039238],[-1.2373396,49.3038944],[-1.2373654,49.3038194],[-1.2373253,49.3037672],[-1.2372427,49.3037503],[-1.2371897,49.3037478],[-1.2371445,49.3037537],[-1.2370902,49.3037807],[-1.2369469,49.3038026],[-1.2367686,49.3037579],[-1.2366678,49.3037453],[-1.2366097,49.3037529],[-1.2365787,49.3037756],[-1.2365671,49.3038135],[-1.2365722,49.3038413],[-1.2365193,49.3039028],[-1.2364922,49.3039601],[-1.2363526,49.3040376],[-1.2362506,49.3040721],[-1.2360736,49.3041319],[-1.2359651,49.3042043],[-1.2358463,49.3042717],[-1.2357597,49.3043442],[-1.235721,49.3043846],[-1.2357184,49.30442],[-1.235752,49.3044419],[-1.2358049,49.3044831],[-1.2358863,49.3044882]]]}},{"type":"Feature","properties":{},"geometry":{"type":"Polygon","coordinates":[[[-1.2715081,49.2987855],[-1.2712974,49.2988558],[-1.2712368,49.2987785],[-1.2714475,49.2987082],[-1.2715081,49.2987855]]]}},{"type":"Feature","properties":{},"geometry":{"type":"Polygon","coordinates":[[[-1.2472124,49.31787],[-1.2473345,49.3178587],[-1.2474766,49.3178045],[-1.2474994,49.3177564],[-1.2474391,49.3177022],[-1.247368,49.3177004],[-1.2472151,49.3177852],[-1.2472124,49.31787]]]}},{"type":"Feature","properties":{},"geometry":{"type":"Polygon","coordinates":[[[-1.2507369,49.3154117],[-1.2508616,49.3154187],[-1.250934,49.3153479],[-1.2509179,49.3152884],[-1.2508079,49.3152482],[-1.2507355,49.3152797],[-1.2507114,49.3153514],[-1.2507369,49.3154117]]]}},{"type":"Feature","properties":{},"geometry":{"type":"Polygon","coordinates":[[[-1.247533,49.314645],[-1.2476027,49.3146694],[-1.2477127,49.3146703],[-1.2477663,49.3146397],[-1.2478012,49.3145698],[-1.2477985,49.3145112],[-1.2477274,49.3144552],[-1.2476228,49.3144299],[-1.2475182,49.3144255],[-1.2474431,49.3144579],[-1.247431,49.3145217],[-1.2474686,49.3145855],[-1.2475115,49.3146187],[-1.247533,49.314645]]]}},{"type":"Feature","properties":{},"geometry":{"type":"Polygon","coordinates":[[[-1.2598792,49.3173132],[-1.259965,49.3173315],[-1.2600374,49.3173018],[-1.2600254,49.3172458],[-1.2599704,49.3172056],[-1.2598872,49.3172021],[-1.2598537,49.3172389],[-1.2598591,49.3172834],[-1.2598792,49.3173132]]]}},{"type":"Feature","properties":{},"geometry":{"type":"Polygon","coordinates":[[[-1.2507194,49.3189025],[-1.2508093,49.3189191],[-1.2509206,49.3189025],[-1.2509608,49.318836],[-1.2509125,49.318767],[-1.2507865,49.3187442],[-1.2506779,49.3187766],[-1.2506618,49.3188387],[-1.2507194,49.3189025]]]}},{"type":"Feature","properties":{},"geometry":{"type":"Polygon","coordinates":[[[-1.2755493,49.3011461],[-1.2755741,49.3010919],[-1.2753783,49.3010442],[-1.2753569,49.3010451],[-1.2753347,49.3011059],[-1.2753542,49.3011269],[-1.2753924,49.3011435],[-1.2755493,49.3011461]]]}},{"type":"Feature","properties":{},"geometry":{"type":"Polygon","coordinates":[[[-1.2668972,49.2994661],[-1.2669924,49.299523],[-1.2673813,49.2995343],[-1.2674363,49.299516],[-1.267506,49.299439],[-1.2674966,49.2994049],[-1.2671842,49.299],[-1.2671359,49.2989843],[-1.2670769,49.2989895],[-1.2668838,49.2990516],[-1.2668476,49.2991049],[-1.2668476,49.2991732],[-1.2668972,49.2994661]]]}},{"type":"Feature","properties":{},"geometry":{"type":"Polygon","coordinates":[[[-1.3023752,49.3194225],[-1.302128,49.3195836],[-1.3014229,49.3191192],[-1.3008486,49.3189344],[-1.2996418,49.318688],[-1.2996273,49.3186169],[-1.2997145,49.3183895],[-1.2999399,49.3183373],[-1.3013647,49.3186264],[-1.3024988,49.3184463],[-1.3026006,49.3185838],[-1.3018736,49.3187496],[-1.3016919,49.3188254],[-1.3017355,49.3189628],[-1.3019536,49.3190387],[-1.3023752,49.3194225]]]}},{"type":"Feature","properties":{},"geometry":{"type":"Polygon","coordinates":[[[-1.2754848,49.3138725],[-1.2762353,49.3143082],[-1.2873077,49.3163188],[-1.2935995,49.3175385],[-1.2986885,49.3184432],[-1.2994019,49.3185364],[-1.2995619,49.3183421],[-1.2983696,49.3180862],[-1.2965086,49.3176834],[-1.293579,49.3171195],[-1.2898497,49.3164323],[-1.2895363,49.3163741],[-1.2874441,49.3159856],[-1.2860985,49.3157357],[-1.2846442,49.3154874],[-1.2839613,49.3153708],[-1.2791197,49.3144846],[-1.2760883,49.313859],[-1.2757684,49.3137974],[-1.2754848,49.3138725]]]}},{"type":"Feature","properties":{},"geometry":{"type":"Polygon","coordinates":[[[-1.295592,49.3298943],[-1.2952495,49.3301721],[-1.2938309,49.3291622],[-1.2916955,49.3276443],[-1.2906035,49.3268426],[-1.2901958,49.3266849],[-1.2899885,49.3266489],[-1.2899576,49.3266542],[-1.2896884,49.3267004],[-1.2894909,49.3267345],[-1.2893617,49.326764],[-1.2892787,49.3267254],[-1.2892023,49.3266997],[-1.2890696,49.3266849],[-1.2889729,49.3266453],[-1.2888989,49.3265637],[-1.2886935,49.3264746],[-1.2877562,49.3260814],[-1.2873969,49.3260408],[-1.2874245,49.3259418],[-1.2877632,49.3259958],[-1.2876249,49.325622],[-1.2868924,49.324613],[-1.2863257,49.3240905],[-1.2858419,49.3237391],[-1.2853651,49.3232076],[-1.2847362,49.32255],[-1.2844528,49.3221401],[-1.2841971,49.3218022],[-1.2834853,49.3211581],[-1.2826284,49.3204103],[-1.2819718,49.3199463],[-1.2808967,49.3191453],[-1.2800807,49.3186293],[-1.2796653,49.3184031],[-1.2788443,49.3178871],[-1.2782726,49.3175685],[-1.2772952,49.3170907],[-1.2769727,49.3169728],[-1.2767968,49.3169346],[-1.2766893,49.3169218],[-1.2766404,49.3168008],[-1.2754431,49.3162465],[-1.2749154,49.3160267],[-1.2741286,49.3158037],[-1.2736057,49.3157527],[-1.2732441,49.3157973],[-1.2725551,49.315928],[-1.2716559,49.3162338],[-1.2706199,49.3166288],[-1.2700042,49.3168709],[-1.2692663,49.3171512],[-1.2675608,49.3178074],[-1.2664173,49.3182534],[-1.264966,49.3188108],[-1.2638567,49.3192218],[-1.2632605,49.3194734],[-1.2615502,49.3201551],[-1.2604262,49.3206297],[-1.2603822,49.3206966],[-1.2601281,49.3208909],[-1.2598496,49.3209068],[-1.25897,49.3211552],[-1.257719,49.3216012],[-1.2558669,49.3221713],[-1.254049,49.3227319],[-1.2528371,49.3231364],[-1.2514151,49.3236365],[-1.2506527,49.3237926],[-1.2502569,49.324006],[-1.2496656,49.3241907],[-1.2488935,49.3244009],[-1.2480237,49.3246844],[-1.2462791,49.3252673],[-1.2459321,49.3254201],[-1.2457269,49.3254775],[-1.2453946,49.3257068],[-1.2450085,49.3259488],[-1.2445345,49.3260476],[-1.24365,49.3262737],[-1.2431272,49.3264075],[-1.2423599,49.3265699],[-1.241192,49.3266846],[-1.240547,49.3267069],[-1.2400626,49.3266518],[-1.2398188,49.326624],[-1.2391933,49.3264584],[-1.2384896,49.3261782],[-1.2379423,49.3258692],[-1.2377469,49.3256654],[-1.2373364,49.3254329],[-1.236359,49.32485],[-1.2356358,49.324506],[-1.2344385,49.3238658],[-1.2338033,49.3236206],[-1.233383,49.3234104],[-1.2331973,49.3232607],[-1.2329285,49.3230919],[-1.2323372,49.3226778],[-1.2315114,49.3221873],[-1.2310325,49.3218974],[-1.2308126,49.3217891],[-1.2300258,49.321633],[-1.2292488,49.3214897],[-1.2288432,49.3213559],[-1.2284425,49.321117],[-1.2281444,49.3209068],[-1.2278805,49.320687],[-1.2277046,49.3204832],[-1.2275385,49.3201073],[-1.2272648,49.3195467],[-1.227084,49.3189956],[-1.2266931,49.3184604],[-1.2264438,49.3182215],[-1.2263263,49.3181436],[-1.2261946,49.3180941],[-1.2263919,49.3177149],[-1.2264684,49.3178384],[-1.2265667,49.3178904],[-1.2268641,49.3181355],[-1.2274505,49.3188077],[-1.2276753,49.3191389],[-1.2278219,49.3194161],[-1.2280516,49.3198652],[-1.2282324,49.3202666],[-1.228335,49.3206392],[-1.2285598,49.3208144],[-1.2291071,49.321031],[-1.2298352,49.3211967],[-1.2305047,49.3213336],[-1.2310765,49.3214833],[-1.2317557,49.3218719],[-1.2324301,49.3223529],[-1.2328308,49.322595],[-1.2333195,49.322939],[-1.2339596,49.3233339],[-1.2344825,49.3234964],[-1.23524,49.323869],[-1.2357042,49.324127],[-1.2358899,49.324264],[-1.2366376,49.3246398],[-1.2374194,49.325057],[-1.2385581,49.3257418],[-1.2390418,49.3260157],[-1.2394474,49.3261622],[-1.240029,49.3263087],[-1.2406349,49.3263151],[-1.240977,49.326331],[-1.2412946,49.3263151],[-1.242399,49.3262196],[-1.2429903,49.3260412],[-1.2437771,49.3259234],[-1.2441631,49.3258087],[-1.2445981,49.3255221],[-1.2447838,49.3253501],[-1.2451307,49.3251016],[-1.2454972,49.3249647],[-1.245937,49.324901],[-1.2462742,49.3248468],[-1.2469926,49.3246494],[-1.2472907,49.3244997],[-1.2479455,49.3243372],[-1.2486198,49.3241525],[-1.249304,49.3239136],[-1.2503204,49.3235569],[-1.2506967,49.323404],[-1.2520308,49.322974],[-1.2523924,49.3229262],[-1.2530423,49.3225982],[-1.2536336,49.3225122],[-1.2543276,49.3222669],[-1.2554564,49.3219261],[-1.2556958,49.321821],[-1.2558571,49.3217286],[-1.2570055,49.321375],[-1.2582809,49.3210087],[-1.2589748,49.320773],[-1.2596248,49.3205628],[-1.2597909,49.32048],[-1.2606168,49.3193555],[-1.2611446,49.3187439],[-1.2624102,49.3181037],[-1.2631335,49.3177851],[-1.2637516,49.3175908],[-1.2639447,49.317543],[-1.2642354,49.3174092],[-1.2648365,49.3171448],[-1.2652152,49.3169951],[-1.2655205,49.3168272],[-1.2660699,49.316478],[-1.2662281,49.3163946],[-1.266575,49.3162752],[-1.2670197,49.3161923],[-1.2671883,49.3160856],[-1.2671859,49.3159869],[-1.2671615,49.3158196],[-1.267225,49.3157607],[-1.2674693,49.3157177],[-1.2682317,49.3155839],[-1.2682927,49.3155233],[-1.2684296,49.3155409],[-1.2688743,49.3154485],[-1.2692456,49.3153943],[-1.2696537,49.31538],[-1.2704502,49.315345],[-1.2711857,49.3153545],[-1.2719397,49.3153714],[-1.2725772,49.3152926],[-1.2728485,49.3152284],[-1.2730506,49.3151338],[-1.2733236,49.3152216],[-1.2735914,49.3153151],[-1.2738471,49.3154548],[-1.2740803,49.3155201],[-1.2743084,49.3155539],[-1.2744259,49.3155438],[-1.2746142,49.3156136],[-1.2751861,49.3157915],[-1.2752949,49.315822],[-1.2753364,49.31576],[-1.2754349,49.315617],[-1.2754815,49.3156226],[-1.2754936,49.3156688],[-1.275364,49.3158434],[-1.2758098,49.3160776],[-1.2760724,49.3162105],[-1.2765285,49.3164087],[-1.276805,49.3165146],[-1.2768084,49.3165529],[-1.2773475,49.3168097],[-1.2774719,49.3168412],[-1.2777483,49.3169719],[-1.2783046,49.3172399],[-1.2785189,49.317321],[-1.2785672,49.3173616],[-1.278626,49.3173571],[-1.2787262,49.3174607],[-1.2790614,49.3176364],[-1.2795624,49.3179337],[-1.2800047,49.3181927],[-1.2802708,49.3183549],[-1.2803813,49.3183572],[-1.2803675,49.3184382],[-1.2811174,49.3188865],[-1.2812901,49.3190554],[-1.2815216,49.319186],[-1.2817082,49.3193527],[-1.2823959,49.319837],[-1.282655,49.3199902],[-1.2828727,49.3201073],[-1.2835258,49.3206996],[-1.28421,49.3213123],[-1.284362,49.3214181],[-1.2843758,49.3214744],[-1.2847179,49.3217582],[-1.2848147,49.3219654],[-1.2849253,49.322024],[-1.2850427,49.3222763],[-1.285219,49.3225263],[-1.2857096,49.3230465],[-1.2864525,49.3237425],[-1.2868461,49.3240976],[-1.2871436,49.3244114],[-1.287624,49.3250848],[-1.2880041,49.3255825],[-1.2881146,49.3257717],[-1.2882598,49.3259496],[-1.2885742,49.3261162],[-1.2892031,49.3263707],[-1.289421,49.3264422],[-1.289722,49.3264315],[-1.2897501,49.3264251],[-1.28987,49.3263977],[-1.2902639,49.326445],[-1.2907235,49.3265374],[-1.290841,49.3265103],[-1.2911347,49.3266455],[-1.2914111,49.3268774],[-1.2921782,49.327472],[-1.2923648,49.3276003],[-1.2936122,49.3285124],[-1.2944104,49.3290979],[-1.2951568,49.3296181],[-1.295592,49.3298943]]]}},{"type":"Feature","properties":{},"geometry":{"type":"Polygon","coordinates":[[[-1.2045424,49.3331104],[-1.2058461,49.3329602],[-1.2065263,49.3328631],[-1.2082931,49.33285],[-1.2095744,49.3324806],[-1.2109958,49.3320767],[-1.211491,49.3318889],[-1.2126485,49.3314001],[-1.2131559,49.3311394],[-1.2133804,49.3309516],[-1.2133895,49.330916],[-1.2133726,49.3308836],[-1.2135629,49.3306482],[-1.2137661,49.3303016],[-1.2143187,49.3295774],[-1.2146835,49.3291166],[-1.2150945,49.3285813],[-1.2154226,49.3282289],[-1.2157564,49.327851],[-1.2160724,49.3274426],[-1.2166989,49.3267035],[-1.2199027,49.3234505],[-1.2206497,49.322637],[-1.2213002,49.3218235],[-1.2220903,49.3208489],[-1.2227906,49.3200311],[-1.223498,49.3192801],[-1.2239049,49.3189394],[-1.2243401,49.318617],[-1.2249578,49.3182021],[-1.2252249,49.3180374],[-1.2253519,49.3178443],[-1.2254134,49.3177089],[-1.2254732,49.3176727],[-1.2254644,49.317609],[-1.2254029,49.3175333],[-1.2253182,49.3174001],[-1.2252881,49.3173765],[-1.2252478,49.3173039],[-1.2251933,49.3172677],[-1.2251165,49.3171917],[-1.2250298,49.3170344],[-1.2249196,49.3169292],[-1.224863,49.316856],[-1.2248227,49.3167696],[-1.2247752,49.3167114],[-1.2247644,49.3166585],[-1.2247243,49.3166471],[-1.2247027,49.3166294],[-1.2247263,49.3165712],[-1.2246373,49.3163955],[-1.2245343,49.3161557],[-1.224277,49.3157007],[-1.2241943,49.3155177],[-1.2240859,49.3152982],[-1.2240394,49.3152591],[-1.2240417,49.3152174],[-1.2239627,49.3151863],[-1.223965,49.3151551],[-1.2239099,49.315129],[-1.2238905,49.3150845],[-1.2239032,49.3150365],[-1.2238228,49.3149202],[-1.2237542,49.3147786],[-1.2237222,49.3146794],[-1.2237135,49.3145435],[-1.2236275,49.314377],[-1.2235091,49.3141377],[-1.223462,49.3140936],[-1.2234675,49.3140647],[-1.2234487,49.314041],[-1.2234597,49.3139885],[-1.2234075,49.3137274],[-1.22335,49.3134681],[-1.2233331,49.3134426],[-1.2233273,49.3133878],[-1.2233484,49.313368],[-1.2233708,49.3132662],[-1.2233783,49.3131805],[-1.2234078,49.3130161],[-1.2234722,49.3127301],[-1.2236148,49.3124783],[-1.2237413,49.3122754],[-1.2237902,49.3121898],[-1.2238606,49.3121164],[-1.2239691,49.3119871],[-1.2240642,49.3118562],[-1.2243115,49.3116525],[-1.224345,49.3116018],[-1.224429,49.3115946],[-1.2244302,49.3115811],[-1.2245085,49.3115121],[-1.2245272,49.311514],[-1.2247155,49.3113646],[-1.2247002,49.3113192],[-1.2247414,49.3113192],[-1.2248072,49.311288],[-1.2248799,49.3112309],[-1.2249478,49.3111617],[-1.2250326,49.3110825],[-1.2250953,49.3109942],[-1.2251551,49.3109478],[-1.2252148,49.3109152],[-1.2253035,49.3108663],[-1.2255397,49.3106948],[-1.2257864,49.3105002],[-1.2260598,49.3103231],[-1.2262093,49.3102221],[-1.2263672,49.310137],[-1.2264969,49.3100566],[-1.2267197,49.3098971],[-1.2268444,49.3098804],[-1.2270766,49.3097604],[-1.2271903,49.3096814],[-1.2272809,49.3096267],[-1.2273595,49.3095403],[-1.2275545,49.3094817],[-1.2279668,49.3093135],[-1.2279832,49.309271],[-1.2280296,49.3092366],[-1.2281332,49.309214],[-1.2284548,49.3090782],[-1.2286869,49.3089557],[-1.228995,49.3088135],[-1.2292788,49.3086739],[-1.2295865,49.3085215],[-1.229929,49.3083373],[-1.2299616,49.3082914],[-1.2300743,49.3082374],[-1.2303795,49.3080347],[-1.2304751,49.3079612],[-1.2306114,49.307885],[-1.2308348,49.3077812],[-1.2309744,49.307715],[-1.2312318,49.3075481],[-1.2314707,49.307371],[-1.2317627,49.3071547],[-1.2322404,49.3067521],[-1.2325797,49.3063301],[-1.23268,49.3061771],[-1.2327626,49.3060222],[-1.2328132,49.3059937],[-1.2331561,49.305633],[-1.23337,49.3054085],[-1.233502,49.305185],[-1.2335994,49.3049238],[-1.233734,49.3046101],[-1.2337762,49.3045118],[-1.2338054,49.3043149],[-1.2338214,49.3040612],[-1.2340615,49.3032393],[-1.2341109,49.3031494],[-1.2341192,49.3030964],[-1.2340861,49.3029763],[-1.2340856,49.3024375],[-1.2340616,49.3023341],[-1.2340535,49.3020783],[-1.2340152,49.3008615],[-1.2340142,49.3008407],[-1.2339976,49.3004982],[-1.2338613,49.2977403],[-1.2339143,49.297587],[-1.2340508,49.2974048],[-1.2359479,49.2950785],[-1.2360624,49.2948711],[-1.2370554,49.2928762],[-1.2371058,49.2924593],[-1.2370197,49.2923025],[-1.2368171,49.2921759],[-1.2355695,49.2914216],[-1.2349857,49.2910105],[-1.2348249,49.2908305],[-1.2347406,49.2905395],[-1.2346786,49.2902781],[-1.2344717,49.2900219],[-1.2339293,49.2896309],[-1.2322844,49.2885582],[-1.2321401,49.2884165],[-1.2320277,49.2882606],[-1.2315908,49.287788],[-1.2310645,49.2871975],[-1.2306401,49.2868714],[-1.2296643,49.2861245],[-1.229244,49.2858458],[-1.2286735,49.2853564],[-1.2281743,49.284618],[-1.2279982,49.2843347],[-1.2277715,49.2840792],[-1.2275169,49.2837415],[-1.2271185,49.2833623],[-1.2266428,49.2829221],[-1.2262891,49.2825481],[-1.2259233,49.2822087],[-1.2255045,49.2818294],[-1.2249439,49.2814541],[-1.2247638,49.2812791],[-1.2246876,49.281083],[-1.2245839,49.280797],[-1.2244049,49.2804015],[-1.2242699,49.2800684],[-1.2242843,49.2800261],[-1.2242789,49.2799783],[-1.2241553,49.2797479],[-1.224121,49.2797193],[-1.2241165,49.2797095],[-1.2242613,49.2796875],[-1.2243258,49.2796952],[-1.2244991,49.2796947],[-1.2246283,49.2800606],[-1.2248412,49.2806635],[-1.2249916,49.281171],[-1.22521,49.2814241],[-1.2259956,49.2819883],[-1.2262733,49.2822258],[-1.2265395,49.2825087],[-1.2269377,49.2829112],[-1.2275625,49.2834453],[-1.2280868,49.2840376],[-1.2284019,49.2845629],[-1.2285233,49.2847546],[-1.2286999,49.2850336],[-1.2289407,49.2853222],[-1.2294189,49.2857119],[-1.229849,49.2860262],[-1.2304808,49.2864774],[-1.2313289,49.2871093],[-1.2314846,49.2873421],[-1.2319751,49.2878082],[-1.2323374,49.2882549],[-1.2328176,49.288668],[-1.2337378,49.2892175],[-1.2343701,49.2895893],[-1.2347925,49.2899624],[-1.2349526,49.2902131],[-1.2351096,49.2905746],[-1.2351665,49.2907548],[-1.2352305,49.2908606],[-1.2356616,49.291223],[-1.2372945,49.2921622],[-1.2373884,49.292394],[-1.2373628,49.292807],[-1.2372043,49.2931854],[-1.2369269,49.2935889],[-1.2361517,49.2951815],[-1.2354992,49.2960135],[-1.2343156,49.2975943],[-1.2342463,49.2979601],[-1.2343275,49.3006503],[-1.2343312,49.3007553],[-1.2343363,49.3009029],[-1.2343102,49.3013971],[-1.2343424,49.3017609],[-1.2343687,49.3020065],[-1.2344604,49.3022087],[-1.2346535,49.3024186],[-1.2348252,49.3028313],[-1.2348359,49.3029293],[-1.2347715,49.3032511],[-1.2347179,49.3040975],[-1.2347608,49.3043424],[-1.2348895,49.3044823],[-1.2351148,49.3046222],[-1.2369436,49.3051616],[-1.2373035,49.3051749],[-1.2382328,49.3058518],[-1.2379979,49.3059207],[-1.2377512,49.3056796],[-1.2375849,49.3055715],[-1.2372147,49.3053756],[-1.2345966,49.3045674],[-1.2344303,49.3045291],[-1.2342372,49.3045709],[-1.234087,49.3046409],[-1.2340006,49.3047179],[-1.2339717,49.3047694],[-1.2338569,49.3051016],[-1.2337768,49.3053222],[-1.2336553,49.3055024],[-1.2334528,49.3057228],[-1.2331773,49.3059665],[-1.2330156,49.3061608],[-1.2329773,49.306266],[-1.2329301,49.3063449],[-1.232931,49.3064357],[-1.2329991,49.306541],[-1.2329353,49.3065628],[-1.2328999,49.3065845],[-1.2328952,49.3066268],[-1.2328268,49.3066413],[-1.2327361,49.3066704],[-1.2326892,49.3067194],[-1.2326626,49.3067965],[-1.2326044,49.3068354],[-1.2324231,49.3070666],[-1.2322188,49.3072343],[-1.2321197,49.3072865],[-1.2320136,49.307394],[-1.2318543,49.3075134],[-1.2318012,49.3075341],[-1.2317162,49.3075918],[-1.2315658,49.3076967],[-1.2313118,49.3078971],[-1.2312351,49.3079266],[-1.2311949,49.30798],[-1.2309439,49.3081319],[-1.2303738,49.3084669],[-1.2301867,49.308541],[-1.2288102,49.3092397],[-1.2285187,49.3094126],[-1.2282863,49.309505],[-1.2278606,49.3096948],[-1.2273811,49.3099405],[-1.2268608,49.3102343],[-1.2263477,49.3105399],[-1.2261579,49.3106828],[-1.2259011,49.3108509],[-1.2254496,49.3111632],[-1.2253636,49.3112413],[-1.2253053,49.3112612],[-1.2251949,49.3113571],[-1.225189,49.3113926],[-1.2251769,49.3114441],[-1.2251457,49.311467],[-1.2251004,49.3114957],[-1.2249931,49.3115066],[-1.2248329,49.3116668],[-1.2247435,49.3117428],[-1.2247286,49.3117445],[-1.2247441,49.3118255],[-1.2246071,49.3118428],[-1.2245425,49.3119032],[-1.2245382,49.3119462],[-1.2245629,49.3119785],[-1.2244328,49.312079],[-1.2243168,49.3121243],[-1.2242837,49.312173],[-1.2242016,49.3122429],[-1.2241212,49.3123361],[-1.2241089,49.3124056],[-1.2240125,49.3125313],[-1.2239184,49.3126982],[-1.2238734,49.3127828],[-1.2238091,49.312974],[-1.2237524,49.3131613],[-1.2237435,49.3133029],[-1.2237501,49.3134874],[-1.2237921,49.3136658],[-1.2238341,49.3138586],[-1.2238661,49.3138793],[-1.2238606,49.3139115],[-1.2238847,49.3139372],[-1.2238739,49.3139611],[-1.2238777,49.314008],[-1.2239345,49.3140271],[-1.2239415,49.3140576],[-1.2239083,49.3140882],[-1.223967,49.3141051],[-1.2239651,49.3141403],[-1.2239916,49.3141543],[-1.2240169,49.31416],[-1.2240319,49.3141811],[-1.2240212,49.3141962],[-1.2240664,49.3142737],[-1.2240579,49.3142926],[-1.2240355,49.3143115],[-1.2240314,49.3143299],[-1.2240621,49.3143698],[-1.2241106,49.3143866],[-1.2240978,49.3144294],[-1.2241643,49.3145889],[-1.2242548,49.3147625],[-1.2243128,49.3147862],[-1.224322,49.3148231],[-1.2243565,49.314844],[-1.2243584,49.3148757],[-1.2243403,49.3148936],[-1.2244183,49.3149534],[-1.2244543,49.3150041],[-1.2244236,49.3150819],[-1.2244757,49.3152057],[-1.2245459,49.3152806],[-1.2246064,49.3152922],[-1.2246263,49.3154151],[-1.2246752,49.3154478],[-1.2246728,49.3154988],[-1.2247169,49.3155993],[-1.2247454,49.3156363],[-1.2248206,49.3158164],[-1.2248286,49.3159132],[-1.2249785,49.3161694],[-1.225091,49.3164012],[-1.2251569,49.3165905],[-1.2252106,49.3167267],[-1.2252801,49.3167913],[-1.2253264,49.3168103],[-1.2252974,49.3168786],[-1.2253389,49.316935],[-1.2253982,49.3169565],[-1.2253966,49.3170152],[-1.2254405,49.3170415],[-1.225457,49.3171037],[-1.2254562,49.3171731],[-1.2254757,49.3171888],[-1.22557,49.31722],[-1.2257548,49.3173135],[-1.2258313,49.3173641],[-1.2258813,49.3174147],[-1.2259753,49.3174749],[-1.2261227,49.3175291],[-1.2261716,49.3175285],[-1.2262322,49.3174757],[-1.2263051,49.317503],[-1.2263463,49.3174788],[-1.2264038,49.3174533],[-1.226466,49.3174089],[-1.2264765,49.3173689],[-1.2267062,49.317179],[-1.2267676,49.317165],[-1.2268127,49.3171127],[-1.2268486,49.3170677],[-1.2268721,49.3170513],[-1.2268751,49.3170402],[-1.2270054,49.3171173],[-1.2269832,49.3171382],[-1.2269275,49.31716],[-1.2268562,49.3172135],[-1.2268395,49.3172489],[-1.2266154,49.3174341],[-1.2265581,49.3174555],[-1.2264327,49.317566],[-1.2263919,49.3177149],[-1.2261946,49.3180941],[-1.2260537,49.3181346],[-1.2259355,49.3182079],[-1.2258278,49.3182812],[-1.2255899,49.3184744],[-1.2247886,49.3189705],[-1.2244328,49.3192575],[-1.2242149,49.3194935],[-1.2240832,49.3195767],[-1.2233311,49.32039],[-1.2223794,49.3215772],[-1.2216783,49.3225408],[-1.217511,49.3271493],[-1.214764,49.3307089],[-1.2140773,49.3314102],[-1.2135148,49.3317592],[-1.212942,49.3320264],[-1.2125199,49.3322062],[-1.2120409,49.3323649],[-1.2111398,49.3326715],[-1.2083599,49.3336377],[-1.2049562,49.3341923],[-1.2047146,49.3335608],[-1.2045424,49.3331104]]]}},{"type":"Feature","properties":{},"geometry":{"type":"Polygon","coordinates":[[[-1.2523929,49.3181907],[-1.2526994,49.3179613],[-1.2529892,49.3178209],[-1.2530886,49.3177399],[-1.2530472,49.3176589],[-1.2529313,49.3175942],[-1.2528774,49.317578],[-1.2524174,49.3178098],[-1.2523846,49.3178263],[-1.2522231,49.3180072],[-1.25219,49.3180882],[-1.2522563,49.3181583],[-1.2523929,49.3181907]]]}}]}