{"type":"FeatureCollection","features":[{"type":"Feature","properties":{},"geometry":{"type":"Polygon","coordinates":[[[-1.2329471,49.3003908],[-1.2273899,49.2987778],[-1.2232568,49.2975782],[-1.2122136,49.2941972],[-1.208108,49.2929402],[-1.2063224,49.2923935],[-1.208642,49.2906847],[-1.2085408,49.2906388],[-1.2079103,49.290353],[-1.2082986,49.2882803],[-1.208981,49.2880983],[-1.2096355,49.2861487],[-1.2110645,49.2851213],[-1.214739,49.2818549],[-1.2238876,49.2797435],[-1.2285233,49.2847546],[-1.2305223,49.2866889],[-1.2346723,49.2899947],[-1.2349748,49.2910248],[-1.2372043,49.2923641],[-1.2390561,49.2941568],[-1.2385025,49.295135],[-1.2390174,49.2974117],[-1.2400195,49.2993386],[-1.2414679,49.300826],[-1.240926,49.3014783],[-1.2400416,49.3013691],[-1.2394434,49.3013691],[-1.2387298,49.3013012],[-1.2329471,49.3003908]]]}},{"type":"Feature","properties":{},"geometry":{"type":"Polygon","coordinates":[[[-1.3347477,49.3662015],[-1.3333905,49.3646358],[-1.3320386,49.3632454],[-1.3293752,49.3607805],[-1.3305929,49.3608836],[-1.3311213,49.360784],[-1.3311106,49.3608888],[-1.3318133,49.3610268],[-1.3317382,49.3601621],[-1.3335219,49.360653],[-1.3336689,49.3616327],[-1.3362343,49.3613878],[-1.3374473,49.3593757],[-1.3379341,49.3587523],[-1.338122,49.3574334],[-1.3376719,49.3557722],[-1.3376191,49.3552801],[-1.3375858,49.3547291],[-1.3371852,49.3538223],[-1.3370209,49.3534505],[-1.3371513,49.3517266],[-1.3376287,49.3507397],[-1.3379448,49.3502704],[-1.3402185,49.3486021],[-1.3395704,49.3482463],[-1.3363799,49.3490939],[-1.3350427,49.3491465],[-1.3352367,49.3493932],[-1.3347718,49.3495197],[-1.3334967,49.3498666],[-1.3326341,49.350311],[-1.3321191,49.349828],[-1.3307405,49.3482798],[-1.3300409,49.347659],[-1.3284806,49.3479863],[-1.3279554,49.3481697],[-1.3288683,49.3490696],[-1.3302469,49.350415],[-1.3309389,49.3511419],[-1.3304758,49.3515017],[-1.3302308,49.3515927],[-1.3300055,49.3515892],[-1.3297588,49.3514844],[-1.3292545,49.3512303],[-1.3286012,49.3511983],[-1.3263709,49.3517408],[-1.3261065,49.3518051],[-1.3260359,49.3516853],[-1.325191,49.3519107],[-1.3250169,49.3516517],[-1.3233717,49.3517974],[-1.322549,49.3518251],[-1.3216049,49.3518897],[-1.3214305,49.3519369],[-1.3209772,49.3521134],[-1.3208941,49.3520295],[-1.3206902,49.3516346],[-1.3203979,49.3511437],[-1.3197032,49.3505007],[-1.3179566,49.3507479],[-1.318227,49.3499252],[-1.3198024,49.3493352],[-1.3199258,49.3480632],[-1.3212723,49.3472139],[-1.3212775,49.3466677],[-1.3203228,49.3467946],[-1.3202584,49.3463332],[-1.3207144,49.3462389],[-1.3207948,49.3459278],[-1.320253,49.3455714],[-1.3200223,49.3453092],[-1.3195396,49.3452289],[-1.3193733,49.3452114],[-1.3190943,49.3452044],[-1.3186383,49.3451135],[-1.3184667,49.3450366],[-1.3182735,49.3451415],[-1.3182575,49.3456028],[-1.3183272,49.3459523],[-1.3177586,49.3458684],[-1.3172221,49.3458719],[-1.3151615,49.3460804],[-1.3135015,49.3466121],[-1.3127911,49.3466548],[-1.3119606,49.3465775],[-1.3114017,49.3465464],[-1.310945,49.3466129],[-1.3102859,49.3468959],[-1.3078558,49.3451555],[-1.3065523,49.3441349],[-1.3059448,49.3436372],[-1.3050293,49.342838],[-1.3055062,49.3424984],[-1.3060279,49.3426749],[-1.3061459,49.3425722],[-1.3061304,49.3423193],[-1.3056795,49.3417082],[-1.3048138,49.3413994],[-1.3039398,49.3414697],[-1.303797,49.3416991],[-1.3035878,49.3417996],[-1.30324,49.341854],[-1.3018155,49.3422616],[-1.3004691,49.342424],[-1.299085,49.3435303],[-1.2980587,49.3442159],[-1.2968962,49.3445298],[-1.2965304,49.3446996],[-1.2952614,49.3457144],[-1.2949805,49.3454198],[-1.292587,49.3461568],[-1.2926696,49.3463657],[-1.2930245,49.3467842],[-1.2922707,49.3470985],[-1.2918259,49.3472783],[-1.2910772,49.3466614],[-1.2895605,49.3470284],[-1.2883709,49.3472262],[-1.2876874,49.34733],[-1.2871194,49.3474383],[-1.2865379,49.3474197],[-1.2855242,49.3474949],[-1.2845493,49.3475556],[-1.2836686,49.3467942],[-1.2877084,49.3458082],[-1.2865989,49.3444559],[-1.2891145,49.342775],[-1.2903662,49.3414762],[-1.2912364,49.3416661],[-1.2924654,49.3413708],[-1.2944947,49.3391866],[-1.2938133,49.3386882],[-1.2940775,49.3370586],[-1.2937746,49.3365519],[-1.2924884,49.3346406],[-1.2938677,49.3340609],[-1.2925921,49.3326428],[-1.2923447,49.3323677],[-1.2900356,49.3321005],[-1.288,49.3317052],[-1.2869822,49.3315176],[-1.2860364,49.3308275],[-1.2853756,49.3304806],[-1.2848034,49.3306732],[-1.2819762,49.3294961],[-1.2807309,49.329139],[-1.2801866,49.3283887],[-1.2792511,49.3273434],[-1.2789931,49.3264427],[-1.2777912,49.3259095],[-1.2761051,49.3254673],[-1.2758929,49.3254348],[-1.275406,49.3253601],[-1.2730312,49.3250854],[-1.2719164,49.3251178],[-1.2711869,49.3246842],[-1.2703929,49.3243066],[-1.2691484,49.3237472],[-1.268054,49.3233136],[-1.2675176,49.322992],[-1.2678395,49.3226143],[-1.2674516,49.322062],[-1.2669597,49.3212437],[-1.2671314,49.3205723],[-1.2658224,49.3202646],[-1.2653504,49.3197751],[-1.2651188,49.318797],[-1.2638905,49.3192448],[-1.2610804,49.3159144],[-1.2600356,49.3147796],[-1.2609427,49.314054],[-1.2637767,49.3135175],[-1.2665373,49.3125833],[-1.2681037,49.3111844],[-1.2690049,49.3103556],[-1.267878,49.309808],[-1.2668697,49.3094008],[-1.269004,49.3071763],[-1.2712738,49.3054173],[-1.2748665,49.3050452],[-1.2767951,49.304268],[-1.277859,49.3047882],[-1.2797391,49.3051829],[-1.2820686,49.3053324],[-1.2822245,49.3058108],[-1.2825913,49.3067795],[-1.2831783,49.3073476],[-1.2855686,49.3066719],[-1.2864429,49.3063881],[-1.287298,49.3065476],[-1.2880201,49.3065029],[-1.2884137,49.3066977],[-1.2882891,49.3062466],[-1.2905915,49.3063546],[-1.2917572,49.306408],[-1.2920977,49.3066617],[-1.2930997,49.3064931],[-1.2934876,49.3062705],[-1.2933858,49.3046985],[-1.2930491,49.304141],[-1.2919741,49.3037807],[-1.2920748,49.3032645],[-1.2913092,49.3031787],[-1.2901315,49.302809],[-1.2900006,49.302316],[-1.2911638,49.3021454],[-1.2919634,49.3020316],[-1.2935628,49.3021501],[-1.2945542,49.3018484],[-1.2954965,49.3019178],[-1.2960808,49.3017204],[-1.2965578,49.3017851],[-1.2982444,49.3023634],[-1.2999245,49.3019196],[-1.3012603,49.3018509],[-1.3008459,49.3022068],[-1.2996256,49.3033399],[-1.2991604,49.304724],[-1.298722,49.3060272],[-1.301134,49.307077],[-1.3003715,49.3077686],[-1.2993079,49.3084187],[-1.2991744,49.3099516],[-1.299532,49.3105153],[-1.2999112,49.3112467],[-1.3006706,49.3113673],[-1.3011537,49.3114977],[-1.3014567,49.3118695],[-1.3016313,49.3120545],[-1.3019419,49.3122717],[-1.3027507,49.3123066],[-1.3038466,49.3122776],[-1.304549,49.3123297],[-1.3054693,49.3122868],[-1.3060788,49.3120872],[-1.3076974,49.3111871],[-1.3084456,49.3108047],[-1.3092914,49.3105463],[-1.3098917,49.3104208],[-1.3115645,49.3103543],[-1.3122442,49.3105444],[-1.312594,49.3105604],[-1.3142572,49.3102257],[-1.3155393,49.3098476],[-1.3167298,49.3095013],[-1.3179468,49.3090401],[-1.3190885,49.3084583],[-1.3191993,49.3083278],[-1.3196013,49.3079084],[-1.3201622,49.3074991],[-1.3205465,49.3074949],[-1.3214928,49.3078739],[-1.3215162,49.3081574],[-1.3222613,49.3088497],[-1.3235344,49.3087342],[-1.3245005,49.3085916],[-1.3249152,49.3085167],[-1.3259156,49.3081818],[-1.3263731,49.3081041],[-1.3278529,49.3077343],[-1.3287172,49.3075263],[-1.3290023,49.3073788],[-1.329707,49.3071467],[-1.3301716,49.3069407],[-1.3302733,49.3065456],[-1.3305907,49.3062417],[-1.3302589,49.3060196],[-1.3296449,49.3056321],[-1.3294346,49.3052594],[-1.3273638,49.3047486],[-1.3265805,49.3035871],[-1.332154,49.3039039],[-1.3348595,49.3039822],[-1.335002,49.3044354],[-1.3351454,49.3047227],[-1.3355707,49.3048147],[-1.3360183,49.3048181],[-1.3367123,49.3045592],[-1.3381676,49.3044873],[-1.3383213,49.3043648],[-1.339171,49.304539],[-1.3393364,49.3052644],[-1.3431454,49.3053418],[-1.34362,49.3046032],[-1.3442151,49.3045128],[-1.3466598,49.3043272],[-1.3484066,49.304352],[-1.3496435,49.3041072],[-1.3509829,49.3040486],[-1.3515246,49.3039704],[-1.3526241,49.3037549],[-1.3528226,49.3039201],[-1.3530444,49.303988],[-1.3535377,49.3038357],[-1.3539898,49.3036953],[-1.3553303,49.3036504],[-1.3560514,49.3040104],[-1.3564293,49.3039278],[-1.355441,49.3030426],[-1.3590008,49.302114],[-1.3594052,49.3019948],[-1.3604229,49.3020612],[-1.3606192,49.3024214],[-1.3613384,49.3017904],[-1.3624346,49.3009733],[-1.3625048,49.3009514],[-1.3628455,49.300653],[-1.3680566,49.2987691],[-1.3687161,49.2985385],[-1.3808443,49.294294],[-1.3811332,49.2939522],[-1.3830003,49.2930256],[-1.3842236,49.2925075],[-1.3895757,49.2896942],[-1.3896262,49.2903899],[-1.3903816,49.2914732],[-1.3908177,49.2920986],[-1.3922544,49.2934796],[-1.3926401,49.2940667],[-1.391681,49.2949388],[-1.3904181,49.2943479],[-1.3891926,49.2949407],[-1.3878916,49.2952781],[-1.385535,49.2957313],[-1.385281,49.2959855],[-1.3852647,49.2965655],[-1.3849383,49.2966463],[-1.3837244,49.2969671],[-1.3815864,49.2968763],[-1.380744,49.297112],[-1.3796512,49.297566],[-1.3790752,49.2976929],[-1.3788219,49.2980064],[-1.3788653,49.2983616],[-1.379626,49.2989213],[-1.3804136,49.2996781],[-1.3812551,49.299835],[-1.3817897,49.2990564],[-1.3836268,49.2983982],[-1.3847515,49.299457],[-1.3857617,49.3002158],[-1.3870319,49.3004498],[-1.3875727,49.3004485],[-1.3882995,49.3007089],[-1.3884993,49.30082],[-1.388423,49.3019309],[-1.3872142,49.3022],[-1.3866506,49.3024648],[-1.3868136,49.3029409],[-1.3871399,49.3035761],[-1.3872394,49.3035921],[-1.3871933,49.3042884],[-1.3884357,49.3057875],[-1.3868954,49.3068714],[-1.3864217,49.3076796],[-1.3851935,49.307662],[-1.3837218,49.3075818],[-1.3824666,49.307381],[-1.3822103,49.3064225],[-1.3802074,49.3046577],[-1.3786862,49.3039622],[-1.3777051,49.303699],[-1.3772066,49.3034442],[-1.3769191,49.3035099],[-1.3766513,49.3035523],[-1.3759902,49.3036604],[-1.3756026,49.3037626],[-1.3748735,49.3039567],[-1.3738957,49.3037531],[-1.3723993,49.3037017],[-1.371081,49.3039836],[-1.3708765,49.3041033],[-1.368919,49.3021561],[-1.3671219,49.3029991],[-1.3631931,49.3030056],[-1.3628545,49.3045032],[-1.3601321,49.3043773],[-1.3600463,49.3048128],[-1.3599441,49.3054556],[-1.3589457,49.3053154],[-1.3588482,49.3052755],[-1.3584745,49.305222],[-1.3580319,49.3051608],[-1.3579436,49.3053594],[-1.3578549,49.3054651],[-1.3576806,49.3055123],[-1.3577668,49.3056981],[-1.3574982,49.306154],[-1.3576496,49.3063197],[-1.3576691,49.306344],[-1.3575271,49.3064961],[-1.3571077,49.3066253],[-1.3569172,49.3066204],[-1.3561451,49.306659],[-1.3566128,49.3074659],[-1.3570716,49.3082573],[-1.3558642,49.3087891],[-1.3552225,49.309152],[-1.3545929,49.3090644],[-1.3540784,49.3089658],[-1.3535521,49.3092261],[-1.3524837,49.309437],[-1.3520159,49.309516],[-1.351823,49.309645],[-1.3513957,49.3092901],[-1.3506953,49.3094877],[-1.3474963,49.3106924],[-1.3463596,49.3108437],[-1.3456586,49.3110344],[-1.3441909,49.3116389],[-1.3438552,49.3117288],[-1.3431527,49.3120831],[-1.3408112,49.3127051],[-1.3402819,49.3128069],[-1.3402317,49.3131361],[-1.3388264,49.3134315],[-1.3380728,49.3136241],[-1.3376101,49.3137648],[-1.3376553,49.3141769],[-1.3377152,49.3143885],[-1.3369365,49.3145337],[-1.3358582,49.3146276],[-1.3355497,49.3147214],[-1.3358415,49.3149315],[-1.335582,49.3151063],[-1.3352309,49.3151948],[-1.3334247,49.3171695],[-1.3330771,49.3171751],[-1.3326431,49.3171562],[-1.332521,49.3172089],[-1.3319775,49.3180213],[-1.33193,49.3182091],[-1.3320824,49.3188931],[-1.3324977,49.3189403],[-1.3334289,49.3188517],[-1.3340613,49.3184704],[-1.3346414,49.3184703],[-1.3345461,49.3192183],[-1.3347741,49.3196721],[-1.3348813,49.3205714],[-1.3342755,49.3218963],[-1.334306,49.3223847],[-1.3323588,49.3230614],[-1.3321479,49.3236894],[-1.3284434,49.324467],[-1.3267521,49.3248125],[-1.326292,49.3250472],[-1.3265323,49.3256828],[-1.3262088,49.3258192],[-1.3260189,49.3258191],[-1.3256043,49.3256547],[-1.3253087,49.3256515],[-1.3243154,49.3262594],[-1.3230163,49.3264921],[-1.321775,49.3267847],[-1.3209288,49.3270081],[-1.3202444,49.3281564],[-1.3203846,49.328696],[-1.3204808,49.3288374],[-1.3211385,49.3290069],[-1.3216443,49.3291267],[-1.3229486,49.3284525],[-1.3244007,49.3276147],[-1.3260412,49.3269026],[-1.3262998,49.3270294],[-1.3261013,49.3274295],[-1.3250549,49.3277824],[-1.3241735,49.3281604],[-1.3241595,49.3284282],[-1.3246935,49.3287554],[-1.3248642,49.329192],[-1.3247754,49.3299933],[-1.3243282,49.3309169],[-1.3244957,49.3311653],[-1.325241,49.3312286],[-1.3270084,49.331451],[-1.3278392,49.3308622],[-1.3286033,49.3307058],[-1.329437,49.3307929],[-1.3303868,49.3308541],[-1.3316749,49.3311181],[-1.3319698,49.3313627],[-1.3319384,49.331743],[-1.332803,49.3319877],[-1.3333816,49.3324703],[-1.3340943,49.3328484],[-1.3348206,49.3326461],[-1.3358059,49.3324453],[-1.336877,49.3320886],[-1.3382977,49.3318202],[-1.3384417,49.3319338],[-1.3395223,49.3316939],[-1.3395853,49.3319853],[-1.3400637,49.3325998],[-1.3402729,49.3329818],[-1.339966,49.333536],[-1.3399016,49.3340258],[-1.340448,49.3345706],[-1.3406268,49.3346007],[-1.3408588,49.3348213],[-1.3418282,49.3354544],[-1.3431862,49.3357494],[-1.3439506,49.3367241],[-1.3459634,49.3372826],[-1.3471791,49.33721],[-1.3482645,49.3369649],[-1.3492139,49.3368663],[-1.3496798,49.336859],[-1.3504772,49.3367166],[-1.3489198,49.3380215],[-1.3490738,49.3390613],[-1.3493553,49.3397164],[-1.3500549,49.3406336],[-1.3507018,49.3405918],[-1.351766,49.3421426],[-1.3532251,49.3433466],[-1.3528424,49.3437264],[-1.353588,49.3442944],[-1.3542924,49.34478],[-1.3556827,49.3442169],[-1.3566693,49.3457813],[-1.3579892,49.3470882],[-1.3585765,49.3468481],[-1.3600846,49.3481156],[-1.3608699,49.3486277],[-1.3618634,49.3499841],[-1.3620853,49.3509767],[-1.3620651,49.3527285],[-1.362433,49.3536358],[-1.3621681,49.3541257],[-1.3629098,49.3556498],[-1.3625173,49.357165],[-1.3622402,49.3585161],[-1.3623689,49.3590315],[-1.3637602,49.3596223],[-1.368007,49.358888],[-1.3733071,49.3574698],[-1.3746788,49.3572434],[-1.3758626,49.357121],[-1.3772907,49.3570017],[-1.3778544,49.3569864],[-1.3786235,49.3594043],[-1.3804804,49.3591548],[-1.3814553,49.3597822],[-1.3815018,49.3604928],[-1.3812696,49.3610899],[-1.3810259,49.3622087],[-1.3756076,49.3626959],[-1.3733138,49.3631566],[-1.3716203,49.3632928],[-1.3709972,49.3638557],[-1.3718113,49.3648309],[-1.3727158,49.3658977],[-1.3721932,49.3672852],[-1.3722937,49.3687708],[-1.3720726,49.3708715],[-1.3654798,49.3716896],[-1.3627112,49.3704864],[-1.3620024,49.3685156],[-1.3671581,49.3682276],[-1.3674697,49.3670496],[-1.3674094,49.3655639],[-1.3660454,49.365272],[-1.3610617,49.365896],[-1.3585364,49.3655568],[-1.3559816,49.3664975],[-1.3555943,49.3680779],[-1.356572,49.3706027],[-1.3590024,49.3715929],[-1.3576966,49.3733154],[-1.3594856,49.3738603],[-1.3615181,49.3734623],[-1.3629251,49.3740176],[-1.365599,49.3736567],[-1.3680702,49.3742397],[-1.3703727,49.3752854],[-1.373114,49.3751136],[-1.3738374,49.3748059],[-1.3750162,49.3737631],[-1.3772732,49.3739434],[-1.3789876,49.3741837],[-1.3807728,49.3740675],[-1.3821101,49.3740255],[-1.3813173,49.3752795],[-1.3781289,49.3760855],[-1.3765309,49.3765793],[-1.3761763,49.3775194],[-1.3770158,49.3785381],[-1.3766942,49.3791794],[-1.3750259,49.3791139],[-1.3723969,49.3777736],[-1.3713496,49.3778772],[-1.3698184,49.3782559],[-1.3668384,49.3783865],[-1.3652545,49.3784123],[-1.3642611,49.3786353],[-1.3613617,49.380051],[-1.3587323,49.3803009],[-1.3555629,49.3784595],[-1.353923,49.3760728],[-1.3537886,49.3758771],[-1.3521753,49.3761192],[-1.34908,49.3765961],[-1.3489703,49.3766001],[-1.3475803,49.377224],[-1.3443043,49.376239],[-1.3419495,49.3764243],[-1.3397757,49.3730841],[-1.3410993,49.3722934],[-1.3428594,49.3718936],[-1.3438176,49.3703537],[-1.3449271,49.3695495],[-1.3453746,49.3687266],[-1.3454556,49.3680923],[-1.3451973,49.3668417],[-1.3448392,49.3663097],[-1.3439676,49.365804],[-1.3432966,49.3652646],[-1.3413381,49.3650824],[-1.3396207,49.3655411],[-1.3380963,49.3656228],[-1.3360787,49.3657817],[-1.3347477,49.3662015]]]}},{"type":"Feature","properties":{},"geometry":{"type":"Polygon","coordinates":[[[-1.2582358,49.332381],[-1.2577755,49.3325232],[-1.2570304,49.3321602],[-1.2557796,49.3324743],[-1.2538739,49.3325381],[-1.251496,49.3342803],[-1.249765,49.3362063],[-1.2491988,49.3372671],[-1.2484259,49.3381102],[-1.2491701,49.3386712],[-1.2503968,49.3388625],[-1.2516497,49.3391842],[-1.25385,49.340308],[-1.2546824,49.3417889],[-1.2538228,49.3424361],[-1.2554035,49.342622],[-1.2551207,49.3428122],[-1.2544221,49.3432821],[-1.2522715,49.3443458],[-1.2510405,49.3458599],[-1.2508823,49.346528],[-1.2500663,49.346818],[-1.2489057,49.3469721],[-1.2487539,49.3475082],[-1.2470772,49.3495363],[-1.2456713,49.3512572],[-1.2475214,49.3519336],[-1.2500761,49.3531758],[-1.2537228,49.3531611],[-1.2557414,49.3537084],[-1.2513603,49.3548264],[-1.2469662,49.3563942],[-1.2453874,49.3572257],[-1.243977,49.3564133],[-1.2431022,49.3568011],[-1.240446,49.3582271],[-1.2383243,49.3589858],[-1.2364487,49.3568198],[-1.2356537,49.3571933],[-1.2309263,49.3585697],[-1.2287427,49.3576358],[-1.2266647,49.3570117],[-1.2263555,49.3561689],[-1.2250608,49.3560439],[-1.2207808,49.3550466],[-1.2192485,49.3543793],[-1.2188272,49.3540589],[-1.2177356,49.353384],[-1.2152192,49.3542435],[-1.2129574,49.3545517],[-1.2119904,49.3548702],[-1.2107812,49.3555061],[-1.2114277,49.3560334],[-1.2117511,49.3568781],[-1.2104614,49.3576198],[-1.2094639,49.3579473],[-1.208284,49.3579921],[-1.2065652,49.3565256],[-1.199879,49.357262],[-1.1958013,49.3590043],[-1.195573,49.3600029],[-1.1917236,49.3622338],[-1.1898642,49.3639334],[-1.183448,49.3619651],[-1.1833209,49.3596197],[-1.1861265,49.3569424],[-1.1822692,49.3547703],[-1.1822989,49.3523984],[-1.1826417,49.3510172],[-1.1826453,49.3487423],[-1.1847415,49.3460934],[-1.1943411,49.3401702],[-1.1962906,49.3379865],[-1.1986674,49.3391053],[-1.2012893,49.337178],[-1.2034939,49.3361081],[-1.203393,49.3346453],[-1.2073295,49.3338683],[-1.2110384,49.332815],[-1.2128968,49.3323236],[-1.2144157,49.3320022],[-1.2130482,49.3307296],[-1.2120254,49.3306085],[-1.2111143,49.3302222],[-1.209494,49.3299652],[-1.2073209,49.3294661],[-1.2066713,49.3290184],[-1.2064105,49.3284351],[-1.2027682,49.3262763],[-1.1996287,49.3206265],[-1.1997344,49.3175258],[-1.2023771,49.3169538],[-1.2041635,49.3170916],[-1.2051894,49.3170355],[-1.2088461,49.3158247],[-1.2126582,49.3169154],[-1.2192515,49.3137017],[-1.2201734,49.3165813],[-1.2206809,49.3180189],[-1.2211888,49.3187396],[-1.2214323,49.3194501],[-1.2217022,49.3204223],[-1.2218636,49.3204498],[-1.2228196,49.3194256],[-1.2231159,49.319158],[-1.2232352,49.3190635],[-1.223475,49.3188714],[-1.2237605,49.3187369],[-1.2243707,49.3184461],[-1.2249856,49.318076],[-1.2249281,49.3178743],[-1.2251319,49.3178739],[-1.2252436,49.3177767],[-1.2252531,49.3177043],[-1.2251771,49.3174288],[-1.2253182,49.3174001],[-1.2263919,49.3177149],[-1.2265392,49.3178124],[-1.2266164,49.3178277],[-1.2269137,49.3179924],[-1.2271556,49.3178418],[-1.2304084,49.3152274],[-1.2403689,49.3197833],[-1.2414863,49.3212031],[-1.2439544,49.3218617],[-1.2491971,49.3250255],[-1.2569025,49.3308251],[-1.2582358,49.332381]]]}},{"type":"Feature","properties":{},"geometry":{"type":"Polygon","coordinates":[[[-1.2312248,49.3106923],[-1.2315038,49.3104894],[-1.2317935,49.3103058],[-1.2319893,49.3101065],[-1.23254,49.3097966],[-1.2326643,49.3097304],[-1.2327825,49.3096159],[-1.232803,49.3094674],[-1.2329482,49.3092715],[-1.2330642,49.3090185],[-1.233451,49.3088956],[-1.2342343,49.3089197],[-1.2345599,49.3086211],[-1.2337545,49.3078711],[-1.233491,49.3077742],[-1.2336715,49.3076191],[-1.2340039,49.3074218],[-1.2339004,49.3073824],[-1.2337806,49.3073192],[-1.2336125,49.3071648],[-1.2336468,49.3070786],[-1.2336251,49.306956],[-1.233584,49.3068415],[-1.2335586,49.3067037],[-1.2335444,49.3066033],[-1.2335119,49.3065329],[-1.2334388,49.3064997],[-1.2332449,49.3063993],[-1.2332259,49.3063413],[-1.2332657,49.306272],[-1.2332526,49.3062054],[-1.2332874,49.3061516],[-1.2335698,49.3058178],[-1.2339877,49.305987],[-1.2340086,49.3058378],[-1.2341015,49.3055455],[-1.2340773,49.3054381],[-1.2344058,49.304678],[-1.2342375,49.304604],[-1.2342372,49.3045709],[-1.234087,49.3046409],[-1.2340006,49.3047179],[-1.2339717,49.3047694],[-1.2338569,49.3051016],[-1.2337768,49.3053222],[-1.2336553,49.3055024],[-1.2334528,49.3057228],[-1.2331773,49.3059665],[-1.2330156,49.3061608],[-1.2329773,49.306266],[-1.2329301,49.3063449],[-1.232931,49.3064357],[-1.2329991,49.306541],[-1.2329353,49.3065628],[-1.2328999,49.3065845],[-1.2328952,49.3066268],[-1.2328268,49.3066413],[-1.2327361,49.3066704],[-1.2326892,49.3067194],[-1.2328073,49.3067436],[-1.2329629,49.3068783],[-1.2330273,49.3069132],[-1.2330702,49.3070269],[-1.232928,49.3070619],[-1.2328503,49.3070619],[-1.2327054,49.3071353],[-1.2325981,49.3072805],[-1.2325203,49.3074589],[-1.232397,49.3078104],[-1.2323111,49.3081147],[-1.2322575,49.3083945],[-1.2322253,49.3087162],[-1.2321609,49.309003],[-1.2320724,49.3093038],[-1.2318766,49.3095993],[-1.2317666,49.3095696],[-1.2316862,49.3095731],[-1.231544,49.3096658],[-1.2313455,49.3098687],[-1.231257,49.3099683],[-1.2313616,49.3100453],[-1.2312087,49.3101904],[-1.2310639,49.3101729],[-1.2309781,49.3102096],[-1.2308171,49.3102883],[-1.2306106,49.3102674],[-1.2305328,49.3102149],[-1.2303826,49.3101589],[-1.2302217,49.3101712],[-1.230168,49.3102044],[-1.2301305,49.3102866],[-1.2301975,49.3103408],[-1.2301546,49.3103705],[-1.2300956,49.3103356],[-1.2300688,49.3102534],[-1.2299106,49.3100995],[-1.2300152,49.3099858],[-1.2299749,49.3098144],[-1.229991,49.3096798],[-1.2299696,49.3095696],[-1.2302083,49.3095137],[-1.2303022,49.3094682],[-1.2303263,49.3093895],[-1.2304711,49.309393],[-1.230565,49.3093738],[-1.2305838,49.3093021],[-1.2307957,49.3092671],[-1.2309888,49.3092741],[-1.2311497,49.3093545],[-1.231249,49.3093685],[-1.2313348,49.3093318],[-1.2314287,49.3093598],[-1.231595,49.3092866],[-1.2316906,49.3092081],[-1.2316438,49.3091743],[-1.2314065,49.3091803],[-1.2312494,49.3091623],[-1.2310461,49.309102],[-1.2306455,49.3090759],[-1.2303806,49.3091],[-1.2304052,49.3092326],[-1.2302481,49.3093189],[-1.230054,49.3094355],[-1.2298999,49.3094796],[-1.2297428,49.3094877],[-1.229598,49.3095299],[-1.229524,49.3096062],[-1.2295826,49.3096142],[-1.2297212,49.3095781],[-1.2297828,49.3096283],[-1.2298229,49.3097428],[-1.229752,49.3098171],[-1.2297397,49.3100562],[-1.2298506,49.3102691],[-1.2300139,49.3103936],[-1.2301248,49.3104679],[-1.2300386,49.3105061],[-1.2298568,49.3104961],[-1.2296873,49.3105021],[-1.2296257,49.3105483],[-1.2296658,49.3106327],[-1.2294994,49.3106849],[-1.229333,49.3108014],[-1.2293823,49.3108335],[-1.2291451,49.3109139],[-1.229028,49.3109842],[-1.2289756,49.3109882],[-1.2289386,49.3109099],[-1.2288431,49.3108797],[-1.2287106,49.3108737],[-1.2285966,49.3109219],[-1.2285381,49.3109842],[-1.2285165,49.3110826],[-1.2285658,49.311175],[-1.2285566,49.3112152],[-1.2286398,49.3112453],[-1.2287014,49.3112132],[-1.2287106,49.3111529],[-1.228954,49.3110726],[-1.2290218,49.3110324],[-1.2291389,49.3110424],[-1.2292652,49.3110927],[-1.2294039,49.3110766],[-1.2289972,49.3113317],[-1.2288708,49.3113457],[-1.2287877,49.3114261],[-1.228686,49.3114482],[-1.228609,49.3115125],[-1.2287322,49.3116471],[-1.2288585,49.3115828],[-1.2288832,49.3115085],[-1.2290311,49.3114602],[-1.2290619,49.3114221],[-1.2292005,49.3113839],[-1.2293731,49.3112674],[-1.2296134,49.3111469],[-1.2298106,49.3110384],[-1.2300601,49.31094],[-1.2302265,49.3108837],[-1.2302696,49.3108235],[-1.2304853,49.3107431],[-1.2306363,49.3107572],[-1.2307534,49.3107713],[-1.2307578,49.3108258],[-1.2302861,49.311045],[-1.2297607,49.311284],[-1.2293539,49.3114971],[-1.2291385,49.3116535],[-1.2290572,49.3117304],[-1.2289271,49.3117887],[-1.2288336,49.3118139],[-1.2287848,49.3118337],[-1.2287807,49.3119305],[-1.2288112,49.3119782],[-1.2288498,49.3119835],[-1.2290511,49.311896],[-1.2293316,49.3116296],[-1.2297361,49.3114295],[-1.2301264,49.3113248],[-1.2306264,49.3112612],[-1.2308683,49.3112109],[-1.2310411,49.3111565],[-1.231157,49.3109538],[-1.2312505,49.3108027],[-1.2312525,49.3107391],[-1.2313724,49.3107643],[-1.2312248,49.3106923]]]}}]}