{"type":"FeatureCollection","features":[{"type":"Feature","properties":{},"geometry":{"type":"LineString","coordinates":[[-1.2339974,49.3013445],[-1.2339948,49.301198]]}},{"type":"Feature","properties":{},"geometry":{"type":"LineString","coordinates":[[-1.2342269,49.3105533],[-1.2347723,49.3108384]]}},{"type":"Feature","properties":{},"geometry":{"type":"LineString","coordinates":[[-1.2351194,49.309823],[-1.2356598,49.3101088]]}},{"type":"Feature","properties":{},"geometry":{"type":"LineString","coordinates":[[-1.2398871,49.3069632],[-1.2394924,49.3073029]]}},{"type":"Feature","properties":{},"geometry":{"type":"LineString","coordinates":[[-1.234512,49.31032],[-1.2350655,49.310607]]}},{"type":"Feature","properties":{},"geometry":{"type":"LineString","coordinates":[[-1.2354353,49.3095644],[-1.2359711,49.3098472]]}},{"type":"Feature","properties":{},"geometry":{"type":"LineString","coordinates":[[-1.2403272,49.3071323],[-1.240235,49.3073288]]}},{"type":"Feature","properties":{},"geometry":{"type":"LineString","coordinates":[[-1.2348122,49.3100743],[-1.2353382,49.310352]]}},{"type":"Feature","properties":{},"geometry":{"type":"LineString","coordinates":[[-1.2357547,49.309303],[-1.2363081,49.3095906]]}},{"type":"Feature","properties":{},"geometry":{"type":"LineString","coordinates":[[-1.2360739,49.3090418],[-1.2366065,49.3093239]]}},{"type":"Feature","properties":{},"geometry":{"type":"LineString","coordinates":[[-1.2364237,49.3087556],[-1.2369204,49.3090321]]}},{"type":"Feature","properties":{},"geometry":{"type":"LineString","coordinates":[[-1.2394931,49.3067694],[-1.2390405,49.3071651]]}},{"type":"Feature","properties":{},"geometry":{"type":"LineString","coordinates":[[-1.2334352,49.3112012],[-1.2339851,49.311464]]}},{"type":"Feature","properties":{},"geometry":{"type":"LineString","coordinates":[[-1.2367819,49.3084624],[-1.2373037,49.3087385]]}},{"type":"Feature","properties":{},"geometry":{"type":"LineString","coordinates":[[-1.2337132,49.3109737],[-1.2342423,49.3112577]]}},{"type":"Feature","properties":{},"geometry":{"type":"LineString","coordinates":[[-1.2371609,49.3081522],[-1.2376767,49.3084366]]}},{"type":"Feature","properties":{},"geometry":{"type":"LineString","coordinates":[[-1.2375699,49.3078295],[-1.237991,49.3080587]]}},{"type":"Feature","properties":{},"geometry":{"type":"LineString","coordinates":[[-1.2380361,49.3074359],[-1.2384922,49.3076785]]}},{"type":"Feature","properties":{},"geometry":{"type":"LineString","coordinates":[[-1.2391044,49.3065744],[-1.2388211,49.3068377]]}},{"type":"Feature","properties":{},"geometry":{"type":"LineString","coordinates":[[-1.2331983,49.311395],[-1.2337491,49.3116785]]}}]}