{"type":"FeatureCollection","features":[{"type":"Feature","properties":{"t":"grama"},"geometry":{"type":"Polygon","coordinates":[[[-1.2448258,49.3060031],[-1.2453772,49.3060211],[-1.2455027,49.3059402],[-1.245497,49.3052976],[-1.2451726,49.305283],[-1.2448258,49.3060031]]]}},{"type":"Feature","properties":{"t":"grama"},"geometry":{"type":"Polygon","coordinates":[[[-1.2503278,49.3020485],[-1.2504458,49.3020328],[-1.2506084,49.3018708],[-1.2506733,49.3017286],[-1.2506685,49.3016647],[-1.2505579,49.3016514],[-1.2503769,49.3016659],[-1.2501095,49.3018517],[-1.2503278,49.3020485]]]}},{"type":"Feature","properties":{"t":"grama"},"geometry":{"type":"Polygon","coordinates":[[[-1.2393215,49.3066502],[-1.2394352,49.3065415],[-1.2396547,49.3063803],[-1.2397663,49.3064279],[-1.2398502,49.3064804],[-1.2399328,49.3065121],[-1.240265,49.3065664],[-1.2407833,49.3068031],[-1.2408895,49.3068021],[-1.2409555,49.3068578],[-1.2409594,49.3069109],[-1.2409361,49.3069944],[-1.2408158,49.3071791],[-1.2401832,49.3070754],[-1.2393215,49.3066502]]]}},{"type":"Feature","properties":{"t":"prado"},"geometry":{"type":"Polygon","coordinates":[[[-1.2285233,49.2847546],[-1.2412414,49.2768151],[-1.2423854,49.2774579],[-1.2434483,49.2771423],[-1.2461453,49.2784814],[-1.248138,49.2774992],[-1.2450916,49.2758157],[-1.2470842,49.2748335],[-1.2485409,49.2754998],[-1.2496921,49.2748976],[-1.2481074,49.2739512],[-1.2532336,49.2712428],[-1.2517374,49.27001],[-1.2504978,49.2709547],[-1.2484919,49.2691681],[-1.2525584,49.2669923],[-1.2470082,49.2619583],[-1.2421811,49.2644776],[-1.2363654,49.2612485],[-1.236276,49.2612956],[-1.2352215,49.2589249],[-1.2337503,49.2578274],[-1.2358752,49.2566229],[-1.2323267,49.2540655],[-1.2322839,49.254078],[-1.2322898,49.253534],[-1.23452,49.2521742],[-1.2335657,49.2501483],[-1.2303603,49.2508524],[-1.2300523,49.2498677],[-1.2320105,49.2495099],[-1.2325219,49.2468317],[-1.2384314,49.2449058],[-1.240482,49.2460358],[-1.2408594,49.2471038],[-1.2383312,49.2479931],[-1.2384488,49.2482639],[-1.2374689,49.248716],[-1.2372454,49.2488191],[-1.2376602,49.2499512],[-1.2378616,49.2509142],[-1.2366567,49.2519619],[-1.2378037,49.2529845],[-1.2398022,49.2517355],[-1.2400501,49.251609],[-1.2406536,49.2523712],[-1.2394458,49.2533762],[-1.2410231,49.2547817],[-1.2412404,49.2546195],[-1.2421392,49.2552331],[-1.245896,49.2536673],[-1.2543185,49.2501561],[-1.2565447,49.251486],[-1.2544949,49.252682],[-1.2530389,49.2566531],[-1.2576676,49.2599185],[-1.2588348,49.2594471],[-1.2598577,49.2607256],[-1.2616598,49.2597988],[-1.2627793,49.2605508],[-1.2678763,49.2571684],[-1.271053,49.2587313],[-1.2695294,49.2598244],[-1.2687188,49.2596742],[-1.2638965,49.2629217],[-1.2656205,49.2653707],[-1.2618184,49.2682123],[-1.2678338,49.2731594],[-1.2706828,49.2724706],[-1.2706698,49.2726008],[-1.272562,49.2726518],[-1.2723053,49.2710811],[-1.2724758,49.2708433],[-1.2737296,49.2705752],[-1.2761952,49.2706089],[-1.2785128,49.2720433],[-1.2789419,49.2719068],[-1.2781429,49.274022],[-1.2751413,49.2751217],[-1.2714061,49.2765432],[-1.2707999,49.2750341],[-1.2673133,49.2752479],[-1.267927,49.276866],[-1.2611352,49.2775061],[-1.2597372,49.2777585],[-1.2600335,49.2778324],[-1.2572051,49.2813792],[-1.2571959,49.2813907],[-1.2550056,49.2824436],[-1.2542259,49.2842442],[-1.2520973,49.2861839],[-1.2522694,49.2886472],[-1.2523459,49.2919033],[-1.2530946,49.2924096],[-1.252506,49.2927307],[-1.2523703,49.2929101],[-1.2519091,49.293468],[-1.2526016,49.2937913],[-1.2510822,49.2952126],[-1.2498779,49.2961179],[-1.2494487,49.2959235],[-1.2493966,49.2958999],[-1.2493432,49.2955536],[-1.2469938,49.2954949],[-1.2465756,49.2963597],[-1.246191,49.2971745],[-1.2441594,49.2975247],[-1.2446446,49.2985731],[-1.2441069,49.2988186],[-1.2437975,49.2991664],[-1.2429116,49.2996273],[-1.2421811,49.3002595],[-1.2418059,49.3004971],[-1.2419957,49.3006714],[-1.2415972,49.3009055],[-1.2410071,49.3013969],[-1.240926,49.3014783],[-1.2400416,49.3013691],[-1.2394434,49.3013691],[-1.2387298,49.3013012],[-1.2387085,49.3013691],[-1.2363321,49.3010997],[-1.235522,49.3009808],[-1.2343312,49.3007553],[-1.2343275,49.3006503],[-1.2342463,49.2979601],[-1.2343156,49.2975943],[-1.2354992,49.2960135],[-1.2361517,49.2951815],[-1.2369269,49.2935889],[-1.2372043,49.2931854],[-1.2373628,49.292807],[-1.2373884,49.292394],[-1.2372945,49.2921622],[-1.2356616,49.291223],[-1.2352305,49.2908606],[-1.2351665,49.2907548],[-1.2351096,49.2905746],[-1.2349526,49.2902131],[-1.2347925,49.2899624],[-1.2343701,49.2895893],[-1.2337378,49.2892175],[-1.2328176,49.288668],[-1.2323374,49.2882549],[-1.2319751,49.2878082],[-1.2314846,49.2873421],[-1.2313289,49.2871093],[-1.2304808,49.2864774],[-1.229849,49.2860262],[-1.2294189,49.2857119],[-1.2289407,49.2853222],[-1.2286999,49.2850336],[-1.2285233,49.2847546]]]}},{"type":"Feature","properties":{"t":"grama"},"geometry":{"type":"Polygon","coordinates":[[[-1.2523602,49.2990779],[-1.2514775,49.2988982],[-1.2510428,49.2998115],[-1.2519255,49.2999912],[-1.2523602,49.2990779]]]}},{"type":"Feature","properties":{"t":"grama"},"geometry":{"type":"Polygon","coordinates":[[[-1.2525655,49.2994609],[-1.2527237,49.2991469],[-1.2524837,49.2990952],[-1.2523255,49.2994092],[-1.2525655,49.2994609]]]}},{"type":"Feature","properties":{"t":"grama"},"geometry":{"type":"Polygon","coordinates":[[[-1.2491685,49.3073336],[-1.2489945,49.3064937],[-1.2481284,49.3065838],[-1.2482497,49.3074036],[-1.2491685,49.3073336]]]}},{"type":"Feature","properties":{"t":"grama"},"geometry":{"type":"Polygon","coordinates":[[[-1.2528052,49.2995125],[-1.2529634,49.2991985],[-1.2527237,49.2991469],[-1.2525655,49.2994609],[-1.2528052,49.2995125]]]}},{"type":"Feature","properties":{"t":"grama"},"geometry":{"type":"Polygon","coordinates":[[[-1.2527451,49.2987136],[-1.2531884,49.2978208],[-1.2523043,49.297633],[-1.251861,49.2985259],[-1.2527451,49.2987136]]]}},{"type":"Feature","properties":{"t":"grama"},"geometry":{"type":"Polygon","coordinates":[[[-1.2539763,49.2991382],[-1.2544384,49.2982441],[-1.2535751,49.2980532],[-1.2531129,49.2989473],[-1.2539763,49.2991382]]]}},{"type":"Feature","properties":{"t":"grama"},"geometry":{"type":"Polygon","coordinates":[[[-1.228082,49.3056884],[-1.2283438,49.3050589],[-1.229752,49.3053079],[-1.2294903,49.3059374],[-1.228082,49.3056884]]]}},{"type":"Feature","properties":{"t":"grama"},"geometry":{"type":"Polygon","coordinates":[[[-1.2289921,49.3071503],[-1.2289179,49.3061881],[-1.229935,49.3061547],[-1.2300092,49.307117],[-1.2289921,49.3071503]]]}},{"type":"Feature","properties":{"t":"prado"},"geometry":{"type":"Polygon","coordinates":[[[-1.2257552,49.2997299],[-1.2262069,49.2994945],[-1.227623,49.3015724],[-1.228202,49.3018665],[-1.2277621,49.3024245],[-1.2269236,49.3022443],[-1.225317,49.3022366],[-1.2253057,49.3018102],[-1.2250369,49.3017731],[-1.2252719,49.3001857],[-1.2257552,49.2997299]]]}},{"type":"Feature","properties":{"t":"grama"},"geometry":{"type":"Polygon","coordinates":[[[-1.2458016,49.3029582],[-1.2459583,49.3028791],[-1.2459352,49.3028589],[-1.2456123,49.3028185],[-1.2458016,49.3029582]]]}},{"type":"Feature","properties":{"t":"grama"},"geometry":{"type":"Polygon","coordinates":[[[-1.2457406,49.3029899],[-1.2455902,49.3030741],[-1.2455725,49.3030586],[-1.2455459,49.3028474],[-1.2457406,49.3029899]]]}},{"type":"Feature","properties":{"t":"grama"},"geometry":{"type":"Polygon","coordinates":[[[-1.2460032,49.3029137],[-1.2459786,49.3028942],[-1.2458497,49.3029633],[-1.2458742,49.3029828],[-1.2460032,49.3029137]]]}},{"type":"Feature","properties":{"t":"grama"},"geometry":{"type":"Polygon","coordinates":[[[-1.2457663,49.3030447],[-1.245738,49.3030231],[-1.2456042,49.3030979],[-1.2456325,49.3031194],[-1.2457663,49.3030447]]]}},{"type":"Feature","properties":{"t":"grama"},"geometry":{"type":"Polygon","coordinates":[[[-1.245538,49.3031705],[-1.2455309,49.3031595],[-1.2455318,49.3031422],[-1.245538,49.3031307],[-1.2455797,49.3031069],[-1.24561,49.3031295],[-1.245538,49.3031705]]]}},{"type":"Feature","properties":{"t":"grama"},"geometry":{"type":"Polygon","coordinates":[[[-1.2455718,49.3030968],[-1.2455433,49.3030753],[-1.2455404,49.3029879],[-1.2454805,49.3029887],[-1.2454867,49.3030926],[-1.2455262,49.3031225],[-1.2455718,49.3030968]]]}},{"type":"Feature","properties":{"t":"grama"},"geometry":{"type":"Polygon","coordinates":[[[-1.2460051,49.3028791],[-1.2459538,49.3028416],[-1.2456344,49.302803],[-1.245599,49.3028134],[-1.2455849,49.3028018],[-1.2456167,49.3027822],[-1.2460432,49.3028324],[-1.246037,49.3028624],[-1.2460051,49.3028791]]]}},{"type":"Feature","properties":{"t":"grama"},"geometry":{"type":"Polygon","coordinates":[[[-1.2455358,49.3029703],[-1.2454797,49.3029715],[-1.2454728,49.3028703],[-1.2455389,49.3028272],[-1.2455495,49.3028364],[-1.2455314,49.3028457],[-1.2455358,49.3029703]]]}},{"type":"Feature","properties":{"t":"grama"},"geometry":{"type":"Polygon","coordinates":[[[-1.2465588,49.3034958],[-1.2464144,49.3035736],[-1.2459101,49.3031889],[-1.2460458,49.3031119],[-1.2464873,49.3034625],[-1.2465588,49.3034958]]]}},{"type":"Feature","properties":{"t":"grama"},"geometry":{"type":"Polygon","coordinates":[[[-1.2400456,49.3099719],[-1.2400082,49.3098044],[-1.2394665,49.3098212],[-1.2394969,49.310013],[-1.2400456,49.3099719]]]}},{"type":"Feature","properties":{"t":"grama"},"geometry":{"type":"Polygon","coordinates":[[[-1.2404145,49.3099658],[-1.2394642,49.3100313],[-1.239651,49.3109279],[-1.2405686,49.3108898],[-1.2404145,49.3099658]]]}},{"type":"Feature","properties":{"t":"grama"},"geometry":{"type":"Polygon","coordinates":[[[-1.2592076,49.3138903],[-1.2590729,49.3138919],[-1.258946,49.3139214],[-1.2588401,49.3139758],[-1.2587664,49.3140493],[-1.2587324,49.3141343],[-1.2587417,49.3142219],[-1.2587934,49.314303],[-1.258882,49.3143692],[-1.2589983,49.3144135],[-1.2591303,49.3144313],[-1.259264,49.3144208],[-1.2593925,49.3143798],[-1.2594923,49.314313],[-1.2595516,49.3142281],[-1.2595634,49.3141352],[-1.2595264,49.3140451],[-1.2594449,49.3139685],[-1.2593361,49.3139167],[-1.2592076,49.3138903]]]}},{"type":"Feature","properties":{"t":"grama"},"geometry":{"type":"Polygon","coordinates":[[[-1.2278182,49.3059324],[-1.2276516,49.3059046],[-1.2277374,49.3056863],[-1.227904,49.3057141],[-1.2278182,49.3059324]]]}},{"type":"Feature","properties":{"t":"grama"},"geometry":{"type":"Polygon","coordinates":[[[-1.2452016,49.3028982],[-1.2452385,49.3028299],[-1.2452462,49.3029103],[-1.2453325,49.3029082],[-1.2453294,49.3028219],[-1.2454326,49.3028309],[-1.2454371,49.302863],[-1.2454434,49.3030147],[-1.2453664,49.3030398],[-1.2452016,49.3028982]]]}},{"type":"Feature","properties":{"t":"grama"},"geometry":{"type":"Polygon","coordinates":[[[-1.2419109,49.3034314],[-1.242028,49.3033923],[-1.2420907,49.3033856],[-1.2421051,49.3030791],[-1.2419217,49.3030758],[-1.241857,49.303104],[-1.2418457,49.3031227],[-1.2418523,49.3033722],[-1.2419109,49.3034314]]]}},{"type":"Feature","properties":{"t":"grama"},"geometry":{"type":"Polygon","coordinates":[[[-1.2509374,49.3033832],[-1.2510155,49.3032834],[-1.2510032,49.3032583],[-1.250957,49.3032372],[-1.2506853,49.3032835],[-1.2509374,49.3033832]]]}},{"type":"Feature","properties":{"t":"grama"},"geometry":{"type":"Polygon","coordinates":[[[-1.2551571,49.3067311],[-1.255561,49.3068042],[-1.2556334,49.3067951],[-1.2557175,49.3067372],[-1.2552925,49.3065637],[-1.2562102,49.3061221],[-1.2561448,49.3060689],[-1.255937,49.3061815],[-1.2558728,49.3061316],[-1.2557644,49.3061008],[-1.2553617,49.3057932],[-1.2555293,49.3056996],[-1.2553094,49.3056174],[-1.2549379,49.305836],[-1.2551163,49.3059768],[-1.2546281,49.3062523],[-1.2545731,49.3062572],[-1.2544715,49.3061777],[-1.2540099,49.3064202],[-1.2542043,49.3065557],[-1.2546936,49.3063248],[-1.2549654,49.306574],[-1.2550914,49.3066654],[-1.2551057,49.3067105],[-1.2551571,49.3067311]]]}},{"type":"Feature","properties":{"t":"grama"},"geometry":{"type":"Polygon","coordinates":[[[-1.2568433,49.3113717],[-1.2564827,49.3109469],[-1.2565924,49.3108724],[-1.2567465,49.3108493],[-1.2568727,49.3109093],[-1.2569226,49.3110019],[-1.2568806,49.3110881],[-1.2568169,49.3112113],[-1.2568433,49.3113717]]]}},{"type":"Feature","properties":{"t":"grama"},"geometry":{"type":"Polygon","coordinates":[[[-1.2376952,49.3034157],[-1.2377603,49.3036344],[-1.2379563,49.3038769],[-1.2384257,49.3044725],[-1.2385215,49.3046032],[-1.2373814,49.3049851],[-1.2372808,49.3049136],[-1.2372217,49.3049418],[-1.2371521,49.3049011],[-1.2370938,49.3049221],[-1.2370644,49.3048749],[-1.2369262,49.3047657],[-1.2371807,49.3045674],[-1.2368351,49.3041845],[-1.2366476,49.3040688],[-1.2364954,49.3040596],[-1.2363432,49.3041173],[-1.2362087,49.3042142],[-1.2360353,49.3045396],[-1.2353416,49.3044196],[-1.23537,49.304115],[-1.2349194,49.3036117],[-1.2349822,49.3032408],[-1.2353746,49.3032366],[-1.2371749,49.3032773],[-1.2371749,49.3033927],[-1.2375147,49.3033903],[-1.2376634,49.3033534],[-1.2376952,49.3034157]]]}},{"type":"Feature","properties":{"t":"prado"},"geometry":{"type":"Polygon","coordinates":[[[-1.2322218,49.3044946],[-1.2322727,49.3042457],[-1.2331958,49.304387],[-1.2332033,49.3045308],[-1.2336144,49.3045795],[-1.233734,49.3046101],[-1.2335994,49.3049238],[-1.233502,49.305185],[-1.23337,49.3054085],[-1.2331561,49.305633],[-1.2328132,49.3059937],[-1.2327626,49.3060222],[-1.2322858,49.3059323],[-1.2324425,49.3057513],[-1.2325089,49.3045012],[-1.2322218,49.3044946]]]}},{"type":"Feature","properties":{"t":"prado"},"geometry":{"type":"Polygon","coordinates":[[[-1.2299996,49.3054001],[-1.2306082,49.3054825],[-1.230348,49.3050255],[-1.2299996,49.3054001]]]}},{"type":"Feature","properties":{"t":"grama"},"geometry":{"type":"Polygon","coordinates":[[[-1.2202675,49.3007341],[-1.2202673,49.3007026],[-1.2201041,49.300703],[-1.2201043,49.3007345],[-1.2202675,49.3007341]]]}},{"type":"Feature","properties":{"t":"grama"},"geometry":{"type":"Polygon","coordinates":[[[-1.2202613,49.3006699],[-1.2202611,49.3006383],[-1.220098,49.3006387],[-1.2200981,49.3006703],[-1.2202613,49.3006699]]]}},{"type":"Feature","properties":{"t":"grama"},"geometry":{"type":"Polygon","coordinates":[[[-1.2208595,49.3008592],[-1.2208618,49.3007839],[-1.2208125,49.3007834],[-1.2208168,49.3005977],[-1.2208704,49.3005982],[-1.220871,49.3005362],[-1.2206153,49.3005417],[-1.2205799,49.3004669],[-1.2204936,49.3004011],[-1.2204566,49.2998681],[-1.2205467,49.2998219],[-1.2204713,49.2998034],[-1.2202895,49.2998104],[-1.2201755,49.2998395],[-1.220308,49.2998978],[-1.2203703,49.3005558],[-1.2200207,49.3005648],[-1.2200306,49.3006137],[-1.2200346,49.3006772],[-1.2200892,49.3006763],[-1.2200869,49.3006331],[-1.2203557,49.3006321],[-1.2203619,49.3007396],[-1.2200938,49.3007401],[-1.2200915,49.3007039],[-1.2200371,49.3007039],[-1.2200395,49.3007918],[-1.2200676,49.3007913],[-1.2200692,49.3008767],[-1.2208595,49.3008592]]]}},{"type":"Feature","properties":{"t":"grama"},"geometry":{"type":"Polygon","coordinates":[[[-1.2452231,49.3055423],[-1.245264,49.3055456],[-1.2452889,49.3055391],[-1.2453138,49.3055085],[-1.2453427,49.305307],[-1.2451752,49.3052986],[-1.2450337,49.3055956],[-1.2451663,49.3056112],[-1.2452111,49.3055969],[-1.2452231,49.3055423]]]}},{"type":"Feature","properties":{"t":"prado"},"geometry":{"type":"Polygon","coordinates":[[[-1.2239732,49.2980935],[-1.2247124,49.2983247],[-1.2246677,49.2984992],[-1.2245531,49.2989467],[-1.2256763,49.2990377],[-1.2254012,49.2995417],[-1.2251878,49.2995534],[-1.2241621,49.2995932],[-1.2233869,49.2995921],[-1.2221402,49.2996323],[-1.2221718,49.2991982],[-1.219345,49.299358],[-1.2180174,49.2994494],[-1.2174091,49.2994845],[-1.2176447,49.3000077],[-1.2178466,49.3013902],[-1.2167416,49.3013564],[-1.2160307,49.3013889],[-1.2156211,49.3014088],[-1.2156528,49.3015069],[-1.2151092,49.3014664],[-1.2150633,49.3017329],[-1.2145069,49.3016912],[-1.2144696,49.3009224],[-1.21318,49.3010274],[-1.2132781,49.3016287],[-1.2116324,49.3014832],[-1.211134,49.3014391],[-1.2112654,49.3008654],[-1.2097693,49.3008112],[-1.2097135,49.3009644],[-1.2086519,49.3008962],[-1.2085762,49.3007178],[-1.2077987,49.3006625],[-1.2077504,49.3011592],[-1.2068385,49.3010298],[-1.2068752,49.3006188],[-1.2067695,49.3001969],[-1.2060231,49.3001832],[-1.2054223,49.3001588],[-1.2046713,49.3002007],[-1.2047096,49.300362],[-1.2032832,49.3002977],[-1.2022757,49.2995228],[-1.2032719,49.2989827],[-1.203538,49.2981984],[-1.2032156,49.2977989],[-1.2022071,49.2973161],[-1.2000575,49.2966296],[-1.1995734,49.2963134],[-1.1990893,49.2959972],[-1.199572,49.2953624],[-1.1997348,49.2953813],[-1.2006501,49.2937185],[-1.1959274,49.2925419],[-1.1947017,49.292329],[-1.1946535,49.2923529],[-1.1944427,49.292284],[-1.1942719,49.2922544],[-1.1938478,49.2923024],[-1.1939684,49.2926383],[-1.1934413,49.2927392],[-1.1911141,49.2925446],[-1.191028,49.29241],[-1.1910643,49.292396],[-1.1905091,49.2924988],[-1.1890141,49.2926183],[-1.1890137,49.2922533],[-1.1882876,49.2910898],[-1.1855149,49.2914652],[-1.1849517,49.2903806],[-1.184383,49.290447],[-1.183809,49.2893939],[-1.1895758,49.2897018],[-1.1927408,49.2899082],[-1.1955035,49.2902126],[-1.1977029,49.2905695],[-1.1993056,49.290883],[-1.2005923,49.2911777],[-1.2006602,49.2912931],[-1.200928,49.291654],[-1.2013207,49.2920237],[-1.2019543,49.29237],[-1.2025969,49.2922973],[-1.203061,49.2924311],[-1.2042493,49.2921618],[-1.2054706,49.2925288],[-1.2056261,49.2928961],[-1.2082171,49.2935749],[-1.2086624,49.2935014],[-1.209545,49.2937652],[-1.2089657,49.2944614],[-1.208794,49.2957769],[-1.2098562,49.2959728],[-1.2100386,49.2958258],[-1.2098776,49.2946923],[-1.210296,49.2939961],[-1.2239732,49.2980935]]]}},{"type":"Feature","properties":{"t":"prado"},"geometry":{"type":"Polygon","coordinates":[[[-1.2196269,49.2966179],[-1.2243154,49.2952601],[-1.2248336,49.2943705],[-1.2264081,49.293064],[-1.2235732,49.2875633],[-1.2298846,49.2863949],[-1.2309408,49.2872665],[-1.2322819,49.2887186],[-1.2334299,49.2894289],[-1.234315,49.2900622],[-1.2345189,49.2903945],[-1.2347174,49.2909928],[-1.2352377,49.2913952],[-1.2367237,49.2922804],[-1.2368792,49.2924973],[-1.2368417,49.2929206],[-1.2361872,49.2942116],[-1.2356883,49.2951282],[-1.2350768,49.2957999],[-1.2342614,49.2969019],[-1.2334997,49.297766],[-1.2329096,49.2980493],[-1.2337411,49.2984237],[-1.2338926,49.3006913],[-1.2330812,49.3005191],[-1.2319601,49.3002567],[-1.2304741,49.2998702],[-1.2294844,49.2995833],[-1.2271857,49.2989082],[-1.2196269,49.2966179]]]}},{"type":"Feature","properties":{"t":"prado"},"geometry":{"type":"Polygon","coordinates":[[[-1.2340142,49.3008407],[-1.2340535,49.3020783],[-1.2338811,49.3020851],[-1.2334868,49.302143],[-1.2334209,49.3021526],[-1.2333913,49.3020186],[-1.2328598,49.3021626],[-1.232234,49.3018546],[-1.2336505,49.3014444],[-1.2333704,49.301055],[-1.2332653,49.3010253],[-1.232832,49.3011589],[-1.2325219,49.3008584],[-1.2318122,49.3010753],[-1.2310612,49.3003953],[-1.2302399,49.3010896],[-1.2295844,49.3013188],[-1.2287684,49.3009836],[-1.2283404,49.3000734],[-1.2285121,49.29999],[-1.2291876,49.2996617],[-1.2301576,49.2999506],[-1.2311581,49.3002305],[-1.2321907,49.3004946],[-1.2331966,49.3007115],[-1.2339021,49.300823],[-1.2340142,49.3008407]]]}},{"type":"Feature","properties":{"t":"grama"},"geometry":{"type":"Polygon","coordinates":[[[-1.2564235,49.2927028],[-1.2562515,49.2926433],[-1.2562489,49.2925458],[-1.2561589,49.2924777],[-1.2560148,49.2924242],[-1.2560082,49.2923767],[-1.2560254,49.292306],[-1.2561153,49.2923146],[-1.2563084,49.2923828],[-1.2564182,49.2924621],[-1.256479,49.2925458],[-1.2565214,49.2925872],[-1.2565372,49.2926166],[-1.2565227,49.2926312],[-1.2564235,49.2927028]]]}},{"type":"Feature","properties":{"t":"grama"},"geometry":{"type":"Polygon","coordinates":[[[-1.2495879,49.2972554],[-1.2490201,49.2972147],[-1.2489691,49.2975161],[-1.249537,49.2975569],[-1.2495879,49.2972554]]]}},{"type":"Feature","properties":{"t":"grama"},"geometry":{"type":"Polygon","coordinates":[[[-1.2571487,49.2949647],[-1.2567933,49.2948676],[-1.2568818,49.2947329],[-1.2572278,49.294837],[-1.2571487,49.2949647]]]}},{"type":"Feature","properties":{"t":"grama"},"geometry":{"type":"Polygon","coordinates":[[[-1.2575483,49.2954072],[-1.257657,49.2953311],[-1.2576181,49.2953154],[-1.2575671,49.295088],[-1.2574115,49.2950434],[-1.2573874,49.2950819],[-1.2572667,49.295046],[-1.2570977,49.29529],[-1.2575483,49.2954072]]]}},{"type":"Feature","properties":{"t":"grama"},"geometry":{"type":"Polygon","coordinates":[[[-1.2522791,49.295402],[-1.2520431,49.295248],[-1.2523261,49.295081],[-1.2525474,49.2952288],[-1.2522791,49.295402]]]}},{"type":"Feature","properties":{"t":"grama"},"geometry":{"type":"Polygon","coordinates":[[[-1.255184,49.2965416],[-1.2547629,49.2963868],[-1.2550499,49.2961121],[-1.2556279,49.296392],[-1.2556936,49.2963693],[-1.2558196,49.2964043],[-1.2559135,49.296357],[-1.2561375,49.2964043],[-1.2560128,49.2966456],[-1.2558572,49.2966054],[-1.2557378,49.2967454],[-1.255184,49.2965416]]]}},{"type":"Feature","properties":{"t":"grama"},"geometry":{"type":"Polygon","coordinates":[[[-1.2508127,49.3003351],[-1.2508798,49.3002545],[-1.250646,49.3001717],[-1.2505789,49.3002523],[-1.2508127,49.3003351]]]}},{"type":"Feature","properties":{"t":"grama"},"geometry":{"type":"Polygon","coordinates":[[[-1.2638609,49.3017128],[-1.2638598,49.3017512],[-1.2638727,49.3017887],[-1.2638991,49.3018231],[-1.2639373,49.3018523],[-1.2639852,49.3018748],[-1.2640399,49.3018891],[-1.2640982,49.3018945],[-1.2641568,49.3018906],[-1.2642123,49.3018776],[-1.2642615,49.3018564],[-1.2643014,49.3018282],[-1.2643298,49.3017945],[-1.2643451,49.3017574],[-1.2643462,49.3017189],[-1.2643332,49.3016815],[-1.2643069,49.3016471],[-1.2642686,49.3016178],[-1.2642208,49.3015954],[-1.2641661,49.3015811],[-1.2641078,49.3015757],[-1.2640491,49.3015796],[-1.2639936,49.3015925],[-1.2639445,49.3016137],[-1.2639045,49.301642],[-1.2638761,49.3016756],[-1.2638609,49.3017128]]]}},{"type":"Feature","properties":{"t":"grama"},"geometry":{"type":"Polygon","coordinates":[[[-1.265835,49.2978683],[-1.26579,49.2978804],[-1.2657513,49.2978995],[-1.2657213,49.2979245],[-1.2657022,49.2979537],[-1.2656951,49.2979851],[-1.2657006,49.2980166],[-1.2657183,49.2980462],[-1.265747,49.2980718],[-1.2657847,49.2980918],[-1.2658274,49.2981045],[-1.2658736,49.2981099],[-1.2659204,49.2981077],[-1.2659649,49.298098],[-1.2660044,49.2980815],[-1.2660364,49.2980591],[-1.266059,49.2980323],[-1.2660712,49.2979994],[-1.2660693,49.2979656],[-1.2660533,49.2979334],[-1.2660244,49.2979053],[-1.2659849,49.2978834],[-1.2659378,49.2978693],[-1.2658865,49.2978642],[-1.265835,49.2978683]]]}}]}