{"type":"FeatureCollection","features":[{"type":"Feature","properties":{"r":"rail"},"geometry":{"type":"LineString","coordinates":[[-1.2342686,49.3008058],[-1.2348377,49.300912],[-1.2353529,49.3009999],[-1.2358446,49.3010809],[-1.2364117,49.3011597],[-1.2368847,49.3012177],[-1.2373003,49.3012641],[-1.2381151,49.3013511],[-1.2394943,49.3014936],[-1.240287,49.3015785],[-1.2410755,49.3016699],[-1.241953,49.3017797],[-1.2426896,49.3018842],[-1.2434353,49.3020004],[-1.2436097,49.3020286]]}},{"type":"Feature","properties":{"r":"rail"},"geometry":{"type":"LineString","coordinates":[[-1.2449668,49.3022762],[-1.2456811,49.3024198],[-1.2464829,49.302596],[-1.2473198,49.3027972],[-1.2480016,49.3029701],[-1.248465,49.3030949],[-1.2490103,49.3032447],[-1.2492844,49.30332],[-1.2499472,49.3035061],[-1.250669,49.3037112],[-1.2517045,49.3040127],[-1.2525075,49.3042507],[-1.2540558,49.3047252],[-1.2550767,49.3050514],[-1.2561375,49.305396],[-1.257518,49.3058592],[-1.2589571,49.3063589],[-1.2597612,49.3066469],[-1.2605523,49.3069337],[-1.2622154,49.3075598],[-1.2638473,49.3081994],[-1.2647832,49.3085829],[-1.2655953,49.3089269],[-1.2663948,49.3092699],[-1.2674919,49.309756],[-1.2685808,49.3102673]]}},{"type":"Feature","properties":{"r":"rail"},"geometry":{"type":"LineString","coordinates":[[-1.1920406,49.2897536],[-1.1933255,49.2898636],[-1.1941077,49.2899462],[-1.1948199,49.2900284],[-1.1951883,49.2900753],[-1.1958468,49.2901654],[-1.196685,49.2902948],[-1.1975935,49.2904467],[-1.1984016,49.2905975],[-1.1993692,49.2907929],[-1.2003112,49.2909998],[-1.200879,49.2911335],[-1.2013748,49.2912561],[-1.2018593,49.2913786],[-1.2025,49.2915483],[-1.2033969,49.2918008],[-1.2301475,49.2998457],[-1.2307682,49.3000221],[-1.2312219,49.3001451],[-1.2316664,49.3002613],[-1.2320964,49.3003661],[-1.2325944,49.300478],[-1.2333168,49.3006266],[-1.2339956,49.300755]]}},{"type":"Feature","properties":{"r":"rail"},"geometry":{"type":"LineString","coordinates":[[-1.2339956,49.300755],[-1.2342686,49.3008058]]}},{"type":"Feature","properties":{"r":"station"},"geometry":{"type":"LineString","coordinates":[[-1.2447186,49.3023061],[-1.2446902,49.3023666],[-1.2446836,49.3023806],[-1.2448298,49.3024098],[-1.2449155,49.302427],[-1.2449969,49.3024432],[-1.2451429,49.3024725],[-1.2451472,49.3024635],[-1.2451779,49.3023981],[-1.2450317,49.3023688],[-1.2448648,49.3023354],[-1.244805,49.3023234],[-1.2447186,49.3023061]]}},{"type":"Feature","properties":{"r":"rail"},"geometry":{"type":"LineString","coordinates":[[-1.2685808,49.3102673],[-1.2687296,49.3103367]]}},{"type":"Feature","properties":{"r":"rail"},"geometry":{"type":"LineString","coordinates":[[-1.2687296,49.3103367],[-1.2694362,49.3106921],[-1.2701443,49.311045],[-1.2706994,49.3113294],[-1.2715562,49.3117825],[-1.2722818,49.3121814],[-1.272993,49.3125801],[-1.2738408,49.3130654],[-1.2743931,49.3133888],[-1.2752572,49.3139169],[-1.2760133,49.3143915],[-1.2767552,49.3148696],[-1.2774379,49.3153252],[-1.2779156,49.3156536],[-1.2788682,49.3163232],[-1.2797769,49.3169915],[-1.2805073,49.317545],[-1.2811055,49.3180198],[-1.2815397,49.3183635],[-1.2819752,49.318725],[-1.2824191,49.3190957],[-1.2829877,49.3195826],[-1.2836805,49.3202016],[-1.2842095,49.3206849],[-1.2847796,49.3212191],[-1.2852833,49.3217106],[-1.2857297,49.3221568],[-1.2861595,49.3225958],[-1.2867518,49.3232248],[-1.287393,49.3239338],[-1.2877913,49.3243894],[-1.2886687,49.3253864],[-1.2895929,49.3263864]]}},{"type":"Feature","properties":{"r":"abandoned"},"geometry":{"type":"LineString","coordinates":[[-1.2525971,49.3040809],[-1.2520473,49.3039622],[-1.2515026,49.3038469],[-1.2503372,49.3035658],[-1.2492844,49.30332]]}},{"type":"Feature","properties":{"r":"rail"},"geometry":{"type":"LineString","coordinates":[[-1.2339993,49.3007991],[-1.2332985,49.300666],[-1.2325783,49.3005164],[-1.2320765,49.3004001],[-1.2316483,49.3002941],[-1.2312,49.3001769],[-1.2307465,49.3000523],[-1.2301218,49.299876],[-1.2092592,49.2936037],[-1.203378,49.2918323],[-1.2024759,49.2915763],[-1.201844,49.2914095],[-1.2013574,49.2912863],[-1.2008585,49.2911643],[-1.200296,49.291032],[-1.1993531,49.2908239],[-1.1983868,49.2906285],[-1.1975777,49.2904776],[-1.1966756,49.2903272],[-1.1958347,49.2901969],[-1.1951781,49.2901084],[-1.1948118,49.2900611],[-1.1940954,49.2899777],[-1.1933135,49.2898968],[-1.1920389,49.2897869]]}},{"type":"Feature","properties":{"r":"rail"},"geometry":{"type":"LineString","coordinates":[[-1.234267,49.3008478],[-1.2339993,49.3007991]]}},{"type":"Feature","properties":{"r":"rail"},"geometry":{"type":"LineString","coordinates":[[-1.2687009,49.3103652],[-1.2685561,49.3102953]]}},{"type":"Feature","properties":{"r":"rail"},"geometry":{"type":"LineString","coordinates":[[-1.2895437,49.3263989],[-1.2886231,49.3254034],[-1.2877482,49.3244053],[-1.28735,49.3239501],[-1.2867093,49.3232411],[-1.2861214,49.3226163],[-1.2856879,49.3221735],[-1.2852415,49.3217299],[-1.284737,49.3212353],[-1.2841774,49.3207078],[-1.2836436,49.3202222],[-1.2829529,49.3196053],[-1.2823829,49.3191158],[-1.281939,49.318746],[-1.2815013,49.3183831],[-1.2810733,49.3180427],[-1.2804723,49.3175698],[-1.2797402,49.3170122],[-1.2788307,49.3163449],[-1.2778852,49.3156792],[-1.2773981,49.3153443],[-1.276719,49.3148939],[-1.2759792,49.3144156],[-1.2752244,49.3139417],[-1.2743588,49.313414],[-1.2738057,49.3130865],[-1.2729607,49.3126036],[-1.2722524,49.3122073],[-1.2715267,49.3118096],[-1.270673,49.3113557],[-1.270112,49.3110692],[-1.2694024,49.3107149],[-1.2687009,49.3103652]]}},{"type":"Feature","properties":{"r":"rail"},"geometry":{"type":"LineString","coordinates":[[-1.2435936,49.3020606],[-1.2434265,49.3020329],[-1.2426768,49.3019161],[-1.2419427,49.3018118],[-1.2410608,49.3017014],[-1.2402776,49.3016122],[-1.2394833,49.3015265],[-1.2381021,49.301384],[-1.2372896,49.3012974],[-1.2368756,49.3012513],[-1.2364033,49.3011938],[-1.2358318,49.3011133],[-1.2353415,49.3010341],[-1.2348284,49.3009463],[-1.234267,49.3008478]]}},{"type":"Feature","properties":{"r":"rail"},"geometry":{"type":"LineString","coordinates":[[-1.2685561,49.3102953],[-1.2674596,49.3097819],[-1.2663657,49.3092954],[-1.2655706,49.3089541],[-1.2647566,49.3086097],[-1.26382,49.3082268],[-1.2621872,49.3075886],[-1.2605219,49.3069605],[-1.2597337,49.3066758],[-1.258931,49.3063888],[-1.2574973,49.3058882],[-1.2561134,49.305424],[-1.2550577,49.3050811],[-1.2540402,49.3047573],[-1.252485,49.3042797],[-1.2516844,49.3040424],[-1.2506441,49.303739],[-1.2500296,49.3035675],[-1.2492617,49.3033491],[-1.2484382,49.3031246],[-1.2479778,49.3030019],[-1.2472983,49.3028273],[-1.2464648,49.3026284],[-1.2456652,49.3024501],[-1.2449487,49.3023051]]}},{"type":"Feature","properties":{"r":"rail"},"geometry":{"type":"LineString","coordinates":[[-1.239368,49.3014167],[-1.2396364,49.3014322],[-1.2398061,49.3014452],[-1.2400034,49.3014631],[-1.2408796,49.3015602],[-1.241679,49.301648],[-1.2419047,49.3016777],[-1.2420508,49.3017012],[-1.2422537,49.3017377]]}},{"type":"Feature","properties":{"r":"rail"},"geometry":{"type":"LineString","coordinates":[[-1.2434353,49.3020004],[-1.2432857,49.3019734],[-1.2431683,49.3019484],[-1.2430266,49.3019139],[-1.2428796,49.3018799],[-1.2426245,49.301823],[-1.2422537,49.3017377]]}},{"type":"Feature","properties":{"r":"rail"},"geometry":{"type":"LineString","coordinates":[[-1.239368,49.3014167],[-1.2392812,49.3014136],[-1.2391973,49.3014075],[-1.2391333,49.3014007],[-1.2387943,49.3013642]]}},{"type":"Feature","properties":{"r":"rail"},"geometry":{"type":"LineString","coordinates":[[-1.2422537,49.3017377],[-1.2419768,49.301674],[-1.2418184,49.3016406],[-1.2417008,49.3016183],[-1.2415463,49.3015954],[-1.2413851,49.3015763],[-1.2411015,49.3015423],[-1.2405524,49.3014792],[-1.2401949,49.3014439],[-1.2399929,49.3014254],[-1.2398678,49.301418],[-1.2397568,49.3014167],[-1.2396269,49.3014161],[-1.2394989,49.3014186],[-1.239368,49.3014167]]}},{"type":"Feature","properties":{"r":"rail"},"geometry":{"type":"LineString","coordinates":[[-1.2437941,49.3020938],[-1.2435936,49.3020606]]}},{"type":"Feature","properties":{"r":"rail"},"geometry":{"type":"LineString","coordinates":[[-1.2449487,49.3023051],[-1.2443675,49.3021953],[-1.2437941,49.3020938]]}},{"type":"Feature","properties":{"r":"rail"},"geometry":{"type":"LineString","coordinates":[[-1.2438097,49.3020609],[-1.2443845,49.3021656],[-1.2449668,49.3022762]]}},{"type":"Feature","properties":{"r":"rail"},"geometry":{"type":"LineString","coordinates":[[-1.2436097,49.3020286],[-1.2438097,49.3020609]]}},{"type":"Feature","properties":{"r":"abandoned"},"geometry":{"type":"LineString","coordinates":[[-1.2490103,49.3032447],[-1.2484382,49.3031246]]}},{"type":"Feature","properties":{"r":"rail"},"geometry":{"type":"LineString","coordinates":[[-1.2400977,49.30167],[-1.2393589,49.301593],[-1.2392288,49.3015755],[-1.2391041,49.301558],[-1.2389566,49.3015309],[-1.2387595,49.3014915],[-1.2385751,49.3014565],[-1.2384604,49.3014338],[-1.2383632,49.3014181],[-1.2382626,49.3014036],[-1.2381021,49.301384]]}}]}