{"type":"FeatureCollection","features":[{"type":"Feature","properties":{"g":"forest"},"geometry":{"type":"Polygon","coordinates":[[[-1.2359019,49.3108077],[-1.2352382,49.3112805],[-1.2350082,49.3111086],[-1.2368715,49.3094933],[-1.2362089,49.3099947],[-1.2359916,49.310179],[-1.2311878,49.314254],[-1.2313273,49.3144778],[-1.2315418,49.3143869],[-1.2359019,49.3108077]]]}},{"type":"Feature","properties":{"g":"forest"},"geometry":{"type":"Polygon","coordinates":[[[-1.2359584,49.3090668],[-1.2354901,49.3090783],[-1.2298789,49.3136315],[-1.2300076,49.3136944],[-1.2302828,49.3136833],[-1.2359584,49.3090668]]]}},{"type":"Feature","properties":{"g":"forest"},"geometry":{"type":"Polygon","coordinates":[[[-1.2260071,49.3038619],[-1.2260699,49.3029535],[-1.2253671,49.3029151],[-1.2253451,49.3033299],[-1.2253135,49.3039259],[-1.2256139,49.3039434],[-1.2260071,49.3038619]]]}},{"type":"Feature","properties":{"g":"forest"},"geometry":{"type":"Polygon","coordinates":[[[-1.231573,49.3065957],[-1.2309187,49.3064834],[-1.2305121,49.3063989],[-1.2304826,49.3065836],[-1.2303823,49.3067914],[-1.2301824,49.3071854],[-1.230075,49.3071494],[-1.2300294,49.3067258],[-1.2299812,49.3061409],[-1.2300127,49.3060176],[-1.2298061,49.30595],[-1.2297552,49.3058777],[-1.2297292,49.3057236],[-1.2297528,49.3055925],[-1.2297932,49.3054845],[-1.2298749,49.3054021],[-1.2299996,49.3054001],[-1.2306082,49.3054825],[-1.2318396,49.3057569],[-1.2321365,49.3057558],[-1.2320767,49.3052051],[-1.2322218,49.3044946],[-1.2325089,49.3045012],[-1.2324425,49.3057513],[-1.2322858,49.3059323],[-1.230356,49.3056364],[-1.2302892,49.3057009],[-1.2303024,49.3057938],[-1.2306243,49.3059826],[-1.2308632,49.306236],[-1.2316305,49.3065154],[-1.231573,49.3065957]]]}},{"type":"Feature","properties":{"g":"forest"},"geometry":{"type":"Polygon","coordinates":[[[-1.2588036,49.3049825],[-1.258353,49.3046642],[-1.2578313,49.3052307],[-1.2588036,49.3049825]]]}},{"type":"Feature","properties":{"g":"forest"},"geometry":{"type":"Polygon","coordinates":[[[-1.2498458,49.3034199],[-1.2503607,49.3035459],[-1.2504197,49.3034986],[-1.2502132,49.303392],[-1.2498458,49.3034199]]]}},{"type":"Feature","properties":{"g":"forest"},"geometry":{"type":"Polygon","coordinates":[[[-1.2503259,49.3033605],[-1.2505726,49.3035074],[-1.2508167,49.3035913],[-1.2509374,49.3033832],[-1.2506853,49.3032835],[-1.2503554,49.3033307],[-1.2503259,49.3033605]]]}}]}