{"type":"FeatureCollection","features":[{"type":"Feature","properties":{"w":"river"},"geometry":{"type":"LineString","coordinates":[[-1.2242613,49.2796875],[-1.2243258,49.2796952],[-1.224342,49.2798382],[-1.2243719,49.2799428],[-1.2244393,49.2801114],[-1.2246928,49.2807458],[-1.2248369,49.2811382],[-1.224886,49.2812222],[-1.2250337,49.2813749],[-1.2256057,49.2818147],[-1.2259397,49.2821156],[-1.2266484,49.2828505],[-1.227216,49.2834074],[-1.2278294,49.2839747],[-1.2280438,49.2841979],[-1.2281964,49.2843946],[-1.2283364,49.2846432],[-1.228557,49.2849923],[-1.228794,49.2852879],[-1.2289373,49.285425],[-1.2291691,49.2856156],[-1.2308362,49.2868593],[-1.2311537,49.2871145],[-1.2313381,49.2872888],[-1.232325,49.2883993],[-1.2324911,49.2885587],[-1.232678,49.288695],[-1.2339106,49.2894438],[-1.2342187,49.2896566],[-1.2344573,49.2898571],[-1.2346727,49.290067],[-1.2347476,49.2901597],[-1.2348486,49.2903639],[-1.2349607,49.2907558],[-1.2349857,49.2908067],[-1.2350961,49.2909429],[-1.2352084,49.2910457],[-1.2353341,49.2911422],[-1.2356928,49.2913799],[-1.2362307,49.2917087],[-1.2368507,49.2920579],[-1.2371038,49.2922189],[-1.2371643,49.292276],[-1.2372117,49.2923991],[-1.2372506,49.2925043]]}},{"type":"Feature","properties":{"w":"river"},"geometry":{"type":"LineString","coordinates":[[-1.2372506,49.2925043],[-1.237263,49.2926399],[-1.2372173,49.2928498],[-1.2371859,49.2929315],[-1.2368195,49.2936057],[-1.2362685,49.294736],[-1.2361112,49.294986],[-1.2359015,49.2952747],[-1.2352175,49.2961238],[-1.2340533,49.2976169],[-1.2340188,49.2977161],[-1.2340093,49.2978011],[-1.2341564,49.3004],[-1.2341697,49.3006286],[-1.2341743,49.3008814],[-1.234208,49.301858],[-1.234241,49.3023204],[-1.2342294,49.3024176],[-1.2342291,49.3024738],[-1.2342518,49.3029839],[-1.2342228,49.3032629],[-1.2341523,49.3035703],[-1.2340574,49.3039097],[-1.2339839,49.3042769],[-1.233986,49.3042793],[-1.2339719,49.3044453]]}},{"type":"Feature","properties":{"w":"river"},"geometry":{"type":"LineString","coordinates":[[-1.2258923,49.3177245],[-1.2253344,49.3182623],[-1.22482,49.3186321],[-1.2241918,49.3190738],[-1.2239062,49.3193089],[-1.2236418,49.319555],[-1.2233943,49.3198085],[-1.2226206,49.3206824],[-1.2223892,49.3209593],[-1.2214742,49.3221239],[-1.2202827,49.3234736],[-1.2193067,49.3245764],[-1.2178668,49.3259941],[-1.2171081,49.3268636]]}},{"type":"Feature","properties":{"w":"stream"},"geometry":{"type":"LineString","coordinates":[[-1.2339976,49.3004982],[-1.2334081,49.3005276],[-1.2310508,49.2999931],[-1.2286031,49.2992883],[-1.2278566,49.2990785],[-1.22761,49.2989859],[-1.2275811,49.2989442],[-1.2275811,49.2988146],[-1.2275664,49.2987663],[-1.2275218,49.2987261],[-1.2274476,49.2986754],[-1.2273502,49.2986457],[-1.2272591,49.298629],[-1.2271536,49.2986258],[-1.2268685,49.2986562],[-1.2266697,49.2986505],[-1.2265075,49.2986088],[-1.2256,49.2982432],[-1.2255362,49.2982286],[-1.2254503,49.2982365],[-1.2253752,49.2982531],[-1.2253028,49.2982531],[-1.2251365,49.2982015],[-1.2250413,49.2981718],[-1.2249488,49.2981421],[-1.224879,49.2980974],[-1.2248415,49.2980546],[-1.2246899,49.2978779],[-1.2246135,49.2977782],[-1.2244711,49.2976229],[-1.2243877,49.2975079],[-1.2243592,49.2974633],[-1.2243004,49.2974386],[-1.2239325,49.2973199],[-1.2238225,49.2973038],[-1.2237656,49.2972914],[-1.2237049,49.2972704],[-1.2236707,49.2972419],[-1.2236025,49.2972444],[-1.2234925,49.2972555],[-1.2233369,49.2972419],[-1.223079,49.2972358],[-1.222419,49.2972444],[-1.22229,49.2972308],[-1.2222028,49.2972098],[-1.2221553,49.2971751],[-1.2221478,49.2971306],[-1.2221402,49.2970886],[-1.2221136,49.2970601],[-1.2220529,49.2970478],[-1.2219524,49.2970564],[-1.2218595,49.2970478],[-1.2216983,49.2970082],[-1.2216262,49.2969773],[-1.2215902,49.2969327],[-1.221575,49.2968783],[-1.2215541,49.2968251],[-1.2214745,49.2967484],[-1.2213512,49.2966804],[-1.2212108,49.2966359],[-1.2210724,49.2965951],[-1.2209605,49.2965332],[-1.2208334,49.2964528],[-1.2207689,49.2964207],[-1.2207063,49.296344],[-1.22064,49.29625],[-1.2206083,49.2962284],[-1.2205603,49.2961956],[-1.220456,49.2961189],[-1.2203858,49.2960521],[-1.2203175,49.2960125],[-1.2202208,49.2959803],[-1.2201108,49.2959593],[-1.2200368,49.295937],[-1.2199667,49.2958814],[-1.2198927,49.2958294],[-1.2198073,49.2957936],[-1.2197353,49.2957862],[-1.2196291,49.2958022],[-1.2195399,49.2958208],[-1.2194546,49.2958233],[-1.2193579,49.2957973],[-1.219282,49.2957589],[-1.2191947,49.295686],[-1.219098,49.295545],[-1.2189482,49.2953198],[-1.218828,49.2952069],[-1.2187314,49.2951107],[-1.2186214,49.2950635],[-1.2185168,49.2949883],[-1.2184042,49.2949428],[-1.2181896,49.2948868],[-1.2181118,49.2948553],[-1.2180609,49.2947976],[-1.2180018,49.2947416],[-1.217908,49.2947119],[-1.2177846,49.2947189],[-1.21768,49.2947434],[-1.2172186,49.2948658],[-1.2171114,49.2948816],[-1.2169933,49.2948641],[-1.2168512,49.2948203],[-1.21665,49.2947364],[-1.2165132,49.2946979],[-1.2164571,49.2946781],[-1.216414,49.2946629],[-1.2162879,49.2945859],[-1.2161779,49.294488],[-1.2156791,49.2940314],[-1.2149179,49.2933915],[-1.2148913,49.2933445],[-1.2148989,49.293295],[-1.2152631,49.2929363],[-1.2152896,49.2928794],[-1.2152782,49.292825],[-1.2152214,49.2927582],[-1.2151341,49.2926518],[-1.2150962,49.2925627],[-1.2151038,49.2924415],[-1.2151151,49.2923376],[-1.2150772,49.292256],[-1.2150431,49.2921842],[-1.2149938,49.2920556],[-1.2149255,49.2919591],[-1.2147889,49.2918131],[-1.2145993,49.2916325],[-1.2144286,49.2915212],[-1.2143224,49.2914173],[-1.214201,49.2913678],[-1.2139886,49.2912293],[-1.2137401,49.2910153],[-1.2135675,49.2908755],[-1.2133968,49.2907914],[-1.2131768,49.2907122],[-1.2130099,49.2906528],[-1.2128506,49.2906281],[-1.2126192,49.2905613],[-1.2124333,49.2904945],[-1.2122475,49.2903646],[-1.2121223,49.2902817],[-1.2120426,49.2901914],[-1.2120009,49.2900986],[-1.2119592,49.2900096],[-1.2118814,49.289965],[-1.2117107,49.2899316],[-1.2114395,49.2898958],[-1.2112954,49.2898747],[-1.2111531,49.2898253],[-1.2110261,49.2897585],[-1.210899,49.2897189],[-1.2107567,49.2896607],[-1.2106429,49.2895878],[-1.2103717,49.2893948],[-1.2102617,49.2893502],[-1.2102541,49.2892995],[-1.2102446,49.2892191],[-1.2102143,49.2891746],[-1.2101081,49.2891201],[-1.2099658,49.2890707],[-1.2099089,49.2890348],[-1.2098312,49.2889346],[-1.209761,49.2888764],[-1.2096036,49.2887812],[-1.2093988,49.2886575],[-1.2093419,49.2886031],[-1.2093115,49.2885536],[-1.2092603,49.2885078],[-1.2091882,49.2884843],[-1.2090877,49.2884472],[-1.2090403,49.2884064],[-1.2092167,49.2879561]]}},{"type":"Feature","properties":{"w":"stream"},"geometry":{"type":"LineString","coordinates":[[-1.2601663,49.2675272],[-1.2588574,49.2681806],[-1.2578882,49.2685418],[-1.2567989,49.2691837],[-1.2546936,49.2703397],[-1.2521812,49.2717611],[-1.2500846,49.272854],[-1.2486732,49.2733373],[-1.2477626,49.2736659],[-1.2474756,49.274006],[-1.2465708,49.2749784],[-1.2455254,49.2756566],[-1.2439881,49.2765545],[-1.2432005,49.2770894],[-1.2427876,49.2774103],[-1.2422664,49.2782146],[-1.2420878,49.2786616],[-1.2419208,49.2790112],[-1.241956,49.2794964],[-1.2419589,49.2798975],[-1.2419853,49.2800293],[-1.2421668,49.2801745],[-1.2422839,49.280547],[-1.2425153,49.2812098],[-1.2425738,49.281334],[-1.2424479,49.2815556],[-1.2421082,49.2818306],[-1.2420321,49.2820408],[-1.242076,49.2821707],[-1.2422254,49.282398],[-1.2426324,49.2837083],[-1.2429135,49.2849021],[-1.2427905,49.2852707],[-1.2425738,49.28588],[-1.2419618,49.2868121],[-1.2415168,49.2872227],[-1.2411449,49.2875646],[-1.2407642,49.2885368],[-1.2408023,49.2887507],[-1.2404597,49.2891785],[-1.2405241,49.289931],[-1.2407086,49.2902156],[-1.2408169,49.2905135],[-1.2407496,49.2906281],[-1.2402166,49.2908687],[-1.2396105,49.2912946],[-1.2390044,49.2916002],[-1.238369,49.2919917],[-1.2380966,49.2923201],[-1.238451,49.2929752],[-1.2388772,49.2937383],[-1.2390271,49.2940709],[-1.2390295,49.294341],[-1.2387963,49.2946333],[-1.2386506,49.2949832],[-1.2386742,49.2952593],[-1.2390794,49.2966159],[-1.2391019,49.2970001],[-1.2390294,49.2973609],[-1.2388653,49.2976168],[-1.2380281,49.2982149],[-1.2379143,49.2983339],[-1.2380082,49.2984656],[-1.238767,49.2988837],[-1.2389273,49.299067],[-1.238869,49.2992313],[-1.2382155,49.3000456],[-1.2382802,49.3001986],[-1.2387713,49.300505],[-1.2389562,49.3007346],[-1.2390364,49.30109],[-1.2389002,49.3012562],[-1.2376003,49.3011415],[-1.2345001,49.300666],[-1.2343275,49.3006503],[-1.2341697,49.3006286]]}},{"type":"Feature","properties":{"w":"river"},"geometry":{"type":"LineString","coordinates":[[-1.2907526,49.3267136],[-1.2904684,49.3266437],[-1.2900749,49.3265638],[-1.2899392,49.3265517],[-1.2898729,49.3265541],[-1.289709,49.3265865],[-1.2894676,49.3265802],[-1.2893377,49.3265675],[-1.2888544,49.3264131],[-1.2885338,49.3262791],[-1.2884096,49.3262117],[-1.2881239,49.3260616],[-1.2877989,49.325656],[-1.2876814,49.325497],[-1.2871713,49.3247159],[-1.2866582,49.3241894],[-1.2855498,49.3232045],[-1.2851364,49.3227254],[-1.2843185,49.3216928],[-1.284222,49.3215958],[-1.2835448,49.321051],[-1.2830278,49.3205604],[-1.2826428,49.3202603],[-1.2809933,49.3190619],[-1.2798467,49.318347],[-1.2784623,49.3175282]]}},{"type":"Feature","properties":{"w":"river"},"geometry":{"type":"LineString","coordinates":[[-1.2881239,49.3260616],[-1.2781493,49.324703],[-1.2756447,49.3244916],[-1.274064,49.3245442],[-1.2734459,49.3247089],[-1.2729241,49.3248678],[-1.2723911,49.3247603],[-1.2717397,49.3242626],[-1.2714974,49.3239758],[-1.2714499,49.3238194],[-1.2720438,49.3232805],[-1.272,49.3227039],[-1.2719298,49.3225341],[-1.2718102,49.3222451],[-1.2712399,49.321794],[-1.2710218,49.3217001],[-1.2707249,49.3216821],[-1.2693945,49.3221296],[-1.2686564,49.3222709],[-1.2682298,49.3222361],[-1.2681152,49.3219655],[-1.2675406,49.321124],[-1.2669055,49.3208623],[-1.2663046,49.3208429],[-1.2624491,49.3208757],[-1.2594464,49.3208172]]}},{"type":"Feature","properties":{"w":"river"},"geometry":{"type":"LineString","coordinates":[[-1.2339719,49.3044453],[-1.2338984,49.30462],[-1.2336302,49.3052999],[-1.2334873,49.3054986],[-1.2330281,49.3059265],[-1.2328664,49.3061114],[-1.2326958,49.3064072],[-1.2324831,49.306709],[-1.2322138,49.3069914],[-1.2318831,49.3072529],[-1.2311661,49.3077856],[-1.2302598,49.308336],[-1.2295011,49.3087337],[-1.226984,49.3099734],[-1.2266227,49.3101703],[-1.2263043,49.3103777],[-1.2254621,49.3109548],[-1.2249856,49.3113376],[-1.224541,49.311702],[-1.2241341,49.3120681],[-1.2239125,49.3123432],[-1.2236728,49.3127361],[-1.2236048,49.3129559],[-1.2235652,49.3131757],[-1.2235484,49.3133337],[-1.2235641,49.3134917],[-1.2236634,49.3139956],[-1.2247969,49.3163824],[-1.2254406,49.3173475],[-1.2258923,49.3177245]]}},{"type":"Feature","properties":{"w":"river"},"geometry":{"type":"LineString","coordinates":[[-1.2738111,49.3156494],[-1.2736986,49.3154108],[-1.2733475,49.3152699],[-1.2730525,49.3151975],[-1.2726922,49.3153139],[-1.2719004,49.3154328],[-1.2705665,49.3153806],[-1.2692248,49.3154445],[-1.2672475,49.3158066],[-1.2672402,49.316086],[-1.2670663,49.3162278],[-1.2666185,49.31631],[-1.2662548,49.3164376],[-1.2652968,49.317],[-1.2639697,49.3175698],[-1.263245,49.3177983],[-1.2612001,49.3187759],[-1.2602371,49.3199794],[-1.2597144,49.3207131]]}},{"type":"Feature","properties":{"w":"stream"},"geometry":{"type":"LineString","coordinates":[[-1.2506285,49.3080921],[-1.2498928,49.3079557],[-1.2487939,49.3076444]]}},{"type":"Feature","properties":{"w":"stream"},"geometry":{"type":"LineString","coordinates":[[-1.2428225,49.3110686],[-1.2429035,49.3110997],[-1.2429786,49.3111522],[-1.2451887,49.3101904],[-1.2456125,49.3104597],[-1.2463247,49.3108233],[-1.2464494,49.3108094],[-1.2475866,49.3097777]]}},{"type":"Feature","properties":{"w":"stream"},"geometry":{"type":"LineString","coordinates":[[-1.2494602,49.3087848],[-1.2498928,49.3079557],[-1.2501744,49.3074461]]}},{"type":"Feature","properties":{"w":"stream"},"geometry":{"type":"LineString","coordinates":[[-1.2427855,49.3109493],[-1.2428225,49.3110686],[-1.2427587,49.3111242],[-1.2422705,49.3111662],[-1.241954,49.3111312],[-1.2414806,49.3110226],[-1.2412405,49.3110088],[-1.2411104,49.3110331]]}},{"type":"Feature","properties":{"w":"stream"},"geometry":{"type":"LineString","coordinates":[[-1.2417448,49.3131911],[-1.2419205,49.3133098],[-1.2424529,49.3131806],[-1.2435955,49.3128589],[-1.2443506,49.3127188],[-1.2443004,49.3123808],[-1.2439536,49.3118025],[-1.2437189,49.3115684],[-1.2435352,49.3114878],[-1.2433099,49.3114353],[-1.2430323,49.3112256],[-1.2429786,49.3111522]]}},{"type":"Feature","properties":{"w":"stream"},"geometry":{"type":"LineString","coordinates":[[-1.2481003,49.3085989],[-1.2485402,49.308466]]}},{"type":"Feature","properties":{"w":"stream"},"geometry":{"type":"LineString","coordinates":[[-1.2475866,49.3097777],[-1.2476227,49.3096607],[-1.247659,49.3095433],[-1.2486997,49.3092897],[-1.2487668,49.3092531],[-1.2486542,49.3089313],[-1.2486542,49.3087809]]}},{"type":"Feature","properties":{"w":"stream"},"geometry":{"type":"LineString","coordinates":[[-1.2498432,49.3089494],[-1.2496238,49.3088402],[-1.2494602,49.3087848]]}},{"type":"Feature","properties":{"w":"ditch"},"geometry":{"type":"LineString","coordinates":[[-1.2137401,49.2910153],[-1.2138406,49.2909732],[-1.2164029,49.2903757],[-1.216475,49.2903572],[-1.2165281,49.2903621],[-1.2165774,49.290403],[-1.2184873,49.2918605],[-1.2192441,49.2924273],[-1.2202147,49.2931795],[-1.2203676,49.293281]]}},{"type":"Feature","properties":{"w":"ditch"},"geometry":{"type":"LineString","coordinates":[[-1.2161779,49.294488],[-1.2162852,49.2944547],[-1.2166554,49.2943253],[-1.2181735,49.293846],[-1.2202147,49.2931795]]}},{"type":"Feature","properties":{"w":"ditch"},"geometry":{"type":"LineString","coordinates":[[-1.2206083,49.2962284],[-1.2219334,49.2958802],[-1.2241999,49.2952889],[-1.2242663,49.2952864]]}},{"type":"Feature","properties":{"w":"stream"},"geometry":{"type":"LineString","coordinates":[[-1.2485402,49.308466],[-1.2486434,49.3085046],[-1.2486542,49.3087809],[-1.2494602,49.3087848]]}}]}