{"type":"FeatureCollection","features":[{"type":"Feature","properties":{},"geometry":{"type":"LineString","coordinates":[[-1.2334373,49.3015304],[-1.2323012,49.3018604]]}},{"type":"Feature","properties":{},"geometry":{"type":"LineString","coordinates":[[-1.2405491,49.3021358],[-1.2427299,49.3023231],[-1.2429961,49.302355]]}},{"type":"Feature","properties":{},"geometry":{"type":"LineString","coordinates":[[-1.2426949,49.3024647],[-1.2423633,49.3024312]]}},{"type":"Feature","properties":{},"geometry":{"type":"LineString","coordinates":[[-1.2421439,49.3024129],[-1.2415835,49.3023596]]}},{"type":"Feature","properties":{},"geometry":{"type":"LineString","coordinates":[[-1.2402357,49.3022532],[-1.2397458,49.3022256]]}},{"type":"Feature","properties":{},"geometry":{"type":"LineString","coordinates":[[-1.2395684,49.3022165],[-1.2379642,49.3021419],[-1.237656,49.3021556]]}},{"type":"Feature","properties":{},"geometry":{"type":"LineString","coordinates":[[-1.2376793,49.3020216],[-1.2391527,49.3020536]]}},{"type":"Feature","properties":{},"geometry":{"type":"LineString","coordinates":[[-1.2375346,49.3020262],[-1.237252,49.3020307]]}},{"type":"Feature","properties":{},"geometry":{"type":"LineString","coordinates":[[-1.2375066,49.3021617],[-1.2372193,49.3021662]]}},{"type":"Feature","properties":{},"geometry":{"type":"LineString","coordinates":[[-1.2367594,49.3021708],[-1.2364371,49.302183]]}},{"type":"Feature","properties":{},"geometry":{"type":"LineString","coordinates":[[-1.2359542,49.3020689],[-1.235813,49.3020796],[-1.2356717,49.3020902]]}},{"type":"Feature","properties":{},"geometry":{"type":"LineString","coordinates":[[-1.2356292,49.3022515],[-1.2355101,49.3022622]]}},{"type":"Feature","properties":{},"geometry":{"type":"LineString","coordinates":[[-1.2352042,49.3023017],[-1.2348447,49.3023444]]}},{"type":"Feature","properties":{},"geometry":{"type":"LineString","coordinates":[[-1.2335122,49.3021219],[-1.233767,49.3020861]]}},{"type":"Feature","properties":{},"geometry":{"type":"LineString","coordinates":[[-1.2453683,49.3041221],[-1.2451256,49.3038373],[-1.2450736,49.3037647]]}},{"type":"Feature","properties":{},"geometry":{"type":"LineString","coordinates":[[-1.2449415,49.3035964],[-1.2446799,49.3032693]]}},{"type":"Feature","properties":{},"geometry":{"type":"LineString","coordinates":[[-1.2441637,49.3036082],[-1.243351,49.3035557]]}},{"type":"Feature","properties":{},"geometry":{"type":"LineString","coordinates":[[-1.2474856,49.3029424],[-1.2472644,49.3028847]]}},{"type":"Feature","properties":{},"geometry":{"type":"LineString","coordinates":[[-1.2567809,49.3114096],[-1.2572878,49.3119866]]}},{"type":"Feature","properties":{},"geometry":{"type":"LineString","coordinates":[[-1.257143,49.3120303],[-1.2564858,49.3112924]]}},{"type":"Feature","properties":{},"geometry":{"type":"LineString","coordinates":[[-1.2591368,49.3147046],[-1.2588041,49.3147438],[-1.2580786,49.3146861]]}},{"type":"Feature","properties":{},"geometry":{"type":"LineString","coordinates":[[-1.2580609,49.3143169],[-1.2570097,49.314783],[-1.2562205,49.3152237],[-1.2547376,49.3159181],[-1.2537041,49.3162757],[-1.2522495,49.3166749],[-1.248636,49.3176969],[-1.2473548,49.3179692],[-1.2460595,49.3182875],[-1.2454295,49.3185228]]}},{"type":"Feature","properties":{},"geometry":{"type":"LineString","coordinates":[[-1.2438821,49.3194308],[-1.2448865,49.3187881]]}},{"type":"Feature","properties":{},"geometry":{"type":"LineString","coordinates":[[-1.2437711,49.3199369],[-1.2450775,49.3189929],[-1.2458724,49.3186274],[-1.2471233,49.3182538]]}},{"type":"Feature","properties":{},"geometry":{"type":"LineString","coordinates":[[-1.2485837,49.3180128],[-1.248935,49.3179245]]}},{"type":"Feature","properties":{},"geometry":{"type":"LineString","coordinates":[[-1.2509192,49.3173742],[-1.2538708,49.3165186],[-1.2551833,49.3160847]]}},{"type":"Feature","properties":{},"geometry":{"type":"LineString","coordinates":[[-1.2576856,49.3147723],[-1.2558457,49.3157465]]}},{"type":"Feature","properties":{},"geometry":{"type":"LineString","coordinates":[[-1.2602612,49.3155949],[-1.2595585,49.3149269]]}},{"type":"Feature","properties":{},"geometry":{"type":"LineString","coordinates":[[-1.2603846,49.3157278],[-1.2601379,49.3157697],[-1.2600091,49.3157243],[-1.2595049,49.3151787],[-1.25936,49.3151298],[-1.2588075,49.3151403],[-1.2581262,49.3150843],[-1.2578312,49.3151228],[-1.2573215,49.3153151]]}},{"type":"Feature","properties":{},"geometry":{"type":"LineString","coordinates":[[-1.260567,49.3155074],[-1.2599126,49.3148255]]}},{"type":"Feature","properties":{},"geometry":{"type":"LineString","coordinates":[[-1.2460752,49.3023352],[-1.2459958,49.3022804],[-1.2456268,49.3019744]]}},{"type":"Feature","properties":{},"geometry":{"type":"LineString","coordinates":[[-1.24629,49.3024022],[-1.2476116,49.3027585]]}},{"type":"Feature","properties":{},"geometry":{"type":"LineString","coordinates":[[-1.250981,49.3036203],[-1.2509903,49.3035335],[-1.2510931,49.3033934],[-1.2511655,49.3033218]]}},{"type":"Feature","properties":{},"geometry":{"type":"LineString","coordinates":[[-1.2505724,49.3043891],[-1.2507779,49.3042034],[-1.2508946,49.3040313],[-1.2509506,49.3039187]]}},{"type":"Feature","properties":{},"geometry":{"type":"LineString","coordinates":[[-1.2503529,49.3042597],[-1.2504766,49.3042277],[-1.2506354,49.3040922],[-1.2507031,49.3039857],[-1.2507452,49.3038608]]}}]}