{"type":"FeatureCollection","features":[{"type":"Feature","properties":{"t":"cemiterio"},"geometry":{"type":"Polygon","coordinates":[[[-1.2481501,49.3077877],[-1.2471634,49.3078959],[-1.2471095,49.3076359],[-1.24707,49.3074452],[-1.2463068,49.3075158],[-1.2459896,49.3067492],[-1.2479472,49.3065961],[-1.2480336,49.3068473],[-1.2481501,49.3077877]]]}},{"type":"Feature","properties":{"t":"casario"},"geometry":{"type":"Polygon","coordinates":[[[-1.2448128,49.3141563],[-1.2463794,49.3141487],[-1.2467106,49.3140923],[-1.2468764,49.313822],[-1.2455126,49.3134519],[-1.2453984,49.3132763],[-1.2448889,49.3129823],[-1.2442447,49.3131064],[-1.2446957,49.3140017],[-1.2448128,49.3141563]]]}},{"type":"Feature","properties":{"t":"industria"},"geometry":{"type":"Polygon","coordinates":[[[-1.2116608,49.3019075],[-1.2117681,49.3029359],[-1.2139007,49.3030171],[-1.2141558,49.3030268],[-1.2140107,49.3033629],[-1.2139983,49.3037806],[-1.2116339,49.3040858],[-1.2113341,49.3045729],[-1.2116801,49.3050118],[-1.212444,49.3054403],[-1.2181195,49.3047338],[-1.2190722,49.304767],[-1.2190743,49.3049857],[-1.2202438,49.3049157],[-1.2212736,49.3049128],[-1.2214685,49.3049122],[-1.221782,49.3031076],[-1.2218434,49.3027463],[-1.22188,49.302535],[-1.2218532,49.3022363],[-1.2211129,49.3022643],[-1.22107,49.3019634],[-1.2184521,49.3018795],[-1.2184655,49.3022496],[-1.2165472,49.3022307],[-1.2165132,49.3020287],[-1.214064,49.3020964],[-1.2116608,49.3019075]]]}},{"type":"Feature","properties":{"t":"cemiterio"},"geometry":{"type":"Polygon","coordinates":[[[-1.2302401,49.3037647],[-1.230098,49.303519],[-1.2301057,49.3034908],[-1.230097,49.303489],[-1.229919,49.303468],[-1.2296117,49.303431],[-1.2292987,49.303395],[-1.2292162,49.3033859],[-1.2289499,49.3035534],[-1.229058,49.3035745],[-1.2300122,49.3037299],[-1.2302401,49.3037647]]]}},{"type":"Feature","properties":{"t":"industria"},"geometry":{"type":"Polygon","coordinates":[[[-1.2322727,49.3042457],[-1.2322218,49.3044946],[-1.2320767,49.3052051],[-1.2321365,49.3057558],[-1.2318396,49.3057569],[-1.2306082,49.3054825],[-1.230348,49.3050255],[-1.2304227,49.3047136],[-1.2305311,49.304214],[-1.2302657,49.303595],[-1.2304152,49.3035512],[-1.2321082,49.3034829],[-1.2322465,49.3036828],[-1.2322727,49.3042457]]]}},{"type":"Feature","properties":{"t":"comercio"},"geometry":{"type":"Polygon","coordinates":[[[-1.2316037,49.3026397],[-1.2325459,49.3025404],[-1.2334708,49.3023784],[-1.2334209,49.3021526],[-1.2333913,49.3020186],[-1.2328598,49.3021626],[-1.232234,49.3018546],[-1.2336505,49.3014444],[-1.2333704,49.301055],[-1.2332653,49.3010253],[-1.232832,49.3011589],[-1.2325219,49.3008584],[-1.2318122,49.3010753],[-1.2310612,49.3003953],[-1.2302399,49.3010896],[-1.2295844,49.3013188],[-1.2290175,49.3017112],[-1.2292753,49.301838],[-1.2304302,49.3020402],[-1.2309272,49.3023107],[-1.231215,49.3025739],[-1.2316037,49.3026397]]]}},{"type":"Feature","properties":{"t":"comercio"},"geometry":{"type":"Polygon","coordinates":[[[-1.2603312,49.3018926],[-1.2630507,49.301851],[-1.2636577,49.3019667],[-1.2636546,49.3022771],[-1.2629013,49.3038123],[-1.2622256,49.303671],[-1.2611964,49.3033193],[-1.260528,49.3033352],[-1.2603312,49.3018926]]]}},{"type":"Feature","properties":{"t":"militar"},"geometry":{"type":"Polygon","coordinates":[[[-1.2621172,49.2997389],[-1.2611478,49.2997068],[-1.261113,49.2986991],[-1.2610687,49.2985164],[-1.2617205,49.2985129],[-1.2619391,49.2983651],[-1.2620393,49.2983633],[-1.2621172,49.2997389]]]}},{"type":"Feature","properties":{"t":"cemiterio"},"geometry":{"type":"Polygon","coordinates":[[[-1.221351,49.3073935],[-1.2224046,49.3076776],[-1.2224313,49.3076314],[-1.2226522,49.3072491],[-1.2227058,49.3071803],[-1.2227864,49.3068286],[-1.2220319,49.3066097],[-1.2218807,49.3066136],[-1.2216014,49.306852],[-1.2216484,49.3068729],[-1.2216807,49.3068812],[-1.221607,49.3069957],[-1.2215939,49.3070161],[-1.2213722,49.3073606],[-1.2213665,49.3073695],[-1.221351,49.3073935]]]}},{"type":"Feature","properties":{"t":"casario"},"geometry":{"type":"Polygon","coordinates":[[[-1.2398019,49.2981797],[-1.2407066,49.2981399],[-1.2409462,49.2963901],[-1.2398348,49.2964115],[-1.2397263,49.2970937],[-1.2398019,49.2981797]]]}},{"type":"Feature","properties":{"t":"industria"},"geometry":{"type":"Polygon","coordinates":[[[-1.261856,49.3102725],[-1.2610245,49.3100697],[-1.2594661,49.3095573],[-1.2590396,49.3093789],[-1.2578326,49.3089155],[-1.2577683,49.308884],[-1.2588412,49.30752],[-1.2595454,49.306679],[-1.2614778,49.3073941],[-1.2631166,49.3080026],[-1.2629637,49.3087214],[-1.2628752,49.3090834],[-1.2621403,49.3102498],[-1.261856,49.3102725]]]}},{"type":"Feature","properties":{"t":"industria"},"geometry":{"type":"Polygon","coordinates":[[[-1.2532356,49.3128482],[-1.2541312,49.3134918],[-1.2542814,49.3136317],[-1.2524039,49.314422],[-1.2522966,49.3145864],[-1.2521786,49.3146668],[-1.2532614,49.3158106],[-1.2536063,49.3162626],[-1.2549949,49.3157264],[-1.2561321,49.3151949],[-1.2568657,49.3148215],[-1.2579292,49.3143189],[-1.2579203,49.3143091],[-1.2577121,49.3140795],[-1.257094,49.313398],[-1.2573794,49.3132819],[-1.2567356,49.3126175],[-1.2556145,49.3130721],[-1.2554401,49.3131386],[-1.2541232,49.3116138],[-1.2542576,49.311567],[-1.2550157,49.3112623],[-1.2548447,49.3108688],[-1.2537801,49.3102354],[-1.2533059,49.3106753],[-1.2523629,49.311336],[-1.2519369,49.3115948],[-1.2525232,49.3120694],[-1.2532356,49.3128482]]]}},{"type":"Feature","properties":{"t":"comercio"},"geometry":{"type":"Polygon","coordinates":[[[-1.2536508,49.3096258],[-1.2535948,49.3092198],[-1.2541822,49.3087144],[-1.2546515,49.3093772],[-1.2547793,49.309517],[-1.255353,49.3101448],[-1.2558666,49.3107045],[-1.2567759,49.3117362],[-1.2571165,49.3121873],[-1.2570494,49.3123185],[-1.257197,49.3124688],[-1.2574317,49.3124688],[-1.2579993,49.313044],[-1.2580526,49.3130678],[-1.2581196,49.3131501],[-1.2583386,49.3134413],[-1.2583622,49.3134689],[-1.2584728,49.3135983],[-1.2585863,49.3137313],[-1.2586883,49.3138817],[-1.2584013,49.3142244],[-1.2579292,49.3143189],[-1.2579203,49.3143091],[-1.2577121,49.3140795],[-1.257094,49.313398],[-1.2573794,49.3132819],[-1.2567356,49.3126175],[-1.2556145,49.3130721],[-1.2551557,49.3125884],[-1.2542576,49.311567],[-1.2550157,49.3112623],[-1.2548447,49.3108688],[-1.2537801,49.3102354],[-1.2533714,49.3099765],[-1.2536508,49.3096258]]]}},{"type":"Feature","properties":{"t":"comercio"},"geometry":{"type":"Polygon","coordinates":[[[-1.2568433,49.3113717],[-1.2575483,49.3121331],[-1.257669,49.3121156],[-1.2579051,49.3120159],[-1.2584925,49.3114651],[-1.2577978,49.3110822],[-1.258325,49.310632],[-1.2581009,49.3104999],[-1.2583101,49.31029],[-1.2590906,49.3095363],[-1.2578729,49.3090799],[-1.25773,49.3090483],[-1.2575805,49.3090152],[-1.2569824,49.308968],[-1.2566391,49.3089837],[-1.2561348,49.3090414],[-1.2557754,49.3091236],[-1.2556016,49.3091794],[-1.2552298,49.3093245],[-1.2551507,49.3094123],[-1.2554962,49.3099373],[-1.2558129,49.3102918],[-1.2562931,49.3107289],[-1.2564827,49.3109469],[-1.2565924,49.3108724],[-1.2567465,49.3108493],[-1.2568727,49.3109093],[-1.2569226,49.3110019],[-1.2568806,49.3110881],[-1.2568169,49.3112113],[-1.2568433,49.3113717]]]}},{"type":"Feature","properties":{"t":"comercio"},"geometry":{"type":"Polygon","coordinates":[[[-1.2253708,49.3028665],[-1.2253671,49.3029151],[-1.2253451,49.3033299],[-1.2241664,49.303277],[-1.2241872,49.3028177],[-1.2253708,49.3028665]]]}},{"type":"Feature","properties":{"t":"casario"},"geometry":{"type":"Polygon","coordinates":[[[-1.2509367,49.3038684],[-1.254319,49.304902],[-1.2562072,49.3055141],[-1.2595454,49.306679],[-1.2588412,49.30752],[-1.2577683,49.308884],[-1.2578326,49.3089155],[-1.25773,49.3090483],[-1.2575805,49.3090152],[-1.2569824,49.308968],[-1.2566391,49.3089837],[-1.2561348,49.3090414],[-1.2557754,49.3091236],[-1.2552298,49.3093245],[-1.2551507,49.3094123],[-1.2547793,49.309517],[-1.2546515,49.3093772],[-1.2541822,49.3087144],[-1.2535948,49.3092198],[-1.2536508,49.3096258],[-1.2524948,49.3093725],[-1.2522325,49.3090158],[-1.2526654,49.3083513],[-1.2521907,49.3080788],[-1.2517481,49.3082323],[-1.2509772,49.3079739],[-1.2516065,49.307352],[-1.2509507,49.3070287],[-1.2504942,49.3068762],[-1.2505454,49.3067168],[-1.2485176,49.3061243],[-1.2482285,49.3064174],[-1.2482258,49.3065462],[-1.2479866,49.3065689],[-1.248188,49.3074571],[-1.2481735,49.3077838],[-1.2480638,49.3081255],[-1.2483661,49.3081802],[-1.2486346,49.3085328],[-1.2486536,49.3090269],[-1.248688,49.3092543],[-1.2474067,49.3095796],[-1.2472656,49.3093855],[-1.2469701,49.3097549],[-1.2466978,49.3098643],[-1.2461224,49.3099463],[-1.245564,49.310431],[-1.2451976,49.310146],[-1.2449141,49.310298],[-1.244661,49.3100283],[-1.2445273,49.3100806],[-1.2442897,49.309858],[-1.2437591,49.3100809],[-1.2435781,49.309671],[-1.2445056,49.3094633],[-1.2452416,49.3090954],[-1.2435598,49.3087715],[-1.2434689,49.3088979],[-1.2432388,49.3089221],[-1.2429985,49.3088904],[-1.2428187,49.3091001],[-1.2418674,49.308907],[-1.2407121,49.3098721],[-1.2405576,49.3098638],[-1.2393791,49.3096203],[-1.239489,49.310318],[-1.2392344,49.3103304],[-1.2362982,49.3104902],[-1.2359019,49.3108077],[-1.2352382,49.3112805],[-1.2350082,49.3111086],[-1.2368715,49.3094933],[-1.2359584,49.3090668],[-1.2354901,49.3090783],[-1.2353736,49.3088581],[-1.2348794,49.3083437],[-1.2350421,49.3082106],[-1.2352427,49.3080338],[-1.2353138,49.3079595],[-1.2354355,49.3080915],[-1.2356311,49.3082074],[-1.235982,49.3081876],[-1.2361297,49.3082178],[-1.2362466,49.3081196],[-1.2363568,49.3079353],[-1.2361032,49.3078422],[-1.2362917,49.3075389],[-1.2358534,49.3069014],[-1.2356609,49.3067678],[-1.2356079,49.3066832],[-1.2354286,49.3066525],[-1.2340222,49.3060562],[-1.2339877,49.305987],[-1.2340086,49.3058378],[-1.2341015,49.3055455],[-1.2340773,49.3054381],[-1.2344058,49.304678],[-1.2347179,49.3040975],[-1.2347715,49.3032511],[-1.2348359,49.3029293],[-1.2348252,49.3028313],[-1.2346535,49.3024186],[-1.2344604,49.3022087],[-1.2343687,49.3020065],[-1.2343424,49.3017609],[-1.2343102,49.3013971],[-1.2343363,49.3009029],[-1.2352216,49.3010665],[-1.2362838,49.3012343],[-1.2381536,49.3014385],[-1.2391357,49.30161],[-1.2390786,49.301892],[-1.2405592,49.3021037],[-1.2422839,49.3022663],[-1.2423281,49.3020949],[-1.2431087,49.3022025],[-1.243165,49.3020398],[-1.24357,49.302108],[-1.2437637,49.3021413],[-1.2437427,49.3021859],[-1.2443636,49.3023026],[-1.2444324,49.3023159],[-1.2444613,49.3023215],[-1.2444895,49.302327],[-1.2446196,49.3023522],[-1.2446902,49.3023666],[-1.2446836,49.3023806],[-1.2448298,49.3024098],[-1.2449155,49.302427],[-1.2449969,49.3024432],[-1.2451429,49.3024725],[-1.2451472,49.3024635],[-1.2451901,49.3024723],[-1.2451981,49.3024552],[-1.2452226,49.3024596],[-1.245239,49.3024222],[-1.2453062,49.3024355],[-1.2453986,49.3024546],[-1.2454283,49.302461],[-1.2454693,49.3024694],[-1.246566,49.3027079],[-1.2472309,49.3028402],[-1.2478307,49.3029974],[-1.2507704,49.3038386],[-1.2509367,49.3038684]]]}},{"type":"Feature","properties":{"t":"casario"},"geometry":{"type":"Polygon","coordinates":[[[-1.2436277,49.3019804],[-1.2432106,49.3019122],[-1.2421028,49.3016472],[-1.2414564,49.30153],[-1.240926,49.3014783],[-1.2410071,49.3013969],[-1.2415972,49.3009055],[-1.2419957,49.3006714],[-1.2418059,49.3004971],[-1.2421811,49.3002595],[-1.2429116,49.2996273],[-1.2437975,49.2991664],[-1.2441069,49.2988186],[-1.2446446,49.2985731],[-1.2441594,49.2975247],[-1.246191,49.2971745],[-1.2465756,49.2963597],[-1.2469938,49.2954949],[-1.2493432,49.2955536],[-1.2493966,49.2958999],[-1.2494487,49.2959235],[-1.2498779,49.2961179],[-1.2509239,49.295224],[-1.251846,49.2944198],[-1.252432,49.2938451],[-1.2524686,49.2937406],[-1.2522792,49.2936997],[-1.2511945,49.2932387],[-1.2514543,49.2929219],[-1.2518652,49.2930316],[-1.2522015,49.2927605],[-1.2530981,49.293129],[-1.2533036,49.2931595],[-1.2539828,49.2927814],[-1.2543912,49.2923769],[-1.2563297,49.2908417],[-1.2574933,49.2903086],[-1.2594762,49.2911036],[-1.2590257,49.2915429],[-1.2598658,49.2919314],[-1.2592078,49.2924477],[-1.2603118,49.2932151],[-1.2607043,49.2930605],[-1.2615797,49.2929427],[-1.2621331,49.292825],[-1.2619281,49.2932361],[-1.2618163,49.2938239],[-1.2617702,49.2947602],[-1.2617659,49.2953373],[-1.2635919,49.2951076],[-1.2637188,49.2952518],[-1.2617096,49.2962123],[-1.2617946,49.2967902],[-1.2611812,49.2968689],[-1.2609473,49.2973193],[-1.2609473,49.298089],[-1.2610347,49.2981897],[-1.2620263,49.2981346],[-1.2620393,49.2983633],[-1.2619391,49.2983651],[-1.2617205,49.2985129],[-1.2610687,49.2985164],[-1.261113,49.2986991],[-1.2611478,49.2997068],[-1.2610953,49.2997051],[-1.2610546,49.3002393],[-1.2609199,49.300983],[-1.2607485,49.3017056],[-1.2597328,49.30176],[-1.2584866,49.3018508],[-1.2576005,49.3020122],[-1.2568758,49.3020654],[-1.2557472,49.3022251],[-1.2550228,49.3023322],[-1.2542976,49.3024393],[-1.2539327,49.3025199],[-1.2535133,49.3026853],[-1.2529661,49.3029075],[-1.2535423,49.3037893],[-1.2528781,49.3039127],[-1.2526806,49.3042486],[-1.2509394,49.303725],[-1.2507811,49.3037057],[-1.2490565,49.3032248],[-1.247541,49.302819],[-1.2461607,49.3024735],[-1.2459426,49.3024179],[-1.2455009,49.302317],[-1.2452016,49.3022482],[-1.2447012,49.3021331],[-1.2440611,49.30204],[-1.2440174,49.3020338],[-1.2438208,49.3020197],[-1.2436277,49.3019804]]]}},{"type":"Feature","properties":{"t":"casario"},"geometry":{"type":"Polygon","coordinates":[[[-1.2649385,49.3221011],[-1.2654796,49.3229035],[-1.2656285,49.3228581],[-1.2657291,49.3229909],[-1.2656473,49.3230084],[-1.2656902,49.323074],[-1.265839,49.3231317],[-1.2659463,49.3232068],[-1.266287,49.3231789],[-1.2664492,49.323143],[-1.2663768,49.3229752],[-1.2665378,49.3229498],[-1.2665203,49.3228362],[-1.2667805,49.3226893],[-1.2666893,49.3225862],[-1.2667818,49.3225407],[-1.2670139,49.3224297],[-1.2669522,49.3222636],[-1.2668408,49.3220128],[-1.2667979,49.3215897],[-1.2659584,49.3212654],[-1.2661435,49.3209454],[-1.2651296,49.3209821],[-1.2648037,49.3210678],[-1.2654072,49.3218388],[-1.2648922,49.3220259],[-1.2649385,49.3221011]]]}},{"type":"Feature","properties":{"t":"industria"},"geometry":{"type":"Polygon","coordinates":[[[-1.2631354,49.3037757],[-1.2629506,49.3042627],[-1.2642928,49.3041749],[-1.2647128,49.3038573],[-1.2651503,49.303844],[-1.2650755,49.3036056],[-1.2653796,49.3035152],[-1.2675042,49.303302],[-1.2669817,49.3015978],[-1.2657782,49.3013198],[-1.2653509,49.3011076],[-1.2650196,49.3010927],[-1.2648761,49.3011505],[-1.2647849,49.301223],[-1.2647675,49.3013656],[-1.2647742,49.3016314],[-1.2644792,49.3017215],[-1.2643987,49.3019192],[-1.2641828,49.3020145],[-1.2638609,49.3023975],[-1.2631354,49.3037757]]]}},{"type":"Feature","properties":{"t":"industria"},"geometry":{"type":"Polygon","coordinates":[[[-1.2630482,49.3068896],[-1.2628859,49.3060895],[-1.2622857,49.3059363],[-1.2620885,49.306677],[-1.2630482,49.3068896]]]}},{"type":"Feature","properties":{"t":"industria"},"geometry":{"type":"Polygon","coordinates":[[[-1.2472656,49.3093855],[-1.2469701,49.3097549],[-1.2466978,49.3098643],[-1.2461224,49.3099463],[-1.245564,49.310431],[-1.2451976,49.310146],[-1.2449141,49.310298],[-1.244661,49.3100283],[-1.2445273,49.3100806],[-1.2442897,49.309858],[-1.2437591,49.3100809],[-1.2435781,49.309671],[-1.2445056,49.3094633],[-1.2452416,49.3090954],[-1.2457573,49.3090519],[-1.247187,49.3092897],[-1.2472656,49.3093855]]]}},{"type":"Feature","properties":{"t":"comercio"},"geometry":{"type":"Polygon","coordinates":[[[-1.2609911,49.3016778],[-1.2614657,49.30169],[-1.2622905,49.3017355],[-1.2625683,49.3017253],[-1.2627237,49.3017066],[-1.2636116,49.3015161],[-1.2627789,49.3006748],[-1.261179,49.3007026],[-1.2610375,49.301371],[-1.2609521,49.3015379],[-1.2609911,49.3016778]]]}},{"type":"Feature","properties":{"t":"industria"},"geometry":{"type":"Polygon","coordinates":[[[-1.2703653,49.2967681],[-1.2706107,49.2967147],[-1.2713939,49.2973462],[-1.2718767,49.2978867],[-1.2723085,49.2985129],[-1.2718935,49.2992952],[-1.2711538,49.2992624],[-1.2706965,49.2992895],[-1.2703331,49.2993446],[-1.2687881,49.3000162],[-1.2685132,49.3001404],[-1.2680143,49.3004342],[-1.2677635,49.3005182],[-1.2666866,49.3007464],[-1.2666464,49.3006494],[-1.2666491,49.2999524],[-1.266692,49.2994154],[-1.2666544,49.2986458],[-1.2668864,49.2984009],[-1.26658,49.2982772],[-1.2668502,49.2979969],[-1.2670031,49.2979426],[-1.266873,49.2977564],[-1.2668516,49.2976462],[-1.2687385,49.2969701],[-1.2690604,49.2969141],[-1.2703653,49.2967681]]]}},{"type":"Feature","properties":{"t":"industria"},"geometry":{"type":"Polygon","coordinates":[[[-1.2356079,49.3066832],[-1.2363683,49.3065031],[-1.2366566,49.306183],[-1.2376544,49.3060038],[-1.237708,49.3057231],[-1.2371213,49.3054065],[-1.2345082,49.3045985],[-1.2343378,49.3045811],[-1.234138,49.3046335],[-1.2340213,49.3047367],[-1.2334313,49.3057196],[-1.2356079,49.3066832]]]}}]}