{"type":"FeatureCollection","features":[{"type":"Feature","properties":{"a":"apron"},"geometry":{"type":"Polygon","coordinates":[[[-157.9264842,21.3293531],[-157.9262235,21.3290674],[-157.9237015,21.3290652],[-157.9233998,21.3293016],[-157.9230658,21.3312629],[-157.9231188,21.3312701],[-157.9231104,21.331326],[-157.9229321,21.3312988],[-157.9229186,21.3313769],[-157.9228764,21.3314844],[-157.92281,21.3315799],[-157.9226886,21.331693],[-157.9225324,21.3318135],[-157.921945,21.3317261],[-157.9219125,21.3317439],[-157.9217804,21.331723],[-157.9217891,21.3316761],[-157.9217321,21.3316411],[-157.9216741,21.3316158],[-157.9216272,21.3316027],[-157.9215765,21.3315974],[-157.9215192,21.3315965],[-157.9214592,21.3316018],[-157.9214045,21.3316146],[-157.9213941,21.3316642],[-157.9212979,21.3316483],[-157.9212825,21.3317354],[-157.9210186,21.331697],[-157.9210334,21.3316037],[-157.9209905,21.3315734],[-157.9209137,21.3315627],[-157.9209221,21.3314694],[-157.9209238,21.3313216],[-157.9209282,21.3312191],[-157.9209786,21.330957],[-157.9204465,21.3308802],[-157.9202978,21.3305513],[-157.9203213,21.3305431],[-157.9202995,21.3304968],[-157.9203226,21.3304862],[-157.9205456,21.3291989],[-157.9204923,21.3291608],[-157.920442,21.3291364],[-157.9203779,21.3291133],[-157.9203169,21.3290999],[-157.9202653,21.3290958],[-157.9201915,21.3290977],[-157.9201312,21.3291074],[-157.9200691,21.3291249],[-157.9198497,21.3304178],[-157.919869,21.3304347],[-157.9198338,21.3304675],[-157.9198686,21.330499],[-157.9198267,21.3305387],[-157.9197295,21.330529],[-157.9195059,21.3307843],[-157.9190653,21.3307195],[-157.9190204,21.3309675],[-157.9189959,21.3310234],[-157.9189631,21.3310896],[-157.9189443,21.3311658],[-157.9189322,21.3312386],[-157.9188548,21.3312295],[-157.9188323,21.3312345],[-157.9188119,21.3312492],[-157.9187988,21.3312729],[-157.9187837,21.331361],[-157.9185192,21.3313226],[-157.9185339,21.3312336],[-157.918439,21.3312195],[-157.9184464,21.3311736],[-157.9184182,21.3311549],[-157.9183753,21.3311318],[-157.918319,21.3311121],[-157.9182637,21.3310993],[-157.9182198,21.3310962],[-157.9181561,21.3310987],[-157.9181063,21.3311054],[-157.9180633,21.3311183],[-157.9180555,21.3311636],[-157.9178657,21.3311374],[-157.9178684,21.3311211],[-157.9178607,21.3311037],[-157.9178305,21.3310768],[-157.917798,21.3310674],[-157.9172074,21.3309769],[-157.9171779,21.3311502],[-157.9169769,21.3306599],[-157.9169817,21.3304417],[-157.917119,21.3296369],[-157.9170032,21.329286],[-157.9166882,21.3290657],[-157.9152717,21.3290658],[-157.9152717,21.3290996],[-157.9147622,21.3291005],[-157.9147624,21.3291111],[-157.9139406,21.3291108],[-157.9135443,21.3293947],[-157.9135138,21.3293816],[-157.913484,21.3293613],[-157.9106158,21.3313916],[-157.9101559,21.3308091],[-157.9138242,21.3282199],[-157.9181962,21.3282222],[-157.9231708,21.3282232],[-157.9239915,21.3281926],[-157.9274713,21.3281906],[-157.9274724,21.3284611],[-157.9274677,21.328558],[-157.9274697,21.3287823],[-157.9274623,21.3288041],[-157.9274449,21.3288288],[-157.9272598,21.3290334],[-157.927061,21.3291708],[-157.9269326,21.329281],[-157.9266553,21.3294971],[-157.926605,21.3295231],[-157.9264515,21.329534],[-157.9264842,21.3293531]]]}},{"type":"Feature","properties":{"a":"apron"},"geometry":{"type":"Polygon","coordinates":[[[-157.9280932,21.3309741],[-157.9280641,21.3311496],[-157.9280592,21.3311776],[-157.9280447,21.3311754],[-157.9280106,21.3313709],[-157.9280292,21.3313738],[-157.9278976,21.3321289],[-157.927879,21.3321261],[-157.9278427,21.3323339],[-157.9278613,21.3323367],[-157.9278588,21.3323514],[-157.9278404,21.3324678],[-157.9270163,21.332347],[-157.9269615,21.3327328],[-157.9272729,21.3327708],[-157.9271419,21.3337337],[-157.9271295,21.3337669],[-157.9271163,21.3337877],[-157.9270871,21.3338144],[-157.9270533,21.3338243],[-157.9270206,21.3338191],[-157.9269874,21.3337957],[-157.9269524,21.3337685],[-157.9269194,21.3337567],[-157.9258866,21.3336503],[-157.9258136,21.3342262],[-157.9258241,21.3342689],[-157.9258523,21.3343046],[-157.9258876,21.3343229],[-157.9271787,21.3344861],[-157.9271344,21.3347164],[-157.9270171,21.3349922],[-157.9269644,21.3353116],[-157.9265117,21.3352396],[-157.9264737,21.3354584],[-157.9267245,21.3360274],[-157.9265578,21.3369884],[-157.9265256,21.3371301],[-157.9264813,21.3372671],[-157.9264047,21.3374284],[-157.9263242,21.3375541],[-157.9260291,21.3378843],[-157.9259193,21.3379622],[-157.9257471,21.3380607],[-157.92559,21.3381301],[-157.9254117,21.3381817],[-157.9252768,21.3382051],[-157.9251237,21.3382258],[-157.9249454,21.3382276],[-157.9247783,21.3382126],[-157.9230878,21.337957],[-157.9230576,21.3379467],[-157.9230329,21.3379331],[-157.9230123,21.3379096],[-157.9230007,21.3378801],[-157.9230002,21.3378534],[-157.9230888,21.3373262],[-157.9232369,21.3366493],[-157.9233041,21.3363826],[-157.9248099,21.3366042],[-157.9249,21.3360897],[-157.9237595,21.3359203],[-157.9238721,21.3352607],[-157.9239057,21.3352649],[-157.9243552,21.3326021],[-157.9248587,21.3321826],[-157.9246653,21.3319793],[-157.924436,21.3321695],[-157.9242036,21.3321358],[-157.9241789,21.3322573],[-157.9235501,21.3321718],[-157.9236905,21.3317186],[-157.9237017,21.3314816],[-157.9238046,21.3314975],[-157.923999,21.3313418],[-157.9251695,21.3312248],[-157.9252106,21.3309851],[-157.925238,21.3309893],[-157.9255502,21.3309232],[-157.9255563,21.3308852],[-157.9255759,21.3308453],[-157.9256316,21.330742],[-157.9258006,21.330835],[-157.9258647,21.3307229],[-157.9259357,21.3306187],[-157.9260268,21.3305055],[-157.9261101,21.3304077],[-157.9267816,21.3297865],[-157.926834,21.3297381],[-157.9273242,21.3292871],[-157.9273796,21.3292082],[-157.9274361,21.329142],[-157.9276776,21.3288681],[-157.9277258,21.3288004],[-157.9277586,21.3287471],[-157.927789,21.3286726],[-157.9274724,21.3284611],[-157.9274738,21.3282753],[-157.9274713,21.3281906],[-157.9277515,21.3279502],[-157.92914,21.32795],[-157.9294467,21.3280544],[-157.9297594,21.3280563],[-157.9297478,21.3291393],[-157.9293415,21.3291398],[-157.929278,21.3292679],[-157.9292186,21.3293607],[-157.9291582,21.3294377],[-157.9290665,21.3295324],[-157.9286734,21.3298978],[-157.9284826,21.3310305],[-157.9280932,21.3309741]]]}},{"type":"Feature","properties":{"a":"apron"},"geometry":{"type":"Polygon","coordinates":[[[-157.9584447,21.3293389],[-157.953871,21.3336333],[-157.9552069,21.3348816],[-157.9571262,21.3331018],[-157.9575911,21.333512],[-157.9594496,21.3317682],[-157.960246,21.3325233],[-157.9604194,21.3325453],[-157.9607161,21.3322684],[-157.9607666,21.3320794],[-157.9595755,21.3309572],[-157.9598767,21.330678],[-157.9584447,21.3293389]]]}},{"type":"Feature","properties":{"a":"apron"},"geometry":{"type":"Polygon","coordinates":[[[-157.9338211,21.328837],[-157.9338216,21.3279525],[-157.9304936,21.3279508],[-157.9304931,21.32883],[-157.9314863,21.3288305],[-157.9314862,21.3290145],[-157.9322218,21.3290148],[-157.9322219,21.3288362],[-157.9338211,21.328837]]]}},{"type":"Feature","properties":{"a":"helipad"},"geometry":{"type":"Polygon","coordinates":[[[-157.9481617,21.3584864],[-157.9479879,21.3580882],[-157.9479778,21.3580679],[-157.9479105,21.3581012],[-157.9477342,21.3581747],[-157.9475504,21.3582432],[-157.9475075,21.3582561],[-157.9475473,21.358341],[-157.9476993,21.3586754],[-157.9481617,21.3584864]]]}},{"type":"Feature","properties":{"a":"helipad"},"geometry":{"type":"Polygon","coordinates":[[[-158.0266009,21.3731008],[-158.026633,21.3730992],[-158.0266638,21.3731077],[-158.02669,21.3731253],[-158.0267083,21.3731499],[-158.0267169,21.3731788],[-158.0267146,21.3732087],[-158.0267027,21.373235],[-158.0266824,21.3732563],[-158.026656,21.3732707],[-158.026626,21.3732765],[-158.0265956,21.3732731],[-158.0265679,21.373261],[-158.0265457,21.3732413],[-158.0265314,21.3732161],[-158.0265263,21.373188],[-158.0265316,21.3731584],[-158.0265471,21.3731322],[-158.0265711,21.3731122],[-158.0266009,21.3731008]]]}},{"type":"Feature","properties":{"a":"helipad"},"geometry":{"type":"Polygon","coordinates":[[[-157.9618583,21.3648826],[-157.9617583,21.3647928],[-157.961649,21.3646946],[-157.9618509,21.3644999],[-157.9620601,21.3646879],[-157.9619214,21.3648217],[-157.9618583,21.3648826]]]}},{"type":"Feature","properties":{"a":"apron"},"geometry":{"type":"Polygon","coordinates":[[[-157.961545,21.3608456],[-157.9620963,21.3612002],[-157.9635213,21.3601535],[-157.9628208,21.3597281],[-157.9632508,21.3593476],[-157.9641083,21.3586724],[-157.9650571,21.3582856],[-157.9658932,21.3579447],[-157.965675,21.3576128],[-157.9655543,21.3574275],[-157.965397,21.3572531],[-157.9652122,21.3571187],[-157.9650205,21.3570063],[-157.9648462,21.3569415],[-157.9646529,21.3569285],[-157.9644619,21.3569986],[-157.9643369,21.3570445],[-157.9647781,21.3580376],[-157.9643247,21.358213],[-157.9642863,21.3581268],[-157.9641694,21.3581701],[-157.9634927,21.3587039],[-157.9629994,21.3590706],[-157.9623973,21.358368],[-157.9619788,21.3587022],[-157.9616626,21.3594019],[-157.9622186,21.3597395],[-157.9619676,21.3600982],[-157.9614116,21.3597606],[-157.9616051,21.3605216],[-157.9614355,21.3607843],[-157.961545,21.3608456]]]}},{"type":"Feature","properties":{"a":"apron"},"geometry":{"type":"Polygon","coordinates":[[[-157.9434735,21.3310164],[-157.9422667,21.3310144],[-157.9418565,21.3310137],[-157.9418613,21.3304049],[-157.940169,21.3304078],[-157.9401686,21.3312059],[-157.9382355,21.3312077],[-157.9382345,21.3278936],[-157.938741,21.327896],[-157.938741,21.3279505],[-157.9387521,21.3279836],[-157.9387709,21.3280105],[-157.9387987,21.3280343],[-157.9388386,21.3280549],[-157.938893,21.3280622],[-157.9397052,21.3280622],[-157.9397651,21.3280529],[-157.9398083,21.3280322],[-157.9398361,21.3280012],[-157.9398572,21.327966],[-157.9398705,21.3279257],[-157.93987,21.3278974],[-157.94038,21.3278997],[-157.94038,21.3279573],[-157.9403911,21.3279904],[-157.9404099,21.3280173],[-157.9404377,21.3280411],[-157.9404776,21.3280617],[-157.940532,21.328069],[-157.9407998,21.3280686],[-157.940801,21.3286109],[-157.940751,21.3286115],[-157.9407519,21.3287535],[-157.9413044,21.3287509],[-157.941292,21.3280679],[-157.9413519,21.3280586],[-157.9413952,21.328038],[-157.9414229,21.328007],[-157.941444,21.3279718],[-157.9414573,21.3279315],[-157.9414547,21.3278788],[-157.941982,21.3278779],[-157.9419828,21.3279493],[-157.9419939,21.3279824],[-157.9420127,21.3280092],[-157.9420405,21.328033],[-157.9420804,21.3280537],[-157.9421348,21.3280609],[-157.9429469,21.3280609],[-157.9430069,21.3280516],[-157.9430501,21.3280309],[-157.9430779,21.3279999],[-157.943099,21.3279648],[-157.9431123,21.3279245],[-157.943112,21.3277983],[-157.943664,21.3277907],[-157.9436763,21.3281865],[-157.9436757,21.3289048],[-157.9436666,21.3309426],[-157.9434735,21.3310164]]]}},{"type":"Feature","properties":{"a":"apron"},"geometry":{"type":"Polygon","coordinates":[[[-157.9473892,21.3336671],[-157.9464818,21.3336658],[-157.946486,21.3365407],[-157.9473906,21.3365381],[-157.9473892,21.3336671]]]}},{"type":"Feature","properties":{"a":"apron"},"geometry":{"type":"Polygon","coordinates":[[[-157.9473751,21.331753],[-157.9450495,21.3317525],[-157.9421929,21.3322291],[-157.9421502,21.3320202],[-157.9421354,21.3317594],[-157.942178,21.3314866],[-157.9422618,21.3312305],[-157.9422667,21.3310144],[-157.9434735,21.3310164],[-157.9436666,21.3309426],[-157.947376,21.3303106],[-157.9473751,21.331753]]]}},{"type":"Feature","properties":{"a":"apron"},"geometry":{"type":"Polygon","coordinates":[[[-157.9532146,21.3310633],[-157.9513214,21.3310533],[-157.95132,21.3306976],[-157.9506606,21.3306963],[-157.9506606,21.3305336],[-157.9482106,21.3305231],[-157.9482134,21.3295874],[-157.9534418,21.3287159],[-157.954474,21.3287186],[-157.9544729,21.3277346],[-157.9573885,21.3272444],[-157.9574593,21.3272841],[-157.9576336,21.3281818],[-157.957587,21.3290213],[-157.9568634,21.3289782],[-157.9568584,21.3295798],[-157.9558498,21.3298877],[-157.9558482,21.3306038],[-157.9554097,21.3310188],[-157.9543784,21.3310093],[-157.9539236,21.3310098],[-157.9539343,21.3304479],[-157.9532147,21.3304465],[-157.9532146,21.3310633]]]}},{"type":"Feature","properties":{"a":"apron"},"geometry":{"type":"Polygon","coordinates":[[[-157.9605491,21.3302094],[-157.9602381,21.3304921],[-157.9587228,21.3290753],[-157.957587,21.3290213],[-157.9576336,21.3281818],[-157.9599972,21.3277892],[-157.9604277,21.328192],[-157.9602437,21.3283775],[-157.9610915,21.3291672],[-157.9602562,21.329945],[-157.9605491,21.3302094]]]}},{"type":"Feature","properties":{"a":"helipad"},"geometry":{"type":"Polygon","coordinates":[[[-157.9628353,21.360575],[-157.9628985,21.3604272],[-157.9627383,21.3604473],[-157.9628353,21.360575]]]}},{"type":"Feature","properties":{"a":"apron"},"geometry":{"type":"Polygon","coordinates":[[[-157.9473841,21.3284777],[-157.9469217,21.328048],[-157.9469037,21.327641],[-157.9477134,21.3276338],[-157.9477717,21.3277034],[-157.9477647,21.3283733],[-157.9476947,21.3284886],[-157.9473841,21.3284777]]]}}]}