{"type":"FeatureCollection","features":[{"type":"Feature","properties":{},"geometry":{"type":"Polygon","coordinates":[[[-157.9478163,21.3260307],[-157.9488724,21.3279378],[-157.9489678,21.3280359],[-157.9490832,21.3280967],[-157.949299,21.3282042],[-157.949299,21.328279],[-157.9491534,21.3284379],[-157.9490507,21.3284631],[-157.9477572,21.3261232],[-157.9476791,21.3262452],[-157.9474524,21.3265075],[-157.946504,21.3274002],[-157.9464137,21.3273255],[-157.9473771,21.3264046],[-157.9474906,21.3262747],[-157.947588,21.3261339],[-157.9476681,21.3259839],[-157.9485814,21.3237029],[-157.9492387,21.321964],[-157.9495985,21.3196303],[-157.9498395,21.3176493],[-157.9499373,21.3172522],[-157.9499389,21.3172186],[-157.9499626,21.3172206],[-157.9500861,21.317228],[-157.9501611,21.3172327],[-157.950205,21.3172355],[-157.9501993,21.3172703],[-157.9498813,21.3192302],[-157.9494595,21.3218331],[-157.9493943,21.3221369],[-157.9478739,21.3259232],[-157.9478163,21.3260307]]]}},{"type":"Feature","properties":{},"geometry":{"type":"Polygon","coordinates":[[[-158.0286454,21.3721007],[-158.0285917,21.3721706],[-158.0285703,21.3722905],[-158.0285273,21.3723904],[-158.0284201,21.3724404],[-158.0283449,21.3724304],[-158.0282806,21.3723205],[-158.0282806,21.3722305],[-158.0282055,21.3720807],[-158.0281518,21.3720207],[-158.0281089,21.3719008],[-158.0280875,21.3718209],[-158.0280767,21.371711],[-158.0281196,21.3715811],[-158.0281733,21.3714712],[-158.0282162,21.3714013],[-158.0282591,21.3713613],[-158.0283449,21.3713713],[-158.0283879,21.3714812],[-158.0283879,21.3715811],[-158.0284522,21.371721],[-158.0285595,21.371771],[-158.0286561,21.3718009],[-158.0287419,21.3718909],[-158.0287312,21.3719808],[-158.0286454,21.3721007]]]}},{"type":"Feature","properties":{},"geometry":{"type":"Polygon","coordinates":[[[-158.0245684,21.3652566],[-158.0245469,21.3655864],[-158.0245255,21.3658262],[-158.0244611,21.365946],[-158.0243646,21.366026],[-158.0242358,21.3660759],[-158.0240427,21.3661059],[-158.0238174,21.3661259],[-158.0236672,21.3661059],[-158.023517,21.366036],[-158.0234526,21.365996],[-158.0234097,21.3658561],[-158.0233775,21.3656163],[-158.0233668,21.3653565],[-158.0233131,21.3650668],[-158.0232273,21.364807],[-158.0232488,21.3646372],[-158.0233668,21.3644773],[-158.0235921,21.3644473],[-158.0238388,21.3643174],[-158.0239998,21.3642075],[-158.0241285,21.3640976],[-158.0242465,21.3639877],[-158.0243538,21.3639078],[-158.0244933,21.3638678],[-158.0246864,21.3639178],[-158.0247937,21.3639977],[-158.0248903,21.3641276],[-158.0248795,21.3642775],[-158.0247937,21.3645173],[-158.0246864,21.3647071],[-158.0245899,21.3649169],[-158.0245684,21.3652566]]]}},{"type":"Feature","properties":{},"geometry":{"type":"Polygon","coordinates":[[[-158.0305863,21.3298911],[-158.0307185,21.3301282],[-158.0307218,21.330316],[-158.030133,21.3305884],[-158.0299298,21.3305228],[-158.0297061,21.3303965],[-158.0295391,21.3303023],[-158.0294297,21.3301386],[-158.029383,21.3299291],[-158.0294192,21.3298186],[-158.0295086,21.3296961],[-158.0296114,21.3295754],[-158.029719,21.3294826],[-158.0298229,21.3293439],[-158.0298645,21.3291661],[-158.0299421,21.3290873],[-158.0299911,21.3292396],[-158.030226,21.3293707],[-158.0303214,21.3294566],[-158.0302755,21.329574],[-158.0301334,21.3297279],[-158.0300673,21.3298264],[-158.0301169,21.3299804],[-158.0302392,21.3300358],[-158.0303879,21.3300173],[-158.0305863,21.3298911]]]}},{"type":"Feature","properties":{},"geometry":{"type":"Polygon","coordinates":[[[-157.9206569,21.3429042],[-157.9207314,21.3427948],[-157.9207446,21.3427207],[-157.9207512,21.3426729],[-157.920743,21.3426405],[-157.9207099,21.3426097],[-157.9205642,21.3426082],[-157.9203986,21.3426621],[-157.9203655,21.3427084],[-157.920344,21.3428071],[-157.9203605,21.3428564],[-157.9204234,21.342878],[-157.9205741,21.3429166],[-157.9206387,21.3429135],[-157.9206569,21.3429042]]]}},{"type":"Feature","properties":{},"geometry":{"type":"Polygon","coordinates":[[[-157.9242201,21.3418115],[-157.9242107,21.3419424],[-157.9241428,21.3420449],[-157.9240211,21.3421932],[-157.9239719,21.3422172],[-157.9238408,21.3422062],[-157.9236277,21.3421605],[-157.9235879,21.3421147],[-157.9235856,21.3420296],[-157.9236324,21.341962],[-157.9237073,21.3419424],[-157.9238548,21.341962],[-157.9240094,21.3419685],[-157.9240539,21.3419075],[-157.9240773,21.3418268],[-157.9241311,21.3417701],[-157.9242037,21.3417657],[-157.9242201,21.3418115]]]}},{"type":"Feature","properties":{},"geometry":{"type":"Polygon","coordinates":[[[-157.923858,21.3419099],[-157.9237669,21.3418775],[-157.9236792,21.3418636],[-157.923608,21.3418636],[-157.9235037,21.3418606],[-157.9234557,21.341822],[-157.9234325,21.3417572],[-157.9234391,21.3416925],[-157.9235053,21.3416385],[-157.9235732,21.3416293],[-157.9236792,21.3416586],[-157.9237835,21.3416632],[-157.9239043,21.3416801],[-157.9239822,21.341711],[-157.9240202,21.3417557],[-157.9240368,21.3417973],[-157.9240302,21.3418575],[-157.9239871,21.3418883],[-157.9239242,21.3419068],[-157.923858,21.3419099]]]}},{"type":"Feature","properties":{},"geometry":{"type":"Polygon","coordinates":[[[-157.9290674,21.3344791],[-157.9290592,21.3345057],[-157.9290469,21.3345309],[-157.9290306,21.3345541],[-157.9290107,21.3345748],[-157.9289878,21.3345924],[-157.9289605,21.3346025],[-157.9289303,21.3346097],[-157.9288925,21.3346137],[-157.9288275,21.3346136],[-157.9287598,21.3345999],[-157.9287342,21.3345571],[-157.9285642,21.3345814],[-157.9282597,21.3345731],[-157.9278788,21.3345225],[-157.9278218,21.3345491],[-157.9277721,21.3346353],[-157.9283829,21.3347166],[-157.9284097,21.3348135],[-157.9285271,21.3348917],[-157.9286949,21.3347635],[-157.928819,21.3347736],[-157.9288879,21.3347505],[-157.9289542,21.3347193],[-157.929016,21.3346822],[-157.929077,21.3346337],[-157.9291106,21.3345695],[-157.9291247,21.3346254],[-157.9291459,21.3346575],[-157.929166,21.33468],[-157.9292041,21.3347189],[-157.929248,21.334752],[-157.9292967,21.3347785],[-157.9293493,21.3347979],[-157.9343894,21.3354199],[-157.9347523,21.3355145],[-157.9349232,21.3355771],[-157.9350769,21.3356567],[-157.9393356,21.3377641],[-157.9393725,21.3377078],[-157.9364005,21.3362467],[-157.934933,21.3354918],[-157.9347672,21.3354243],[-157.9345942,21.3353752],[-157.9344162,21.3353449],[-157.9293191,21.3346666],[-157.9292982,21.3346619],[-157.9292783,21.3346545],[-157.9292598,21.3346444],[-157.9292431,21.334632],[-157.9292285,21.3346173],[-157.9292163,21.3346009],[-157.9292069,21.334583],[-157.9292003,21.334564],[-157.9291968,21.3345443],[-157.9291964,21.3345243],[-157.9291992,21.3345045],[-157.929205,21.3344853],[-157.9294801,21.3325599],[-157.9295103,21.3325255],[-157.9295204,21.3324755],[-157.929507,21.332438],[-157.9294181,21.3324364],[-157.9293291,21.3324349],[-157.9292989,21.3324599],[-157.9290674,21.3344791]]]}},{"type":"Feature","properties":{},"geometry":{"type":"Polygon","coordinates":[[[-158.0293606,21.3712516],[-158.0294089,21.3713265],[-158.0294062,21.3714714],[-158.0293525,21.3715488],[-158.0292184,21.3715888],[-158.0291353,21.3715213],[-158.0291219,21.371354],[-158.0290146,21.3712541],[-158.0288644,21.3711142],[-158.0288,21.3710293],[-158.0288376,21.3709268],[-158.0289502,21.3708594],[-158.0290736,21.3707945],[-158.0291058,21.3707195],[-158.0291728,21.3706521],[-158.0292935,21.3706346],[-158.0293633,21.370702],[-158.0293901,21.3708769],[-158.0293311,21.3710392],[-158.0293096,21.3711641],[-158.0293606,21.3712516]]]}},{"type":"Feature","properties":{},"geometry":{"type":"Polygon","coordinates":[[[-157.9790489,21.379692],[-157.9788408,21.3798964],[-157.978697,21.3800171],[-157.9784839,21.3802215],[-157.9783365,21.3803968],[-157.9782869,21.3805594],[-157.9782225,21.3807545],[-157.978153,21.3809682],[-157.9781282,21.3811215],[-157.978044,21.3813398],[-157.9779993,21.3815023],[-157.977977,21.3815517],[-157.9783298,21.3815249],[-157.9783061,21.3816864],[-157.9782009,21.382081],[-157.9780637,21.3830405],[-157.978064,21.3836556],[-157.9779851,21.3842629],[-157.9778606,21.3846898],[-157.977732,21.3849236],[-157.9774744,21.3852625],[-157.9771757,21.3855866],[-157.9766083,21.386113],[-157.9764853,21.3862558],[-157.976278,21.3865898],[-157.9762077,21.3867765],[-157.976243,21.3871599],[-157.9762665,21.3872697],[-157.9766237,21.3880909],[-157.9770927,21.38881],[-157.9773685,21.3890844],[-157.9773622,21.3890849],[-157.9769949,21.3891143],[-157.9767983,21.3887121],[-157.9765093,21.3883395],[-157.9764682,21.388252],[-157.9760235,21.3873336],[-157.9759353,21.3869573],[-157.9759386,21.3867524],[-157.9760134,21.3865079],[-157.9763558,21.3859947],[-157.9766836,21.3856641],[-157.9769222,21.3854223],[-157.9771968,21.3850647],[-157.9771708,21.3850518],[-157.9774161,21.3846697],[-157.9774731,21.384347],[-157.9775508,21.3839075],[-157.9775425,21.3835557],[-157.9775341,21.3832038],[-157.9775243,21.3828836],[-157.9775144,21.3825634],[-157.9775259,21.3817892],[-157.9775309,21.3816893],[-157.9775359,21.3815893],[-157.9778591,21.3815631],[-157.9778724,21.3815372],[-157.9779517,21.381356],[-157.9780558,21.3810681],[-157.9780906,21.380794],[-157.9781451,21.3806221],[-157.9781848,21.3805432],[-157.9782046,21.3804828],[-157.9781699,21.3804363],[-157.9782537,21.3802483],[-157.978338,21.3801508],[-157.9784173,21.3800486],[-157.9784966,21.3799511],[-157.9784966,21.3799046],[-157.9785462,21.3798907],[-157.9786106,21.3799],[-157.978685,21.3798396],[-157.9787197,21.3797839],[-157.9787692,21.379756],[-157.9787841,21.3797189],[-157.9787593,21.3796399],[-157.9788974,21.3796648],[-157.9790489,21.379692]]]}},{"type":"Feature","properties":{},"geometry":{"type":"Polygon","coordinates":[[[-158.0143828,21.3270581],[-158.0144289,21.3271638],[-158.0144289,21.3272524],[-158.0144258,21.3273039],[-158.0144013,21.3273525],[-158.0143828,21.3273896],[-158.0143644,21.3274068],[-158.0143215,21.3274239],[-158.0142325,21.3274154],[-158.0141589,21.3273782],[-158.0140852,21.3273439],[-158.0139778,21.3273296],[-158.0138428,21.3273296],[-158.0137078,21.3273096],[-158.0135667,21.3272496],[-158.0134133,21.327181],[-158.0133212,21.3271495],[-158.0132108,21.327161],[-158.0131034,21.3272239],[-158.0129806,21.3272839],[-158.0128272,21.3273296],[-158.0126278,21.3273267],[-158.0124222,21.3273439],[-158.012232,21.3273953],[-158.0120847,21.3274354],[-158.0118914,21.3274211],[-158.0118147,21.327341],[-158.0118393,21.3272181],[-158.0118853,21.327141],[-158.0119589,21.3271124],[-158.0120909,21.3271095],[-158.012232,21.3270752],[-158.0123639,21.3269981],[-158.0124775,21.3268666],[-158.0125572,21.3267637],[-158.0126769,21.3266865],[-158.0128303,21.3266179],[-158.0130083,21.3265608],[-158.0131617,21.3264979],[-158.0132568,21.3264293],[-158.0133734,21.3263721],[-158.0134654,21.3263264],[-158.0135759,21.3263378],[-158.0137324,21.3263893],[-158.0137937,21.3264236],[-158.0138674,21.3265522],[-158.0138889,21.3265979],[-158.0138919,21.3266608],[-158.0139472,21.3267666],[-158.0140699,21.3268294],[-158.0141742,21.3268466],[-158.0142601,21.3268694],[-158.0143184,21.3269266],[-158.0143828,21.3270581]]]}},{"type":"Feature","properties":{},"geometry":{"type":"Polygon","coordinates":[[[-158.0114312,21.3270409],[-158.0114281,21.3271267],[-158.0113637,21.3272096],[-158.0112563,21.3273039],[-158.0111765,21.3273553],[-158.0111029,21.3273725],[-158.01102,21.3273696],[-158.0109403,21.3273267],[-158.0108666,21.3273153],[-158.0107684,21.3273439],[-158.0106764,21.3273925],[-158.0105629,21.3274011],[-158.0104923,21.3273896],[-158.0104371,21.3273496],[-158.0104309,21.3272867],[-158.0104463,21.3272038],[-158.0104647,21.327181],[-158.0108145,21.326958],[-158.0108697,21.3269323],[-158.0109403,21.3269323],[-158.0109863,21.3269295],[-158.0110323,21.3269438],[-158.011109,21.3269695],[-158.0111796,21.3269781],[-158.0112686,21.3269781],[-158.0113207,21.3269752],[-158.0113575,21.3269781],[-158.0114005,21.3269981],[-158.0114312,21.3270409]]]}},{"type":"Feature","properties":{},"geometry":{"type":"Polygon","coordinates":[[[-158.0126519,21.3296337],[-158.0125584,21.3296651],[-158.0122908,21.3296966],[-158.0121349,21.3296821],[-158.0120907,21.3296748],[-158.0120336,21.3296748],[-158.012005,21.3296675],[-158.0119556,21.3296821],[-158.0118517,21.3296942],[-158.0117582,21.3296821],[-158.0116491,21.3296579],[-158.0115633,21.3296167],[-158.0114984,21.3295732],[-158.0113789,21.3295441],[-158.0111918,21.3295223],[-158.0110983,21.3295006],[-158.010984,21.3294473],[-158.0109086,21.3294304],[-158.0108489,21.3294497],[-158.0107943,21.3295006],[-158.0107502,21.3295611],[-158.0107138,21.3295925],[-158.0106462,21.3296264],[-158.0105735,21.3296288],[-158.0105163,21.3296264],[-158.0104436,21.3296409],[-158.010389,21.3296603],[-158.0103215,21.3296554],[-158.0102539,21.3296385],[-158.0101162,21.3296264],[-158.0100461,21.3296046],[-158.0099682,21.329532],[-158.0099214,21.3294546],[-158.0099084,21.3293699],[-158.009911,21.329319],[-158.0099396,21.3292779],[-158.0099993,21.3292731],[-158.0100903,21.3292876],[-158.0101552,21.3292876],[-158.0101994,21.3292634],[-158.0102799,21.3291569],[-158.0103423,21.3290674],[-158.0104124,21.3289512],[-158.01048,21.3288931],[-158.0106047,21.328852],[-158.0108021,21.3287794],[-158.0110126,21.3287043],[-158.0111658,21.3286414],[-158.011288,21.3285688],[-158.0114231,21.3285083],[-158.0115166,21.3284841],[-158.0115997,21.3284769],[-158.0116932,21.3285059],[-158.0117764,21.3285374],[-158.0118465,21.3285664],[-158.0119375,21.3285833],[-158.0120076,21.3286003],[-158.0121037,21.3285833],[-158.0121635,21.3285374],[-158.0122129,21.3284769],[-158.0122804,21.3284333],[-158.0123661,21.3284188],[-158.0124337,21.3284648],[-158.0124519,21.328489],[-158.0124649,21.3285664],[-158.0124519,21.3286366],[-158.0123921,21.3287382],[-158.0123765,21.3288084],[-158.0123947,21.3289052],[-158.0124415,21.3289972],[-158.0125168,21.3290577],[-158.0125922,21.3291133],[-158.0126311,21.32914],[-158.0126493,21.3291908],[-158.0126701,21.3292876],[-158.0126883,21.3293614],[-158.0127299,21.3294231],[-158.0127351,21.3294885],[-158.0127091,21.3295804],[-158.0126909,21.3296046],[-158.0126519,21.3296337]]]}},{"type":"Feature","properties":{},"geometry":{"type":"Polygon","coordinates":[[[-158.0137611,21.3256842],[-158.0137044,21.3257037],[-158.0136148,21.3257509],[-158.0135029,21.3257801],[-158.0134581,21.3257885],[-158.0133686,21.325776],[-158.0133238,21.3257565],[-158.0132343,21.3256801],[-158.0131731,21.325637],[-158.0130955,21.3256092],[-158.013,21.3256133],[-158.0129374,21.3256119],[-158.0128195,21.3255661],[-158.0127613,21.3255313],[-158.0127046,21.3254743],[-158.0126703,21.3253937],[-158.0126479,21.3253173],[-158.0126598,21.3252297],[-158.0126837,21.3251616],[-158.0127255,21.3251213],[-158.0128344,21.3251115],[-158.0129314,21.3251157],[-158.0130374,21.3250963],[-158.0131329,21.3250532],[-158.0132284,21.3250045],[-158.0133,21.3249851],[-158.0133641,21.3249864],[-158.0134462,21.3249851],[-158.0134999,21.3249656],[-158.0136089,21.3249086],[-158.0136551,21.3248933],[-158.0137193,21.3249058],[-158.0137715,21.3249392],[-158.0138222,21.3250268],[-158.013861,21.3251032],[-158.0139028,21.3251602],[-158.013961,21.3252005],[-158.0140088,21.325245],[-158.0140834,21.3253617],[-158.0140998,21.3254076],[-158.0141072,21.3254577],[-158.0140893,21.3254952],[-158.014052,21.3255438],[-158.0139849,21.3255967],[-158.0139148,21.32563],[-158.0138342,21.3256634],[-158.0137611,21.3256842]]]}},{"type":"Feature","properties":{},"geometry":{"type":"Polygon","coordinates":[[[-158.0192351,21.3277144],[-158.0192127,21.3277665],[-158.019159,21.3278208],[-158.0190716,21.3278521],[-158.0190134,21.3278855],[-158.0189596,21.3279418],[-158.0188902,21.3279835],[-158.0188387,21.3279939],[-158.0187312,21.3279627],[-158.0186326,21.3279647],[-158.0185587,21.3280002],[-158.018487,21.3280482],[-158.0184288,21.328067],[-158.0183795,21.3280461],[-158.0183594,21.3279689],[-158.0183437,21.3279084],[-158.0182944,21.3278542],[-158.018225,21.3278291],[-158.0181443,21.3278103],[-158.0180771,21.3278083],[-158.0178352,21.3277749],[-158.0177232,21.3277832],[-158.0176448,21.3278062],[-158.0175754,21.3278562],[-158.0174903,21.3278813],[-158.0174074,21.3278688],[-158.0173066,21.3278333],[-158.0172013,21.327802],[-158.0170938,21.3277916],[-158.0169214,21.3277644],[-158.0168497,21.3277373],[-158.0168138,21.327681],[-158.0167982,21.3276205],[-158.0168094,21.3275683],[-158.0168295,21.3275266],[-158.0168586,21.3275099],[-158.0170311,21.3275036],[-158.0172013,21.3274911],[-158.0172708,21.3274702],[-158.0173402,21.3274223],[-158.0173962,21.327393],[-158.0174388,21.3274097],[-158.0174813,21.3274786],[-158.0175037,21.3275495],[-158.0175933,21.3276726],[-158.0176426,21.3277331],[-158.0176964,21.3277498],[-158.0177658,21.3277331],[-158.0179091,21.3277415],[-158.0180211,21.3277498],[-158.018104,21.327729],[-158.01816,21.3276601],[-158.018169,21.3275954],[-158.0181533,21.3275182],[-158.01816,21.3274619],[-158.0181958,21.3274369],[-158.0182541,21.3274118],[-158.0183325,21.3274097],[-158.0184086,21.3274369],[-158.0184624,21.3275015],[-158.0184915,21.3275433],[-158.0185453,21.3275725],[-158.0186013,21.3275725],[-158.0186595,21.3275787],[-158.0187245,21.3276184],[-158.0187894,21.3276601],[-158.0188633,21.3276539],[-158.0189193,21.327608],[-158.0189753,21.3275203],[-158.0190291,21.3274661],[-158.0190761,21.3274536],[-158.0191523,21.3275015],[-158.0192038,21.3275913],[-158.0192262,21.3276539],[-158.0192351,21.3277144]]]}},{"type":"Feature","properties":{},"geometry":{"type":"Polygon","coordinates":[[[-158.0085332,21.3290904],[-158.0083854,21.3290796],[-158.0082608,21.3291039],[-158.0081535,21.3292038],[-158.0081042,21.3293172],[-158.0079912,21.329409],[-158.0078839,21.329436],[-158.0078173,21.3294576],[-158.0077883,21.3294387],[-158.0078057,21.3293874],[-158.0078839,21.3292308],[-158.0078984,21.3291363],[-158.0078723,21.329085],[-158.0078839,21.3290013],[-158.0079245,21.3289149],[-158.0079825,21.3288231],[-158.0079999,21.3287421],[-158.0079593,21.3286206],[-158.0079245,21.3284964],[-158.0079245,21.32841],[-158.0079535,21.3283182],[-158.0079825,21.3282263],[-158.0080463,21.328121],[-158.0081564,21.3279941],[-158.0082231,21.3279212],[-158.0083361,21.3278807],[-158.0084173,21.3278699],[-158.0084898,21.3278969],[-158.0085187,21.3279617],[-158.008539,21.3280562],[-158.0084898,21.3282723],[-158.0084637,21.3283695],[-158.0084927,21.3284694],[-158.0085564,21.3285207],[-158.0086405,21.3285855],[-158.0086811,21.3286881],[-158.0086579,21.3288339],[-158.0086521,21.3289365],[-158.0086579,21.3290526],[-158.0085999,21.3291012],[-158.0085332,21.3290904]]]}},{"type":"Feature","properties":{},"geometry":{"type":"Polygon","coordinates":[[[-158.0066538,21.3285128],[-158.0065929,21.3286622],[-158.0064934,21.3288086],[-158.006378,21.328964],[-158.0063106,21.3290865],[-158.0062721,21.329197],[-158.0062368,21.3292807],[-158.0061438,21.3293703],[-158.0060027,21.3294629],[-158.0059257,21.3295824],[-158.005884,21.3296452],[-158.0058199,21.3296571],[-158.0057653,21.3296004],[-158.0057268,21.3294779],[-158.0057044,21.3293583],[-158.0057878,21.3290297],[-158.0058487,21.3289042],[-158.0059578,21.3287877],[-158.0060283,21.3286084],[-158.0060829,21.3285427],[-158.0062272,21.3285039],[-158.0063747,21.3284172],[-158.006487,21.3283425],[-158.0065576,21.3282917],[-158.0066281,21.3283037],[-158.0066762,21.3283933],[-158.0066538,21.3285128]]]}},{"type":"Feature","properties":{},"geometry":{"type":"Polygon","coordinates":[[[-158.0057333,21.3254981],[-158.0057942,21.3256117],[-158.0057878,21.3257013],[-158.0057172,21.325785],[-158.0055665,21.3258387],[-158.0054061,21.3259075],[-158.0053291,21.326015],[-158.0053227,21.3261764],[-158.0053484,21.3263198],[-158.0053644,21.3264154],[-158.0053003,21.326499],[-158.0052393,21.3265767],[-158.0051495,21.3266783],[-158.0050918,21.3267381],[-158.0049635,21.3267261],[-158.0048897,21.3266813],[-158.0048416,21.3265797],[-158.0048544,21.32652],[-158.0048961,21.3264034],[-158.0049795,21.3263198],[-158.005018,21.3261973],[-158.0050244,21.3261166],[-158.0050084,21.3259493],[-158.005018,21.3258477],[-158.0050757,21.3257312],[-158.0051623,21.3255848],[-158.0052393,21.3254533],[-158.0052842,21.3254175],[-158.0053901,21.3254085],[-158.0055504,21.3254204],[-158.0056531,21.3254473],[-158.0057333,21.3254981]]]}},{"type":"Feature","properties":{},"geometry":{"type":"Polygon","coordinates":[[[-158.0086232,21.3270996],[-158.0086296,21.3271952],[-158.0085686,21.3272699],[-158.0085173,21.3273416],[-158.0084339,21.3273804],[-158.0083313,21.3273416],[-158.0082254,21.3272848],[-158.0080554,21.3272789],[-158.0079368,21.3273207],[-158.0078566,21.3273894],[-158.0078277,21.3275029],[-158.0078277,21.3275956],[-158.0078694,21.3277031],[-158.0078822,21.3278137],[-158.0078502,21.3278824],[-158.0078117,21.3279093],[-158.007693,21.3279063],[-158.0076417,21.3279063],[-158.0075711,21.3279601],[-158.0075358,21.3280318],[-158.0075198,21.3280915],[-158.0074557,21.3281005],[-158.0074043,21.3280527],[-158.0073979,21.32799],[-158.0074172,21.3279153],[-158.0074653,21.3278197],[-158.0074813,21.3277479],[-158.0074653,21.3276344],[-158.0074653,21.3275448],[-158.0074941,21.3274522],[-158.0075904,21.3272848],[-158.0076353,21.3271713],[-158.0076994,21.3269771],[-158.0077572,21.3268038],[-158.007709,21.3266962],[-158.0076417,21.3266006],[-158.0075006,21.326523],[-158.0074075,21.326517],[-158.0073209,21.3266096],[-158.0072889,21.3266962],[-158.0073241,21.3267709],[-158.0073434,21.3268665],[-158.0073113,21.3269681],[-158.0072215,21.3271325],[-158.0071638,21.3273386],[-158.0071157,21.3275567],[-158.0070643,21.3276792],[-158.0069681,21.327724],[-158.0068751,21.3277151],[-158.0068238,21.3276882],[-158.0068206,21.3276464],[-158.0068687,21.3275239],[-158.0068591,21.3273954],[-158.0068398,21.3273207],[-158.0067853,21.3272639],[-158.0067757,21.3271952],[-158.0067981,21.3271295],[-158.006843,21.3270578],[-158.006843,21.3269801],[-158.006811,21.3269144],[-158.0067981,21.3268546],[-158.006827,21.3267859],[-158.006904,21.326762],[-158.0069906,21.326753],[-158.0070291,21.3267291],[-158.0070708,21.3266574],[-158.0071509,21.3265917],[-158.0072343,21.3265708],[-158.0073049,21.326517],[-158.0073145,21.3264751],[-158.0073017,21.3263437],[-158.00726,21.3262092],[-158.0072664,21.3261435],[-158.0073017,21.3261047],[-158.0073851,21.3260957],[-158.0074492,21.3261196],[-158.0075326,21.3262212],[-158.0076096,21.3263078],[-158.0077122,21.3263765],[-158.0078534,21.3264393],[-158.0079753,21.326502],[-158.0080779,21.3266096],[-158.0081645,21.3267351],[-158.0082671,21.326768],[-158.0083858,21.3268068],[-158.0084596,21.3268994],[-158.0085398,21.326995],[-158.0086232,21.3270996]]]}},{"type":"Feature","properties":{},"geometry":{"type":"Polygon","coordinates":[[[-158.0055814,21.3326572],[-158.0046764,21.3324471],[-158.0046235,21.3323615],[-158.0046541,21.3322785],[-158.0047655,21.3321799],[-158.0048212,21.3320891],[-158.0048518,21.3320035],[-158.0048574,21.3318868],[-158.0047989,21.3317545],[-158.0048128,21.3316819],[-158.004824,21.3316326],[-158.0049019,21.3316249],[-158.0049827,21.3315808],[-158.0050272,21.3314978],[-158.0050634,21.3314225],[-158.0051163,21.3313992],[-158.0051999,21.3313914],[-158.0052834,21.3314511],[-158.0053614,21.3314744],[-158.0054338,21.3314589],[-158.0056231,21.3314044],[-158.0057345,21.3313421],[-158.0058097,21.3312358],[-158.0058849,21.3311372],[-158.0059907,21.3310802],[-158.0060714,21.3310905],[-158.0061215,21.3311346],[-158.006155,21.3311943],[-158.006155,21.3312721],[-158.006116,21.3313681],[-158.0060464,21.3314303],[-158.0059238,21.3314822],[-158.005857,21.3315911],[-158.0058375,21.3317156],[-158.0057735,21.331796],[-158.0056176,21.3319102],[-158.005534,21.3319828],[-158.0055424,21.3321151],[-158.0056036,21.3322084],[-158.0057039,21.3322707],[-158.0057679,21.3322992],[-158.0057791,21.3323822],[-158.0057456,21.3324523],[-158.0055814,21.3326572]]]}},{"type":"Feature","properties":{},"geometry":{"type":"Polygon","coordinates":[[[-157.9642988,21.3878085],[-157.9643141,21.3876458],[-157.9633421,21.3882936],[-157.9632746,21.3884775],[-157.9631935,21.3885565],[-157.9631297,21.3886017],[-157.963083,21.3886092],[-157.9630287,21.3886124],[-157.9629655,21.388616],[-157.9629169,21.3886358],[-157.9628865,21.3886867],[-157.9629166,21.3888006],[-157.9628321,21.3889801],[-157.9628037,21.38897],[-157.9627446,21.3890984],[-157.9626797,21.3890729],[-157.9626292,21.3891841],[-157.9626916,21.3892022],[-157.9629412,21.3892155],[-157.9630365,21.3892207],[-157.9631142,21.3890837],[-157.9629039,21.3889979],[-157.9629836,21.3888246],[-157.9636325,21.3890875],[-157.9638074,21.3891572],[-157.9638371,21.3890939],[-157.9638918,21.389108],[-157.96391,21.3890741],[-157.9638979,21.3889949],[-157.9639313,21.3888903],[-157.963907,21.3887913],[-157.9639556,21.3887545],[-157.9639677,21.3887008],[-157.9639556,21.3886386],[-157.9638857,21.3885736],[-157.963828,21.3885311],[-157.9637187,21.3884689],[-157.9636428,21.388418],[-157.963542,21.388358],[-157.9642988,21.3878085]]]}},{"type":"Feature","properties":{},"geometry":{"type":"Polygon","coordinates":[[[-157.9503898,21.3914138],[-157.9503241,21.3914608],[-157.9501657,21.3915648],[-157.9502854,21.3916697],[-157.9504277,21.3914768],[-157.9509029,21.3910226],[-157.9509613,21.3909552],[-157.951011,21.3908623],[-157.9510536,21.3907614],[-157.9510787,21.3906753],[-157.9510847,21.3906439],[-157.9510943,21.3905871],[-157.9511002,21.3904979],[-157.9510962,21.3904087],[-157.9510829,21.3903232],[-157.9510041,21.3898395],[-157.9509978,21.3897628],[-157.9509969,21.3896858],[-157.9510016,21.3896088],[-157.9510116,21.3895337],[-157.9510309,21.3894482],[-157.9510617,21.3893596],[-157.9510997,21.3892707],[-157.9510014,21.3893072],[-157.9509826,21.3893684],[-157.950961,21.3894456],[-157.9509449,21.3895239],[-157.9509343,21.3896031],[-157.9509294,21.3896843],[-157.9509303,21.3897656],[-157.950937,21.3898466],[-157.9510161,21.3903324],[-157.9510289,21.3904145],[-157.9510325,21.3904973],[-157.9510271,21.3905801],[-157.9510235,21.3906113],[-157.9510185,21.3906406],[-157.9509689,21.3907608],[-157.9509275,21.3908611],[-157.9509095,21.3909055],[-157.9508847,21.3909418],[-157.9503898,21.3914138]]]}},{"type":"Feature","properties":{},"geometry":{"type":"Polygon","coordinates":[[[-157.9634993,21.327203],[-157.9635247,21.3272328],[-157.9635377,21.3272688],[-157.9635367,21.3273068],[-157.9635219,21.3273422],[-157.9634951,21.3273708],[-157.9634594,21.3273891],[-157.9634191,21.3273951],[-157.9633826,21.3273892],[-157.9633498,21.3273729],[-157.9633241,21.327348],[-157.963308,21.3273169],[-157.963303,21.3272826],[-157.9633097,21.3272486],[-157.9633274,21.3272182],[-157.9633544,21.3271945],[-157.9633879,21.3271797],[-157.9634247,21.3271753],[-157.9634646,21.3271831],[-157.9634993,21.327203]]]}},{"type":"Feature","properties":{},"geometry":{"type":"Polygon","coordinates":[[[-157.9632489,21.326968],[-157.9632742,21.3269977],[-157.9632872,21.3270337],[-157.9632862,21.3270717],[-157.9632714,21.3271071],[-157.9632446,21.3271357],[-157.9632089,21.3271541],[-157.9631686,21.3271601],[-157.9631321,21.3271541],[-157.9630993,21.3271379],[-157.9630736,21.3271129],[-157.9630575,21.3270818],[-157.9630525,21.3270476],[-157.9630592,21.3270136],[-157.9630769,21.3269832],[-157.9631039,21.3269594],[-157.9631374,21.3269446],[-157.9631742,21.3269403],[-157.9632142,21.326948],[-157.9632489,21.326968]]]}},{"type":"Feature","properties":{},"geometry":{"type":"Polygon","coordinates":[[[-157.9629814,21.3267358],[-157.9630067,21.3267655],[-157.9630197,21.3268016],[-157.9630187,21.3268395],[-157.963004,21.3268749],[-157.9629771,21.3269035],[-157.9629414,21.3269219],[-157.9629012,21.3269279],[-157.9628646,21.3269219],[-157.9628319,21.3269057],[-157.9628061,21.3268808],[-157.96279,21.3268496],[-157.962785,21.3268154],[-157.9627917,21.3267814],[-157.9628095,21.326751],[-157.9628364,21.3267272],[-157.96287,21.3267124],[-157.9629068,21.3267081],[-157.9629467,21.3267158],[-157.9629814,21.3267358]]]}},{"type":"Feature","properties":{},"geometry":{"type":"Polygon","coordinates":[[[-157.9640177,21.3266027],[-157.964043,21.3266325],[-157.964056,21.3266685],[-157.964055,21.3267065],[-157.9640402,21.3267419],[-157.9640134,21.3267705],[-157.9639777,21.3267889],[-157.9639375,21.3267948],[-157.9639009,21.3267889],[-157.9638681,21.3267726],[-157.9638424,21.3267477],[-157.9638263,21.3267166],[-157.9638213,21.3266823],[-157.963828,21.3266483],[-157.9638457,21.3266179],[-157.9638727,21.3265942],[-157.9639062,21.3265794],[-157.963943,21.326575],[-157.963983,21.3265828],[-157.9640177,21.3266027]]]}},{"type":"Feature","properties":{},"geometry":{"type":"Polygon","coordinates":[[[-157.9637656,21.3263731],[-157.963791,21.3264029],[-157.9638039,21.3264389],[-157.9638029,21.3264769],[-157.9637882,21.3265123],[-157.9637613,21.3265409],[-157.9637257,21.3265593],[-157.9636854,21.3265652],[-157.9636488,21.3265593],[-157.9636161,21.326543],[-157.9635904,21.3265181],[-157.9635742,21.326487],[-157.9635693,21.3264527],[-157.963576,21.3264187],[-157.9635937,21.3263883],[-157.9636206,21.3263646],[-157.9636542,21.3263498],[-157.963691,21.3263455],[-157.9637309,21.3263532],[-157.9637656,21.3263731]]]}},{"type":"Feature","properties":{},"geometry":{"type":"Polygon","coordinates":[[[-157.9635597,21.3261762],[-157.9635851,21.3262059],[-157.9635981,21.3262419],[-157.9635971,21.3262799],[-157.9635823,21.3263153],[-157.9635555,21.3263439],[-157.9635198,21.3263623],[-157.9634795,21.3263683],[-157.963443,21.3263623],[-157.9634102,21.3263461],[-157.9633845,21.3263211],[-157.9633684,21.32629],[-157.9633634,21.3262557],[-157.9633701,21.3262217],[-157.9633878,21.3261914],[-157.9634148,21.3261676],[-157.9634483,21.3261528],[-157.9634851,21.3261485],[-157.963525,21.3261562],[-157.9635597,21.3261762]]]}},{"type":"Feature","properties":{},"geometry":{"type":"Polygon","coordinates":[[[-157.9633483,21.325974],[-157.9633736,21.3260037],[-157.9633866,21.3260397],[-157.9633856,21.3260777],[-157.9633709,21.3261131],[-157.963344,21.3261417],[-157.9633083,21.3261601],[-157.9632681,21.3261661],[-157.9632315,21.3261601],[-157.9631988,21.3261439],[-157.963173,21.3261189],[-157.9631569,21.3260878],[-157.9631519,21.3260536],[-157.9631586,21.3260196],[-157.9631763,21.3259892],[-157.9632033,21.3259654],[-157.9632369,21.3259506],[-157.9632737,21.3259463],[-157.9633136,21.325954],[-157.9633483,21.325974]]]}},{"type":"Feature","properties":{},"geometry":{"type":"Polygon","coordinates":[[[-157.9630878,21.3257431],[-157.9631132,21.3257728],[-157.9631261,21.3258088],[-157.9631252,21.3258468],[-157.9631104,21.3258822],[-157.9630836,21.3259108],[-157.9630479,21.3259292],[-157.9630076,21.3259352],[-157.9629711,21.3259292],[-157.9629383,21.325913],[-157.9629126,21.325888],[-157.9628964,21.3258569],[-157.9628915,21.3258227],[-157.9628982,21.3257887],[-157.9629159,21.3257583],[-157.9629428,21.3257345],[-157.9629764,21.3257197],[-157.9630132,21.3257154],[-157.9630531,21.3257231],[-157.9630878,21.3257431]]]}},{"type":"Feature","properties":{},"geometry":{"type":"Polygon","coordinates":[[[-157.9628161,21.3260079],[-157.9628415,21.3260376],[-157.9628545,21.3260737],[-157.9628535,21.3261116],[-157.9628387,21.326147],[-157.9628119,21.3261756],[-157.9627762,21.326194],[-157.9627359,21.3262],[-157.9626994,21.326194],[-157.9626666,21.3261778],[-157.9626409,21.3261529],[-157.9626248,21.3261217],[-157.9626198,21.3260875],[-157.9626265,21.3260535],[-157.9626442,21.3260231],[-157.9626712,21.3259993],[-157.9627047,21.3259845],[-157.9627415,21.3259802],[-157.9627814,21.3259879],[-157.9628161,21.3260079]]]}},{"type":"Feature","properties":{},"geometry":{"type":"Polygon","coordinates":[[[-157.9625137,21.3261907],[-157.9625241,21.3261995],[-157.9625309,21.3262109],[-157.9625337,21.3262237],[-157.962532,21.3262366],[-157.9625261,21.3262485],[-157.9625165,21.326258],[-157.9625043,21.3262643],[-157.9624905,21.3262668],[-157.9624753,21.3262648],[-157.9624617,21.326258],[-157.9624514,21.3262474],[-157.9624456,21.3262341],[-157.962445,21.3262197],[-157.9624496,21.3262061],[-157.962459,21.3261947],[-157.962472,21.326187],[-157.9624871,21.3261838],[-157.962501,21.3261853],[-157.9625137,21.3261907]]]}},{"type":"Feature","properties":{},"geometry":{"type":"Polygon","coordinates":[[[-157.962309,21.3263725],[-157.9623193,21.3263813],[-157.9623262,21.3263927],[-157.962329,21.3264055],[-157.9623273,21.3264184],[-157.9623214,21.3264303],[-157.9623118,21.3264398],[-157.9622996,21.3264461],[-157.9622858,21.3264486],[-157.9622706,21.3264465],[-157.962257,21.3264398],[-157.9622467,21.3264291],[-157.9622409,21.3264158],[-157.9622403,21.3264015],[-157.9622449,21.3263878],[-157.9622543,21.3263765],[-157.9622673,21.3263687],[-157.9622823,21.3263656],[-157.9622963,21.3263671],[-157.962309,21.3263725]]]}},{"type":"Feature","properties":{},"geometry":{"type":"Polygon","coordinates":[[[-157.9638396,21.3269013],[-157.9635896,21.3271326],[-157.9635375,21.3270838],[-157.9637875,21.3268524],[-157.9638396,21.3269013]]]}},{"type":"Feature","properties":{},"geometry":{"type":"Polygon","coordinates":[[[-157.9637788,21.3268428],[-157.9635288,21.3270741],[-157.9634767,21.3270253],[-157.9637267,21.326794],[-157.9637788,21.3268428]]]}},{"type":"Feature","properties":{},"geometry":{"type":"Polygon","coordinates":[[[-157.9637104,21.3267754],[-157.9634605,21.3270067],[-157.9634084,21.3269579],[-157.9636584,21.3267266],[-157.9637104,21.3267754]]]}},{"type":"Feature","properties":{},"geometry":{"type":"Polygon","coordinates":[[[-157.9636482,21.3267137],[-157.9633982,21.326945],[-157.9633461,21.3268962],[-157.9635961,21.3266648],[-157.9636482,21.3267137]]]}},{"type":"Feature","properties":{},"geometry":{"type":"Polygon","coordinates":[[[-157.9635809,21.3266519],[-157.9633309,21.3268832],[-157.9632788,21.3268344],[-157.9635288,21.3266031],[-157.9635809,21.3266519]]]}},{"type":"Feature","properties":{},"geometry":{"type":"Polygon","coordinates":[[[-157.9635206,21.326592],[-157.9632706,21.3268233],[-157.9632186,21.3267745],[-157.9634685,21.3265432],[-157.9635206,21.326592]]]}},{"type":"Feature","properties":{},"geometry":{"type":"Polygon","coordinates":[[[-157.9633885,21.3265475],[-157.9631807,21.3267419],[-157.9631085,21.3266748],[-157.9633163,21.3264805],[-157.9633885,21.3265475]]]}},{"type":"Feature","properties":{},"geometry":{"type":"Polygon","coordinates":[[[-157.9633067,21.3264727],[-157.9630988,21.326667],[-157.9630266,21.3265999],[-157.9632345,21.3264057],[-157.9633067,21.3264727]]]}},{"type":"Feature","properties":{},"geometry":{"type":"Polygon","coordinates":[[[-157.9632263,21.3264034],[-157.9630185,21.3265977],[-157.9629462,21.3265307],[-157.9631541,21.3263364],[-157.9632263,21.3264034]]]}},{"type":"Feature","properties":{},"geometry":{"type":"Polygon","coordinates":[[[-157.9631489,21.3263285],[-157.9629411,21.3265229],[-157.9628689,21.3264558],[-157.9630767,21.3262615],[-157.9631489,21.3263285]]]}},{"type":"Feature","properties":{},"geometry":{"type":"Polygon","coordinates":[[[-157.9637768,21.3260732],[-157.9637366,21.3261098],[-157.9634995,21.3258832],[-157.9635397,21.3258467],[-157.9637768,21.3260732]]]}},{"type":"Feature","properties":{},"geometry":{"type":"Polygon","coordinates":[[[-157.9638302,21.3260213],[-157.9637899,21.3260579],[-157.9635528,21.3258313],[-157.963593,21.3257948],[-157.9638302,21.3260213]]]}},{"type":"Feature","properties":{},"geometry":{"type":"Polygon","coordinates":[[[-157.9638824,21.3259661],[-157.9638421,21.3260026],[-157.963605,21.325776],[-157.9636452,21.3257395],[-157.9638824,21.3259661]]]}},{"type":"Feature","properties":{},"geometry":{"type":"Polygon","coordinates":[[[-157.9986133,21.326606],[-157.9986205,21.3266352],[-157.9986223,21.3266651],[-157.9986185,21.3266948],[-157.9986092,21.3267235],[-157.9985953,21.3267495],[-157.9985769,21.3267729],[-157.9985545,21.3267932],[-157.9985288,21.3268097],[-157.9984906,21.3268255],[-157.9984416,21.3268459],[-157.9984174,21.326861],[-157.9983967,21.32688],[-157.9983799,21.3269021],[-157.9983664,21.3269306],[-157.9983596,21.326961],[-157.9983598,21.3269921],[-157.9983598,21.3270233],[-157.9983531,21.3270533],[-157.9983446,21.3270709],[-157.998333,21.327087],[-157.9982981,21.3271232],[-157.9982863,21.3271331],[-157.9982726,21.3271407],[-157.9982543,21.3271465],[-157.9982351,21.3271482],[-157.998201,21.3271516],[-157.9981667,21.327152],[-157.9981316,21.3271492],[-157.9980969,21.3271432],[-157.998071,21.3271349],[-157.9980473,21.327122],[-157.9980256,21.3271039],[-157.9980084,21.327082],[-157.9979937,21.3270595],[-157.9979762,21.3270433],[-157.9979616,21.3270355],[-157.9979454,21.3270308],[-157.9975913,21.3269946],[-157.9975637,21.3269871],[-157.9975383,21.3269745],[-157.9975164,21.3269571],[-157.9974988,21.3269358],[-157.9974846,21.3269064],[-157.9974789,21.3268747],[-157.9974819,21.3268425],[-157.9974934,21.3268122],[-157.9975119,21.3267836],[-157.997527,21.3267535],[-157.9975418,21.3267105],[-157.9975498,21.326666],[-157.9975599,21.3266304],[-157.9975752,21.3265965],[-157.9975954,21.3265648],[-157.9976243,21.3265319],[-157.9976586,21.3265038],[-157.9976973,21.3264811],[-157.9977352,21.3264668],[-157.9977751,21.3264586],[-157.9978354,21.3264511],[-157.9978683,21.3264525],[-157.9978998,21.3264611],[-157.9979301,21.3264778],[-157.9979548,21.3265011],[-157.9980098,21.3265448],[-157.9980448,21.3265678],[-157.9980837,21.3265845],[-157.9981253,21.3265945],[-157.998168,21.3265973],[-157.9982078,21.3265934],[-157.9982463,21.3265834],[-157.9982825,21.3265674],[-157.9983153,21.326546],[-157.9983437,21.3265198],[-157.9983566,21.3265021],[-157.9983719,21.3264861],[-157.9983915,21.3264703],[-157.9984134,21.3264574],[-157.9984383,21.3264484],[-157.9984647,21.326445],[-157.9984912,21.3264474],[-157.9985172,21.3264556],[-157.9985403,21.3264694],[-157.9985593,21.3264878],[-157.998573,21.3265098],[-157.9985975,21.3265583],[-157.9986133,21.326606]]]}},{"type":"Feature","properties":{},"geometry":{"type":"Polygon","coordinates":[[[-157.9972145,21.3247534],[-157.9972291,21.3247405],[-157.9972373,21.3247234],[-157.9972377,21.3247032],[-157.9972292,21.3246847],[-157.9972092,21.3246534],[-157.9971837,21.3246259],[-157.9971523,21.3246023],[-157.997117,21.3245843],[-157.9970787,21.3245725],[-157.9970388,21.3245672],[-157.9969919,21.3245635],[-157.9969616,21.3245597],[-157.9969315,21.3245647],[-157.9969086,21.3245754],[-157.9968894,21.3245911],[-157.9968752,21.3246109],[-157.9968014,21.3247396],[-157.9967909,21.3247618],[-157.9967744,21.3247806],[-157.9967532,21.3247946],[-157.996733,21.3248019],[-157.9967117,21.3248048],[-157.9966901,21.3248033],[-157.9966479,21.3248025],[-157.9966056,21.3248046],[-157.9965738,21.3248085],[-157.9965438,21.3248191],[-157.9965171,21.3248358],[-157.9964967,21.3248559],[-157.9964812,21.3248796],[-157.9964715,21.3249058],[-157.996442,21.3250007],[-157.9964279,21.3250378],[-157.9964056,21.3250712],[-157.9963763,21.3250994],[-157.9963453,21.3251192],[-157.9963109,21.3251331],[-157.9962743,21.3251408],[-157.9962368,21.3251419],[-157.9961904,21.3251397],[-157.9961443,21.3251456],[-157.9961116,21.325155],[-157.9960805,21.3251684],[-157.9960518,21.3251856],[-157.9960209,21.3252129],[-157.9959857,21.3252351],[-157.9959472,21.3252518],[-157.9959069,21.3252624],[-157.9958653,21.3252668],[-157.9958344,21.3252639],[-157.9958037,21.3252681],[-157.9957864,21.3252738],[-157.9957701,21.3252818],[-157.9957492,21.3252907],[-157.9957272,21.3252968],[-157.9957052,21.3253],[-157.995683,21.3253006],[-157.9956535,21.3253043],[-157.9956309,21.32531],[-157.9956092,21.325318],[-157.9955609,21.3253455],[-157.9955407,21.3253569],[-157.9955234,21.3253718],[-157.9955046,21.325398],[-157.9954872,21.3254292],[-157.9954626,21.3254549],[-157.9954322,21.3254742],[-157.9953983,21.3254908],[-157.9953665,21.3255104],[-157.9953248,21.3255434],[-157.9952887,21.3255816],[-157.9952149,21.3256616],[-157.995176,21.3257128],[-157.9951411,21.3257603],[-157.9949105,21.3259989],[-157.9948971,21.3260198],[-157.9948897,21.3260432],[-157.9948888,21.3260675],[-157.9948944,21.3260913],[-157.9949096,21.3261175],[-157.9949327,21.3261382],[-157.9949614,21.3261513],[-157.995003,21.3261626],[-157.9950339,21.326175],[-157.995066,21.3261913],[-157.9951192,21.3262008],[-157.9951733,21.3262013],[-157.9952239,21.3261933],[-157.9952722,21.3261773],[-157.9953168,21.3261538],[-157.9953772,21.3261151],[-157.9954026,21.3261028],[-157.9954304,21.3260965],[-157.995459,21.3260963],[-157.9954914,21.3261042],[-157.9955203,21.32612],[-157.9955435,21.3261426],[-157.9955891,21.3262762],[-157.9955945,21.3262934],[-157.9956065,21.3263075],[-157.9956209,21.3263155],[-157.9956374,21.3263187],[-157.9956655,21.3263262],[-157.9956803,21.3263374],[-157.9957071,21.3263474],[-157.9957299,21.3263437],[-157.995753,21.3263457],[-157.9957755,21.3263512],[-157.9957943,21.3263587],[-157.9958117,21.3263687],[-157.9958239,21.3263744],[-157.9958372,21.3263774],[-157.9958581,21.3263764],[-157.9958774,21.3263687],[-157.9960035,21.3263275],[-157.996036,21.3263159],[-157.9960705,21.3263125],[-157.9960987,21.326316],[-157.9961255,21.326325],[-157.9961424,21.3263317],[-157.9961604,21.326335],[-157.9961839,21.3263336],[-157.996206,21.3263262],[-157.9962457,21.3263144],[-157.9962865,21.3263062],[-157.9963312,21.3263015],[-157.9963763,21.3263012],[-157.9964259,21.3262949],[-157.9964742,21.3262825],[-157.9965386,21.3262562],[-157.9965631,21.3262459],[-157.9965828,21.3262288],[-157.9965939,21.3262108],[-157.9965994,21.3261907],[-157.9965989,21.32617],[-157.9965466,21.3260639],[-157.9965282,21.3260521],[-157.9965077,21.3260439],[-157.9964852,21.3260393],[-157.9964621,21.3260389],[-157.9963801,21.3260317],[-157.9962985,21.3260214],[-157.9961674,21.325998],[-157.9960383,21.3259664],[-157.995974,21.3259252],[-157.9959498,21.3259089],[-157.9959311,21.325884],[-157.9959029,21.325834],[-157.9958919,21.3258079],[-157.9958868,21.3257803],[-157.9958886,21.3257475],[-157.9958986,21.3257161],[-157.9959163,21.3256878],[-157.9960182,21.3255691],[-157.9960469,21.3255389],[-157.9960813,21.3255142],[-157.9961108,21.3254995],[-157.9961423,21.325489],[-157.9961751,21.3254829],[-157.9962355,21.325473],[-157.9962602,21.3254692],[-157.9962851,21.3254705],[-157.9963088,21.3254764],[-157.9963307,21.3254867],[-157.9963522,21.3254967],[-157.9963695,21.3255039],[-157.9963884,21.3255054],[-157.9964051,21.3255017],[-157.9964198,21.3254936],[-157.9964313,21.3254817],[-157.9964943,21.325423],[-157.9965378,21.325375],[-157.9965775,21.3253243],[-157.9965881,21.325302],[-157.996603,21.3252818],[-157.9966284,21.3252593],[-157.996644,21.3252464],[-157.9966579,21.3252318],[-157.9966713,21.3252138],[-157.9966821,21.3251944],[-157.9967017,21.3251567],[-157.9967255,21.3251212],[-157.9967532,21.3250882],[-157.9967912,21.3250524],[-157.9968339,21.3250214],[-157.9968805,21.3249957],[-157.9969302,21.3249757],[-157.9969946,21.3249445],[-157.9970241,21.3249208],[-157.9970428,21.3248908],[-157.9970542,21.324877],[-157.9970683,21.3248658],[-157.9970898,21.3248558],[-157.9971273,21.3248333],[-157.9971595,21.3248058],[-157.9972145,21.3247534]]]}},{"type":"Feature","properties":{},"geometry":{"type":"Polygon","coordinates":[[[-157.9884132,21.3895863],[-157.9879276,21.3895296],[-157.9878398,21.3894835],[-157.9878398,21.3894149],[-157.9878384,21.389353],[-157.9878653,21.3892726],[-157.9880224,21.3892436],[-157.9883127,21.3892014],[-157.9883877,21.389237],[-157.9884797,21.3893596],[-157.9885165,21.3894782],[-157.9884924,21.3895507],[-157.9884132,21.3895863]]]}},{"type":"Feature","properties":{},"geometry":{"type":"Polygon","coordinates":[[[-158.0125342,21.3636589],[-158.0127431,21.3635271],[-158.0128563,21.3633952],[-158.0128634,21.3632568],[-158.0128032,21.3631909],[-158.0125732,21.3631876],[-158.012329,21.3632206],[-158.0121803,21.36327],[-158.0121166,21.3633689],[-158.0123219,21.363593],[-158.0125342,21.3636589]]]}},{"type":"Feature","properties":{},"geometry":{"type":"Polygon","coordinates":[[[-158.0230829,21.3654739],[-158.023123,21.3651898],[-158.0229844,21.3647623],[-158.0226331,21.3638183],[-158.0223497,21.3641683],[-158.0220323,21.3648684],[-158.0220385,21.3650521],[-158.0225099,21.3652931],[-158.0228241,21.3654653],[-158.0230829,21.3654739]]]}},{"type":"Feature","properties":{},"geometry":{"type":"Polygon","coordinates":[[[-158.0070581,21.3550709],[-158.0071089,21.3549687],[-158.0071069,21.3548494],[-158.0070601,21.3547737],[-158.0069504,21.3547661],[-158.00686,21.3548908],[-158.0068897,21.3549744],[-158.006967,21.3550357],[-158.0070083,21.3551023],[-158.0070581,21.3550709]]]}},{"type":"Feature","properties":{},"geometry":{"type":"Polygon","coordinates":[[[-158.0226738,21.3594506],[-158.0228273,21.3592383],[-158.0228587,21.3591948],[-158.0227765,21.3590465],[-158.0226892,21.3589054],[-158.0225172,21.3589174],[-158.0224479,21.3589628],[-158.022435,21.3591254],[-158.0225249,21.359178],[-158.0226738,21.3594506]]]}},{"type":"Feature","properties":{},"geometry":{"type":"Polygon","coordinates":[[[-158.0076151,21.3793472],[-158.007701,21.3789226],[-158.008232,21.3786579],[-158.0080526,21.3781675],[-158.0072726,21.3780681],[-158.0068909,21.3781983],[-158.0064511,21.3783881],[-158.0062097,21.3779985],[-158.0062848,21.3775989],[-158.0065788,21.3771448],[-158.006426,21.3770735],[-158.0049233,21.3774764],[-158.0048042,21.3780385],[-158.0047505,21.3788027],[-158.0048686,21.3792423],[-158.0051153,21.3797469],[-158.0052172,21.3798617],[-158.0056518,21.3798468],[-158.0060863,21.3799167],[-158.0068051,21.3797419],[-158.0074548,21.3795712],[-158.0076151,21.3793472]]]}},{"type":"Feature","properties":{},"geometry":{"type":"Polygon","coordinates":[[[-157.9995995,21.3698618],[-157.9994968,21.3697234],[-157.9992986,21.3694202],[-157.9992668,21.3692751],[-157.999419,21.3691532],[-157.9999569,21.3689027],[-158.0000843,21.3689192],[-158.0002542,21.3691466],[-158.0003852,21.3694202],[-158.0003604,21.3695223],[-158.0001586,21.3696443],[-157.9997269,21.3698354],[-157.9995995,21.3698618]]]}},{"type":"Feature","properties":{},"geometry":{"type":"Polygon","coordinates":[[[-157.9925969,21.3837387],[-157.9923765,21.3833904],[-157.992457,21.3833735],[-157.9925355,21.3832993],[-157.9926421,21.3831587],[-157.99271,21.3830996],[-157.9927552,21.383065],[-157.9928055,21.3830032],[-157.9933268,21.3826446],[-157.9938909,21.3824236],[-157.9943685,21.3822028],[-157.9945958,21.382075],[-157.9948918,21.3818381],[-157.9952818,21.3815619],[-157.9957056,21.3812988],[-157.9962929,21.380937],[-157.9966012,21.3808179],[-157.9968384,21.3807473],[-157.9974454,21.3806459],[-157.997881,21.3805858],[-157.9984802,21.3805134],[-157.9989807,21.3804243],[-157.9995234,21.3803744],[-158.0000315,21.3803361],[-158.0002519,21.3803462],[-158.0005246,21.3803729],[-158.0007213,21.3804892],[-158.0008302,21.3806462],[-158.0009116,21.3808252],[-158.0009025,21.3809437],[-158.0007533,21.3809709],[-158.0007569,21.3808437],[-158.0006768,21.3807058],[-158.0005235,21.3805508],[-158.0003083,21.3804964],[-158.0001144,21.380498],[-157.9998505,21.3805639],[-157.9995844,21.3806696],[-157.9994475,21.3807392],[-157.9992278,21.3807915],[-157.9989633,21.3808361],[-157.998549,21.3808927],[-157.9982702,21.3808957],[-157.9980055,21.3809486],[-157.9974948,21.380999],[-157.9970458,21.3810794],[-157.9967898,21.3811984],[-157.9966744,21.3812291],[-157.9965918,21.3812313],[-157.9964005,21.3813486],[-157.9961677,21.3814716],[-157.9956438,21.3817925],[-157.9952292,21.382105],[-157.9948135,21.3824081],[-157.9942876,21.3826571],[-157.9939636,21.3827969],[-157.9937762,21.382872],[-157.9934636,21.3830388],[-157.9931119,21.3832765],[-157.9929504,21.3834427],[-157.9928451,21.3835787],[-157.9926796,21.3837066],[-157.9925969,21.3837387]]]}},{"type":"Feature","properties":{},"geometry":{"type":"Polygon","coordinates":[[[-157.9976855,21.3797785],[-157.9977421,21.3796605],[-157.9977654,21.3795637],[-157.9977913,21.3795111],[-157.9978559,21.37952],[-157.9979096,21.3795607],[-157.9979863,21.379781],[-157.9980269,21.3799971],[-157.9980113,21.3800785],[-157.9979709,21.3801155],[-157.9979283,21.3801308],[-157.9978714,21.3800947],[-157.9978247,21.380028],[-157.997763,21.3799585],[-157.9977184,21.3798978],[-157.9976764,21.3798837],[-157.997673,21.3798442],[-157.9976682,21.379806],[-157.9976855,21.3797785]]]}},{"type":"Feature","properties":{},"geometry":{"type":"Polygon","coordinates":[[[-157.954914,21.3641093],[-157.9549026,21.3640762],[-157.9548155,21.3640556],[-157.9548068,21.3640262],[-157.9547799,21.3640331],[-157.9547846,21.3640543],[-157.954739,21.3640812],[-157.9547236,21.3640768],[-157.9547055,21.3640906],[-157.9546995,21.3641155],[-157.9545546,21.364168],[-157.9545439,21.3641699],[-157.9545191,21.3642073],[-157.9545432,21.3642348],[-157.9546659,21.3642023],[-157.95468,21.3642042],[-157.954914,21.3641093]]]}},{"type":"Feature","properties":{},"geometry":{"type":"Polygon","coordinates":[[[-157.9499189,21.382321],[-157.9498993,21.3823207],[-157.9497883,21.3823378],[-157.949724,21.382345],[-157.9497069,21.3823503],[-157.9496881,21.3823669],[-157.9496733,21.3823719],[-157.9496529,21.3823769],[-157.9496331,21.3823769],[-157.9495815,21.3823875],[-157.9495248,21.3824046],[-157.9494853,21.3824193],[-157.9494638,21.3824346],[-157.9494242,21.3824549],[-157.9493927,21.3824615],[-157.9493471,21.3825061],[-157.9493143,21.3825514],[-157.9493119,21.3825682],[-157.9493159,21.3825813],[-157.9493515,21.3826194],[-157.9493669,21.382626],[-157.9493961,21.3826269],[-157.9494561,21.3826179],[-157.9495037,21.3826229],[-157.949563,21.3826416],[-157.9495912,21.38265],[-157.9496469,21.3826563],[-157.9497967,21.382725],[-157.9498192,21.3827212],[-157.9498487,21.382709],[-157.9498782,21.3826694],[-157.9499795,21.3824474],[-157.9499858,21.382419],[-157.9499805,21.3823928],[-157.9499687,21.3823662],[-157.9499493,21.3823419],[-157.949935,21.3823286],[-157.9499189,21.382321]]]}},{"type":"Feature","properties":{},"geometry":{"type":"Polygon","coordinates":[[[-157.942645,21.3802442],[-157.9425732,21.3802723],[-157.9424683,21.3802489],[-157.9424049,21.3801818],[-157.9423228,21.3801131],[-157.9423318,21.3800519],[-157.9423506,21.3800029],[-157.9423781,21.3799832],[-157.9424082,21.3799854],[-157.9424746,21.3800216],[-157.9424988,21.3800556],[-157.9425095,21.3800641],[-157.942535,21.3800666],[-157.9425524,21.3800897],[-157.9425702,21.3801271],[-157.9425963,21.3801465],[-157.942657,21.3801808],[-157.9426631,21.3802033],[-157.9426543,21.3802302],[-157.942645,21.3802442]]]}}]}