{"type":"FeatureCollection","features":[{"type":"Feature","properties":{},"geometry":{"type":"Polygon","coordinates":[[[-157.9537971,21.3625651],[-157.9536586,21.3624057],[-157.9538814,21.3622379],[-157.9539369,21.3621961],[-157.9544294,21.361825],[-157.9544669,21.3618681],[-157.9547062,21.3616878],[-157.9545157,21.3614686],[-157.9531846,21.3624719],[-157.9531432,21.3625031],[-157.9531072,21.3625303],[-157.9522149,21.3632028],[-157.9524073,21.3634242],[-157.9526456,21.3632446],[-157.9526059,21.3631989],[-157.9531007,21.3628261],[-157.9531549,21.3627853],[-157.9535489,21.3624884],[-157.9535594,21.3625005],[-157.9536514,21.3626065],[-157.9536873,21.3626478],[-157.9537971,21.3625651]]]}},{"type":"Feature","properties":{},"geometry":{"type":"Polygon","coordinates":[[[-157.949643,21.3646447],[-157.9497722,21.3645662],[-157.9499043,21.364486],[-157.9499387,21.364535],[-157.9496773,21.3646937],[-157.949643,21.3646447]]]}},{"type":"Feature","properties":{},"geometry":{"type":"Polygon","coordinates":[[[-157.965847,21.3662014],[-157.9667143,21.3655843],[-157.9666974,21.3655637],[-157.9666787,21.3655409],[-157.9666165,21.3655851],[-157.9665602,21.3655164],[-157.9662363,21.3657467],[-157.9661824,21.3657411],[-157.9660328,21.3655976],[-157.9659814,21.365644],[-157.9661137,21.3657709],[-157.9661111,21.36584],[-157.9658311,21.3660393],[-157.9658801,21.366099],[-157.9658061,21.3661516],[-157.9658324,21.3661836],[-157.965847,21.3662014]]]}},{"type":"Feature","properties":{},"geometry":{"type":"Polygon","coordinates":[[[-157.9638681,21.367724],[-157.9647358,21.367112],[-157.9647182,21.3670849],[-157.9646977,21.3670553],[-157.9646187,21.367103],[-157.9645744,21.3670481],[-157.9642818,21.367253],[-157.9642032,21.367251],[-157.9638622,21.3668207],[-157.9638443,21.3667411],[-157.9637332,21.3668292],[-157.9638056,21.3668654],[-157.964154,21.3672879],[-157.9641369,21.3673544],[-157.9638421,21.3675612],[-157.9638886,21.3676187],[-157.9638164,21.3676692],[-157.9638489,21.3677046],[-157.9638681,21.367724]]]}},{"type":"Feature","properties":{},"geometry":{"type":"Polygon","coordinates":[[[-157.9585248,21.3718144],[-157.9609891,21.3699512],[-157.9616628,21.3694418],[-157.9615829,21.3693502],[-157.9610234,21.3697734],[-157.9609272,21.3697668],[-157.9606828,21.3694691],[-157.9606063,21.3695236],[-157.9607137,21.3696545],[-157.9608474,21.3698173],[-157.9608464,21.3699043],[-157.9593447,21.3710393],[-157.9590017,21.3712497],[-157.9584431,21.3717207],[-157.9585248,21.3718144]]]}},{"type":"Feature","properties":{},"geometry":{"type":"LineString","coordinates":[[-157.9740503,21.3247634],[-157.9744694,21.3252295]]}},{"type":"Feature","properties":{},"geometry":{"type":"Polygon","coordinates":[[[-157.9666961,21.330284],[-157.9668014,21.3303271],[-157.9667989,21.3302961],[-157.9674096,21.3297466],[-157.9674111,21.3297324],[-157.9673954,21.3297165],[-157.9673817,21.3297027],[-157.9673694,21.3297033],[-157.9667385,21.3302742],[-157.9666961,21.330284]]]}},{"type":"Feature","properties":{},"geometry":{"type":"Polygon","coordinates":[[[-157.966134,21.3300196],[-157.9662028,21.3300726],[-157.9662043,21.3300629],[-157.9667621,21.3295374],[-157.9667598,21.3295214],[-157.9667423,21.3295063],[-157.9667303,21.329496],[-157.9667176,21.3294956],[-157.9661639,21.3300238],[-157.966134,21.3300196]]]}},{"type":"Feature","properties":{},"geometry":{"type":"Polygon","coordinates":[[[-157.9652687,21.3292214],[-157.9653538,21.3291335],[-157.9653581,21.3290808],[-157.9657407,21.328748],[-157.9657761,21.3287095],[-157.965791,21.3286797],[-157.9658079,21.3286018],[-157.9658169,21.328569],[-157.965929,21.3286706],[-157.966052,21.3285528],[-157.9660745,21.3285308],[-157.9661312,21.3285846],[-157.9661381,21.3285904],[-157.9661459,21.3285952],[-157.9661544,21.3285989],[-157.9661633,21.3286013],[-157.9661726,21.3286024],[-157.9661819,21.3286022],[-157.9661911,21.3286007],[-157.9662,21.3285979],[-157.9662083,21.3285939],[-157.9662158,21.3285888],[-157.9662224,21.3285826],[-157.9662279,21.3285756],[-157.9662323,21.3285679],[-157.9662353,21.3285597],[-157.9662369,21.3285511],[-157.9662372,21.3285424],[-157.966236,21.3285338],[-157.9660585,21.3279113],[-157.9660566,21.3279056],[-157.9660537,21.3279002],[-157.9660499,21.3278954],[-157.9660454,21.3278911],[-157.9660403,21.3278875],[-157.9660346,21.3278848],[-157.9660285,21.3278828],[-157.9660222,21.3278818],[-157.9660158,21.3278817],[-157.9660094,21.3278826],[-157.9660032,21.3278843],[-157.9659975,21.327887],[-157.9659922,21.3278904],[-157.964826,21.328972],[-157.9651987,21.3292887],[-157.9652687,21.3292214]]]}},{"type":"Feature","properties":{},"geometry":{"type":"Polygon","coordinates":[[[-157.9484914,21.3664666],[-157.9485467,21.3664308],[-157.948553,21.3663743],[-157.9485145,21.3663636],[-157.9484348,21.3664164],[-157.948435,21.3664621],[-157.9484914,21.3664666]]]}},{"type":"Feature","properties":{},"geometry":{"type":"Polygon","coordinates":[[[-157.9500919,21.365261],[-157.9501479,21.3652251],[-157.9501539,21.3651685],[-157.9501149,21.3651578],[-157.9500359,21.3652106],[-157.9500359,21.3652565],[-157.9500919,21.365261]]]}},{"type":"Feature","properties":{},"geometry":{"type":"Polygon","coordinates":[[[-157.9490723,21.36604],[-157.9491273,21.3660042],[-157.9491333,21.3659477],[-157.9490953,21.365937],[-157.9490153,21.3659898],[-157.9490153,21.3660355],[-157.9490723,21.36604]]]}},{"type":"Feature","properties":{},"geometry":{"type":"Polygon","coordinates":[[[-157.9506676,21.3648317],[-157.9507226,21.364796],[-157.9507286,21.3647397],[-157.9506906,21.3647291],[-157.9506116,21.3647818],[-157.9506116,21.3648273],[-157.9506676,21.3648317]]]}},{"type":"Feature","properties":{},"geometry":{"type":"Polygon","coordinates":[[[-157.9517073,21.3640522],[-157.9517623,21.3640166],[-157.9517683,21.3639609],[-157.9517313,21.3639505],[-157.9516523,21.3640029],[-157.9516523,21.3640477],[-157.9517073,21.3640522]]]}},{"type":"Feature","properties":{},"geometry":{"type":"Polygon","coordinates":[[[-157.9579284,21.3600376],[-157.9579954,21.3600301],[-157.958033,21.3599776],[-157.9580061,21.3599127],[-157.9579636,21.3599254],[-157.9579214,21.3599929],[-157.9579284,21.3600376]]]}},{"type":"Feature","properties":{},"geometry":{"type":"Polygon","coordinates":[[[-157.9590628,21.3583063],[-157.9591215,21.3582062],[-157.9591027,21.3581512],[-157.9590625,21.3581587],[-157.9589905,21.3582739],[-157.9589954,21.3583211],[-157.9590628,21.3583063]]]}},{"type":"Feature","properties":{},"geometry":{"type":"Polygon","coordinates":[[[-157.9522834,21.3636156],[-157.9523374,21.3635804],[-157.9523434,21.3635256],[-157.9523064,21.3635155],[-157.9522284,21.3635675],[-157.9522284,21.3636113],[-157.9522834,21.3636156]]]}},{"type":"Feature","properties":{},"geometry":{"type":"Polygon","coordinates":[[[-157.9582946,21.3594402],[-157.9583641,21.3594324],[-157.9584026,21.3593787],[-157.9583749,21.3593115],[-157.9583302,21.3593249],[-157.9582873,21.3593934],[-157.9582946,21.3594402]]]}},{"type":"Feature","properties":{},"geometry":{"type":"Polygon","coordinates":[[[-157.9398495,21.3663764],[-157.9395971,21.3662864],[-157.9393527,21.3661991],[-157.9393384,21.3662337],[-157.939669,21.3663516],[-157.9396348,21.3664349],[-157.9396503,21.3664401],[-157.9396628,21.3664443],[-157.9396953,21.366365],[-157.9398338,21.3664145],[-157.9398495,21.3663764]]]}},{"type":"Feature","properties":{},"geometry":{"type":"Polygon","coordinates":[[[-157.9666372,21.3787055],[-157.9666151,21.3787054],[-157.9663819,21.3787043],[-157.9663125,21.3787797],[-157.9663157,21.3793352],[-157.9663168,21.3795291],[-157.9662631,21.3795294],[-157.966184,21.3795298],[-157.9661795,21.3787743],[-157.9661245,21.3787258],[-157.9658828,21.3787234],[-157.9658848,21.3785511],[-157.9661245,21.3785535],[-157.9661737,21.3785077],[-157.966179,21.3777427],[-157.9662587,21.3777432],[-157.9663148,21.3777435],[-157.9663135,21.3779408],[-157.9663096,21.3784943],[-157.9663761,21.378567],[-157.9666104,21.3785681],[-157.966638,21.3785682],[-157.9666376,21.3786287],[-157.9666372,21.3787055]]]}},{"type":"Feature","properties":{},"geometry":{"type":"Polygon","coordinates":[[[-157.9753287,21.3639186],[-157.974606,21.3636713],[-157.9741737,21.3635964],[-157.9741754,21.3635859],[-157.9741326,21.36358],[-157.9741217,21.3636481],[-157.9741534,21.3636525],[-157.9738178,21.3654749],[-157.9738186,21.3655399],[-157.9738439,21.3655425],[-157.973882,21.3654854],[-157.9742055,21.3636992],[-157.9742445,21.3636856],[-157.9744608,21.3637295],[-157.9744803,21.3637631],[-157.9741603,21.3655366],[-157.9741725,21.3655964],[-157.9742022,21.3656],[-157.9742195,21.3655471],[-157.9745423,21.363795],[-157.9745921,21.3637296],[-157.9753118,21.363965],[-157.9753201,21.3639422],[-157.9753287,21.3639186]]]}},{"type":"Feature","properties":{},"geometry":{"type":"Polygon","coordinates":[[[-157.9656722,21.3663166],[-157.9656288,21.3662599],[-157.9656868,21.3662214],[-157.9657214,21.3662667],[-157.9657302,21.3662782],[-157.9656722,21.3663166]]]}},{"type":"Feature","properties":{},"geometry":{"type":"Polygon","coordinates":[[[-157.9668778,21.3654544],[-157.966836,21.3654011],[-157.966778,21.3654406],[-157.9668114,21.3654833],[-157.9668197,21.3654939],[-157.9668778,21.3654544]]]}},{"type":"Feature","properties":{},"geometry":{"type":"Polygon","coordinates":[[[-157.9636886,21.3678353],[-157.9636453,21.3677813],[-157.9637008,21.3677427],[-157.9637353,21.3677858],[-157.9637441,21.3677967],[-157.9636886,21.3678353]]]}},{"type":"Feature","properties":{},"geometry":{"type":"Polygon","coordinates":[[[-157.9648392,21.3670107],[-157.9648303,21.3670005],[-157.9647959,21.3669607],[-157.9648487,21.366921],[-157.9648921,21.3669711],[-157.9648392,21.3670107]]]}},{"type":"Feature","properties":{},"geometry":{"type":"LineString","coordinates":[[-157.9377822,21.3710567],[-157.936993,21.370338]]}},{"type":"Feature","properties":{},"geometry":{"type":"LineString","coordinates":[[-157.9380624,21.3706183],[-157.9373297,21.3699657]]}},{"type":"Feature","properties":{},"geometry":{"type":"Polygon","coordinates":[[[-157.9458477,21.3691939],[-157.9458477,21.3689057],[-157.9457695,21.3689057],[-157.9457696,21.3691939],[-157.9458477,21.3691939]]]}},{"type":"Feature","properties":{},"geometry":{"type":"Polygon","coordinates":[[[-157.9438477,21.3693254],[-157.9438478,21.3690372],[-157.9437696,21.3690372],[-157.9437697,21.3693254],[-157.9438477,21.3693254]]]}},{"type":"Feature","properties":{},"geometry":{"type":"Polygon","coordinates":[[[-157.9621755,21.3688362],[-157.9621073,21.3688883],[-157.9621034,21.3688839],[-157.9620855,21.3688976],[-157.9619388,21.3687309],[-157.9619642,21.3687231],[-157.9620842,21.3688594],[-157.962151,21.3688084],[-157.9621755,21.3688362]]]}},{"type":"Feature","properties":{},"geometry":{"type":"Polygon","coordinates":[[[-157.9640216,21.3259986],[-157.9642681,21.3259027],[-157.965144,21.3255617],[-157.9656908,21.3253488],[-157.9657349,21.3253316],[-157.9656848,21.32522],[-157.9655619,21.3252679],[-157.9640181,21.3258692],[-157.9640216,21.3259986]]]}},{"type":"Feature","properties":{},"geometry":{"type":"Polygon","coordinates":[[[-157.965144,21.3255617],[-157.9651571,21.3255921],[-157.9657067,21.3253855],[-157.9656908,21.3253488],[-157.965144,21.3255617]]]}},{"type":"Feature","properties":{},"geometry":{"type":"Polygon","coordinates":[[[-157.9706485,21.3261155],[-157.9705621,21.3257909],[-157.9704821,21.3258093],[-157.9705888,21.3262105],[-157.9707348,21.3261768],[-157.9707145,21.3261002],[-157.9706485,21.3261155]]]}},{"type":"Feature","properties":{},"geometry":{"type":"Polygon","coordinates":[[[-157.9727823,21.3321505],[-157.9728261,21.331614],[-157.9728126,21.331613],[-157.9727943,21.3316117],[-157.9727505,21.3321482],[-157.9727823,21.3321505]]]}},{"type":"Feature","properties":{},"geometry":{"type":"Polygon","coordinates":[[[-157.9730876,21.3343688],[-157.9730858,21.3343301],[-157.9729445,21.3343357],[-157.9729463,21.3343744],[-157.9730876,21.3343688]]]}},{"type":"Feature","properties":{},"geometry":{"type":"Polygon","coordinates":[[[-157.9729016,21.334377],[-157.9728999,21.3343395],[-157.9728233,21.3343425],[-157.972825,21.33438],[-157.9729016,21.334377]]]}},{"type":"Feature","properties":{},"geometry":{"type":"Polygon","coordinates":[[[-157.9728872,21.3343268],[-157.9728867,21.3343043],[-157.9729209,21.3343035],[-157.9729207,21.3342883],[-157.9728871,21.3342887],[-157.9728857,21.3342233],[-157.9728181,21.3342246],[-157.9728204,21.3343281],[-157.9728872,21.3343268]]]}},{"type":"Feature","properties":{},"geometry":{"type":"Polygon","coordinates":[[[-157.9730066,21.3343193],[-157.9730054,21.3342159],[-157.9729371,21.3342167],[-157.972938,21.3342882],[-157.9729207,21.3342883],[-157.9729209,21.3343035],[-157.9729407,21.3343033],[-157.9729409,21.33432],[-157.9730066,21.3343193]]]}},{"type":"Feature","properties":{},"geometry":{"type":"Polygon","coordinates":[[[-157.9658603,21.3297679],[-157.9659408,21.3296933],[-157.9659073,21.3296619],[-157.9658666,21.3296996],[-157.9657886,21.3296265],[-157.9658295,21.3295886],[-157.965794,21.3295554],[-157.9657132,21.3296302],[-157.9658603,21.3297679]]]}},{"type":"Feature","properties":{},"geometry":{"type":"Polygon","coordinates":[[[-157.9675011,21.3296447],[-157.9674893,21.3296345],[-157.9674804,21.3296267],[-157.9674984,21.3296087],[-157.9675191,21.3296268],[-157.9675011,21.3296447]]]}},{"type":"Feature","properties":{},"geometry":{"type":"Polygon","coordinates":[[[-157.9669746,21.3293184],[-157.9669603,21.3293059],[-157.9669539,21.3293004],[-157.9669719,21.3292824],[-157.9669926,21.3293005],[-157.9669746,21.3293184]]]}},{"type":"Feature","properties":{},"geometry":{"type":"Polygon","coordinates":[[[-157.9668476,21.3294339],[-157.9668339,21.3294221],[-157.9668268,21.3294159],[-157.9668448,21.3293979],[-157.9668535,21.3294055],[-157.9668656,21.329416],[-157.9668476,21.3294339]]]}},{"type":"Feature","properties":{},"geometry":{"type":"Polygon","coordinates":[[[-157.9653746,21.3439205],[-157.9653512,21.3438833],[-157.9653829,21.343866],[-157.9654059,21.3438535],[-157.9653538,21.3437988],[-157.9652875,21.3437458],[-157.9652571,21.3437334],[-157.9652041,21.3437105],[-157.9651453,21.3436972],[-157.9650667,21.3436893],[-157.9649965,21.3436893],[-157.9649135,21.3436897],[-157.964931,21.3436249],[-157.9649871,21.3436261],[-157.9650562,21.3436231],[-157.9651501,21.3436266],[-157.9652496,21.3436549],[-157.9653244,21.3436911],[-157.9653832,21.343729],[-157.9654618,21.3438102],[-157.965494,21.3438632],[-157.9656466,21.3440971],[-157.9658323,21.3443919],[-157.9660124,21.3446752],[-157.9661384,21.3448817],[-157.9661735,21.3449417],[-157.9662019,21.3450009],[-157.9662152,21.3450547],[-157.9662209,21.3451112],[-157.9662218,21.3451509],[-157.9661517,21.3452171],[-157.9661413,21.3452092],[-157.9661403,21.3451597],[-157.9661394,21.3450812],[-157.966127,21.3450282],[-157.9661043,21.3449744],[-157.9660543,21.3450016],[-157.9659465,21.3448301],[-157.9653746,21.3439205]]]}},{"type":"Feature","properties":{},"geometry":{"type":"Polygon","coordinates":[[[-157.9648591,21.3431886],[-157.9649248,21.3431777],[-157.9649465,21.3432916],[-157.9648807,21.3433025],[-157.9648591,21.3431886]]]}},{"type":"Feature","properties":{},"geometry":{"type":"LineString","coordinates":[[-157.9648794,21.3433449],[-157.9649244,21.3433519]]}},{"type":"Feature","properties":{},"geometry":{"type":"Polygon","coordinates":[[[-157.9501404,21.3672398],[-157.9501537,21.367227],[-157.9506802,21.3677005],[-157.9507002,21.3676813],[-157.9501019,21.3671434],[-157.9500821,21.3671626],[-157.9500688,21.3671754],[-157.9501404,21.3672398]]]}},{"type":"Feature","properties":{},"geometry":{"type":"Polygon","coordinates":[[[-157.9500459,21.3671667],[-157.9500889,21.3671223],[-157.9500412,21.3670822],[-157.9499982,21.3671266],[-157.9500459,21.3671667]]]}},{"type":"Feature","properties":{},"geometry":{"type":"LineString","coordinates":[[-157.9579521,21.3618092],[-157.9580246,21.3616991],[-157.9580691,21.3616316],[-157.958112,21.3615664],[-157.9581546,21.3615017],[-157.9582447,21.361365],[-157.9582915,21.361294],[-157.9583419,21.3612174],[-157.9585154,21.3609531],[-157.9585621,21.3608794],[-157.9586256,21.3607793],[-157.9584263,21.3606695]]}},{"type":"Feature","properties":{},"geometry":{"type":"LineString","coordinates":[[-157.9580307,21.3617947],[-157.9578792,21.361707]]}},{"type":"Feature","properties":{},"geometry":{"type":"LineString","coordinates":[[-157.957949,21.3618369],[-157.9578819,21.3618435],[-157.9578204,21.3618495],[-157.9577651,21.3618548],[-157.9577183,21.3618594],[-157.9577082,21.3617793]]}},{"type":"Feature","properties":{},"geometry":{"type":"LineString","coordinates":[[-157.9578819,21.3618435],[-157.9578739,21.361767]]}},{"type":"Feature","properties":{},"geometry":{"type":"LineString","coordinates":[[-157.9578204,21.3618495],[-157.9578148,21.3617707]]}},{"type":"Feature","properties":{},"geometry":{"type":"LineString","coordinates":[[-157.9577651,21.3618548],[-157.9577545,21.361772]]}},{"type":"Feature","properties":{},"geometry":{"type":"LineString","coordinates":[[-157.9585621,21.3608794],[-157.9584613,21.360824]]}},{"type":"Feature","properties":{},"geometry":{"type":"LineString","coordinates":[[-157.9582915,21.361294],[-157.9581877,21.3612337]]}},{"type":"Feature","properties":{},"geometry":{"type":"LineString","coordinates":[[-157.9582447,21.361365],[-157.9581434,21.3613011]]}},{"type":"Feature","properties":{},"geometry":{"type":"LineString","coordinates":[[-157.9581546,21.3615017],[-157.9580509,21.3614435]]}},{"type":"Feature","properties":{},"geometry":{"type":"LineString","coordinates":[[-157.958112,21.3615664],[-157.958008,21.361506]]}},{"type":"Feature","properties":{},"geometry":{"type":"LineString","coordinates":[[-157.9580691,21.3616316],[-157.9579664,21.3615759]]}},{"type":"Feature","properties":{},"geometry":{"type":"LineString","coordinates":[[-157.9580246,21.3616991],[-157.9579208,21.3616408]]}},{"type":"Feature","properties":{},"geometry":{"type":"LineString","coordinates":[[-157.9574467,21.3618869],[-157.9574063,21.3618906],[-157.9573449,21.3618963],[-157.9572121,21.3619086],[-157.9572021,21.3619006]]}},{"type":"Feature","properties":{},"geometry":{"type":"LineString","coordinates":[[-157.9567653,21.3617359],[-157.9568845,21.3617885],[-157.9569881,21.361833],[-157.9570826,21.3618759],[-157.9571902,21.3619228]]}},{"type":"Feature","properties":{},"geometry":{"type":"LineString","coordinates":[[-157.9571902,21.3619228],[-157.9572021,21.3619006],[-157.957293,21.3617325]]}},{"type":"Feature","properties":{},"geometry":{"type":"LineString","coordinates":[[-157.9569881,21.361833],[-157.9570922,21.3616448]]}},{"type":"Feature","properties":{},"geometry":{"type":"LineString","coordinates":[[-157.9570826,21.3618759],[-157.9571917,21.3616836]]}},{"type":"Feature","properties":{},"geometry":{"type":"LineString","coordinates":[[-157.9559165,21.3617244],[-157.9557843,21.3617476],[-157.9556523,21.3617651],[-157.9556313,21.3616238]]}},{"type":"Feature","properties":{},"geometry":{"type":"LineString","coordinates":[[-157.9557843,21.3617476],[-157.955762,21.3616009]]}},{"type":"Feature","properties":{},"geometry":{"type":"LineString","coordinates":[[-157.9574063,21.3618906],[-157.9573979,21.3618088]]}},{"type":"Feature","properties":{},"geometry":{"type":"LineString","coordinates":[[-157.9573449,21.3618963],[-157.9573377,21.3618203]]}},{"type":"Feature","properties":{},"geometry":{"type":"Polygon","coordinates":[[[-157.9643024,21.3516227],[-157.9643469,21.3516152],[-157.9643959,21.3518665],[-157.9643515,21.351874],[-157.9643024,21.3516227]]]}},{"type":"Feature","properties":{},"geometry":{"type":"Polygon","coordinates":[[[-157.9635123,21.3523554],[-157.9635011,21.3522967],[-157.9632694,21.3523469],[-157.9630376,21.3523744],[-157.9629025,21.3523857],[-157.9628008,21.3524141],[-157.96275,21.3524283],[-157.9627104,21.352434],[-157.9626677,21.3524416],[-157.9625721,21.3523829],[-157.9625386,21.3524028],[-157.9625406,21.3524311],[-157.9625691,21.3524737],[-157.9626819,21.3525069],[-157.9633283,21.3523971],[-157.9635123,21.3523554]]]}},{"type":"Feature","properties":{},"geometry":{"type":"Polygon","coordinates":[[[-157.9627087,21.3519639],[-157.9627394,21.3519808],[-157.962674,21.3520863],[-157.9626218,21.3521984],[-157.9625802,21.3523014],[-157.9625731,21.3523203],[-157.9625669,21.3523541],[-157.9625721,21.3523829],[-157.9625386,21.3524028],[-157.96252,21.3523937],[-157.962512,21.3523657],[-157.9625129,21.3523236],[-157.9625589,21.3521951],[-157.962674,21.3520171],[-157.9627087,21.3519639]]]}},{"type":"Feature","properties":{},"geometry":{"type":"Polygon","coordinates":[[[-157.958403,21.3526751],[-157.9588081,21.3520658],[-157.9589555,21.3521486],[-157.9589137,21.3521815],[-157.958204,21.3532551],[-157.958173,21.3532626],[-157.958086,21.3532123],[-157.958074,21.3531804],[-157.958403,21.3526751]]]}},{"type":"Feature","properties":{},"geometry":{"type":"Polygon","coordinates":[[[-157.9548857,21.3556088],[-157.9551103,21.3557349],[-157.9543318,21.3569367],[-157.9541073,21.3568106],[-157.9548857,21.3556088]]]}},{"type":"Feature","properties":{},"geometry":{"type":"Polygon","coordinates":[[[-157.9539441,21.3553504],[-157.9540371,21.3554034],[-157.9533835,21.3564002],[-157.9532903,21.3563472],[-157.9539441,21.3553504]]]}},{"type":"Feature","properties":{},"geometry":{"type":"Polygon","coordinates":[[[-157.9537655,21.3552469],[-157.9536438,21.3551788],[-157.952751,21.356563],[-157.9528674,21.3566302],[-157.9537655,21.3552469]]]}},{"type":"Feature","properties":{},"geometry":{"type":"Polygon","coordinates":[[[-157.9530102,21.3545485],[-157.9527547,21.3544063],[-157.9517542,21.3559651],[-157.9517554,21.3559854],[-157.951984,21.3561173],[-157.9520049,21.3561147],[-157.9530102,21.3545485]]]}},{"type":"Feature","properties":{},"geometry":{"type":"Polygon","coordinates":[[[-157.9511454,21.3552888],[-157.9527468,21.3528776],[-157.952709,21.352856],[-157.9526793,21.3528391],[-157.9526519,21.3528234],[-157.9525781,21.3527813],[-157.9525543,21.3527677],[-157.9525262,21.3527517],[-157.952492,21.3527322],[-157.9508848,21.3551512],[-157.9508964,21.3551729],[-157.9511169,21.3552953],[-157.9511454,21.3552888]]]}},{"type":"Feature","properties":{},"geometry":{"type":"Polygon","coordinates":[[[-157.9439968,21.3548473],[-157.9440356,21.3546827],[-157.9448995,21.3537015],[-157.9450935,21.3538556],[-157.9442076,21.3548386],[-157.944067,21.354889],[-157.9434478,21.3555846],[-157.943409,21.3555502],[-157.9433732,21.3555219],[-157.9434697,21.3554066],[-157.9439968,21.3548473]]]}},{"type":"Feature","properties":{},"geometry":{"type":"LineString","coordinates":[[-157.9400082,21.3530873],[-157.9399967,21.3529748],[-157.9399884,21.3528941],[-157.9399795,21.3528067]]}},{"type":"Feature","properties":{},"geometry":{"type":"LineString","coordinates":[[-157.9399884,21.3528941],[-157.9402622,21.3528752]]}},{"type":"Feature","properties":{},"geometry":{"type":"LineString","coordinates":[[-157.9399967,21.3529748],[-157.940162,21.3529662]]}},{"type":"Feature","properties":{},"geometry":{"type":"LineString","coordinates":[[-157.9401919,21.3531259],[-157.9403291,21.3531151]]}},{"type":"Feature","properties":{},"geometry":{"type":"Polygon","coordinates":[[[-157.9414791,21.3595306],[-157.942263,21.3586523],[-157.9423221,21.3585861],[-157.9422626,21.3585401],[-157.9414199,21.3594838],[-157.9414791,21.3595306]]]}},{"type":"Feature","properties":{},"geometry":{"type":"Polygon","coordinates":[[[-157.9410477,21.3591899],[-157.9417013,21.3584626],[-157.941821,21.3583293],[-157.9418919,21.3582504],[-157.9418326,21.3582042],[-157.9417628,21.3582819],[-157.941643,21.3584152],[-157.9409886,21.3591432],[-157.9410477,21.3591899]]]}},{"type":"Feature","properties":{},"geometry":{"type":"LineString","coordinates":[[-157.9417747,21.3596283],[-157.9417037,21.3597075],[-157.9416631,21.3596759],[-157.9416178,21.3596407],[-157.9415601,21.3595958],[-157.9415126,21.3595588],[-157.9415809,21.3594826]]}},{"type":"Feature","properties":{},"geometry":{"type":"LineString","coordinates":[[-157.9416631,21.3596759],[-157.9417292,21.3595957]]}},{"type":"Feature","properties":{},"geometry":{"type":"LineString","coordinates":[[-157.9416178,21.3596407],[-157.9416837,21.3595609]]}},{"type":"Feature","properties":{},"geometry":{"type":"LineString","coordinates":[[-157.9415601,21.3595958],[-157.941623,21.359512]]}},{"type":"Feature","properties":{},"geometry":{"type":"LineString","coordinates":[[-157.9414036,21.359471],[-157.9413668,21.3594419],[-157.9413324,21.3594147],[-157.9412319,21.3593353]]}},{"type":"Feature","properties":{},"geometry":{"type":"LineString","coordinates":[[-157.9413324,21.3594147],[-157.9413976,21.3593358]]}},{"type":"Feature","properties":{},"geometry":{"type":"LineString","coordinates":[[-157.9413668,21.3594419],[-157.9414397,21.3593674]]}},{"type":"Feature","properties":{},"geometry":{"type":"Polygon","coordinates":[[[-157.9453885,21.3612234],[-157.9471912,21.3604937],[-157.9470068,21.3601136],[-157.9453848,21.3607582],[-157.9453885,21.3612234]]]}},{"type":"Feature","properties":{},"geometry":{"type":"Polygon","coordinates":[[[-157.9421628,21.3633167],[-157.9421742,21.3633429],[-157.9421622,21.3633747],[-157.9421447,21.3633841],[-157.942134,21.3633785],[-157.9421226,21.3633554],[-157.942134,21.3633279],[-157.9421443,21.3633239],[-157.9421628,21.3633167]]]}},{"type":"Feature","properties":{},"geometry":{"type":"Polygon","coordinates":[[[-157.9405865,21.3653248],[-157.9406249,21.3653019],[-157.9441874,21.3638849],[-157.9442507,21.3640229],[-157.9406569,21.3654507],[-157.9406462,21.365455],[-157.9405865,21.3653248]]]}},{"type":"Feature","properties":{},"geometry":{"type":"Polygon","coordinates":[[[-157.9394152,21.3673976],[-157.9394569,21.3673352],[-157.9394992,21.3673122],[-157.9396379,21.3673079],[-157.9397141,21.367285],[-157.9397896,21.3672269],[-157.9398297,21.3671594],[-157.9398659,21.3670404],[-157.9399013,21.3669643],[-157.939936,21.3668912],[-157.9400122,21.3667154],[-157.9400199,21.3666329],[-157.9400169,21.3665928],[-157.9399414,21.3665547],[-157.9398736,21.3665304],[-157.939795,21.3665096],[-157.9397496,21.3665031],[-157.9396724,21.3664854],[-157.9396854,21.3664518],[-157.9396995,21.3664321],[-157.9398859,21.3664952],[-157.9400307,21.3665497],[-157.9400692,21.3665655],[-157.9400862,21.3665949],[-157.9400685,21.3666717],[-157.9399753,21.366884],[-157.9397904,21.3673768],[-157.9397203,21.3673732],[-157.9396394,21.3673603],[-157.93949,21.3673495],[-157.9394152,21.3673976]]]}},{"type":"Feature","properties":{},"geometry":{"type":"LineString","coordinates":[[-157.9366617,21.3706652],[-157.9373678,21.3713175]]}},{"type":"Feature","properties":{},"geometry":{"type":"LineString","coordinates":[[-157.9373054,21.3713796],[-157.9373678,21.3713175],[-157.9374382,21.3712472]]}},{"type":"Feature","properties":{},"geometry":{"type":"LineString","coordinates":[[-157.9376809,21.3711548],[-157.9377822,21.3710567],[-157.9378808,21.3709612]]}},{"type":"Feature","properties":{},"geometry":{"type":"LineString","coordinates":[[-157.9379532,21.3707252],[-157.9380624,21.3706183],[-157.9381624,21.3705204]]}},{"type":"Feature","properties":{},"geometry":{"type":"Polygon","coordinates":[[[-157.9361465,21.3714425],[-157.9361757,21.3713376],[-157.936122,21.3713246],[-157.936104,21.3713203],[-157.9360748,21.3714253],[-157.9361465,21.3714425]]]}},{"type":"Feature","properties":{},"geometry":{"type":"LineString","coordinates":[[-157.9358898,21.3719581],[-157.9361667,21.372104],[-157.9361912,21.3720638],[-157.9363045,21.3720018],[-157.9363196,21.3720246]]}},{"type":"Feature","properties":{},"geometry":{"type":"LineString","coordinates":[[-157.936291,21.3711663],[-157.9363458,21.3710764]]}},{"type":"Feature","properties":{},"geometry":{"type":"LineString","coordinates":[[-157.9357646,21.3715991],[-157.935951,21.3716945]]}},{"type":"Feature","properties":{},"geometry":{"type":"Polygon","coordinates":[[[-157.9358646,21.3719989],[-157.9358898,21.3719581],[-157.9359194,21.3719105],[-157.9357179,21.3718022],[-157.935694,21.3718407],[-157.9356646,21.3718882],[-157.9356771,21.3718949],[-157.9357632,21.3719412],[-157.9357802,21.3719139],[-157.9358053,21.3719274],[-157.9357869,21.3719571],[-157.9358646,21.3719989]]]}},{"type":"Feature","properties":{},"geometry":{"type":"LineString","coordinates":[[-157.9356771,21.3718949],[-157.9356324,21.371969]]}},{"type":"Feature","properties":{},"geometry":{"type":"Polygon","coordinates":[[[-157.9360181,21.3729691],[-157.9360551,21.37297],[-157.9360516,21.3730838],[-157.9360145,21.3730828],[-157.9360181,21.3729691]]]}},{"type":"Feature","properties":{},"geometry":{"type":"Polygon","coordinates":[[[-157.9345164,21.3741836],[-157.934644,21.3742444],[-157.9346157,21.374293],[-157.9344873,21.374233],[-157.9345164,21.3741836]]]}},{"type":"Feature","properties":{},"geometry":{"type":"LineString","coordinates":[[-157.9345621,21.3740305],[-157.9346564,21.3738555]]}},{"type":"Feature","properties":{},"geometry":{"type":"Polygon","coordinates":[[[-157.961686,21.3687884],[-157.9616175,21.3688138],[-157.9616527,21.3688962],[-157.9617212,21.3688708],[-157.961686,21.3687884]]]}},{"type":"Feature","properties":{},"geometry":{"type":"Polygon","coordinates":[[[-157.9667705,21.364629],[-157.9668314,21.3646863],[-157.9670115,21.3645202],[-157.9670369,21.3645441],[-157.9668569,21.3647101],[-157.9669094,21.3647595],[-157.9670845,21.364598],[-157.9671055,21.3646178],[-157.9668867,21.3648196],[-157.9667269,21.3646693],[-157.9667518,21.3646463],[-157.9667705,21.364629]]]}},{"type":"Feature","properties":{},"geometry":{"type":"LineString","coordinates":[[-157.9680177,21.3626839],[-157.9681444,21.3627649]]}},{"type":"Feature","properties":{},"geometry":{"type":"LineString","coordinates":[[-157.9687625,21.3606729],[-157.9689059,21.3606638]]}},{"type":"Feature","properties":{},"geometry":{"type":"Polygon","coordinates":[[[-157.9660774,21.3566345],[-157.966113,21.356635],[-157.9661571,21.3566356],[-157.9661477,21.3572228],[-157.9661207,21.3572223],[-157.9660677,21.3572213],[-157.9660765,21.3566694],[-157.9660774,21.3566345]]]}},{"type":"Feature","properties":{},"geometry":{"type":"Polygon","coordinates":[[[-157.9597697,21.3574805],[-157.9598668,21.3573295],[-157.9597357,21.3572564],[-157.9597001,21.3573116],[-157.9596834,21.3573023],[-157.9596627,21.3572446],[-157.9596177,21.3572474],[-157.9595432,21.3573661],[-157.9595585,21.3574209],[-157.9596219,21.357398],[-157.9597222,21.357454],[-157.9597697,21.3574805]]]}},{"type":"Feature","properties":{},"geometry":{"type":"Polygon","coordinates":[[[-157.9593442,21.358811],[-157.9594795,21.3581254],[-157.9594489,21.3581202],[-157.9593137,21.3588058],[-157.9593442,21.358811]]]}},{"type":"Feature","properties":{},"geometry":{"type":"Polygon","coordinates":[[[-157.9476647,21.3676856],[-157.947676,21.3676543],[-157.9476398,21.3676431],[-157.9476286,21.3676744],[-157.9476647,21.3676856]]]}},{"type":"Feature","properties":{},"geometry":{"type":"Polygon","coordinates":[[[-157.9879002,21.3486577],[-157.9879002,21.3487876],[-157.9912856,21.3487872],[-157.9912856,21.3487169],[-157.9908419,21.3487169],[-157.9908419,21.3486579],[-157.9879002,21.3486577]]]}},{"type":"Feature","properties":{},"geometry":{"type":"Polygon","coordinates":[[[-157.9928479,21.3503865],[-157.992853,21.350389],[-157.9928586,21.3503898],[-157.9928642,21.3503889],[-157.9928692,21.3503863],[-157.9928731,21.3503824],[-157.9928753,21.3503775],[-157.9928757,21.3503723],[-157.9928742,21.3503671],[-157.9928711,21.3503628],[-157.9928666,21.3503595],[-157.9928612,21.3503579],[-157.9928556,21.3503579],[-157.9928502,21.3503596],[-157.9928457,21.3503629],[-157.9928426,21.3503673],[-157.9928412,21.3503724],[-157.9928417,21.3503777],[-157.992844,21.3503826],[-157.9928479,21.3503865]]]}},{"type":"Feature","properties":{},"geometry":{"type":"Polygon","coordinates":[[[-157.9927046,21.3503461],[-157.9927096,21.3503486],[-157.9927153,21.3503495],[-157.9927209,21.3503485],[-157.9927259,21.350346],[-157.9927297,21.350342],[-157.9927319,21.3503371],[-157.9927323,21.3503319],[-157.9927309,21.3503268],[-157.9927278,21.3503224],[-157.9927233,21.3503192],[-157.9927179,21.3503175],[-157.9927122,21.3503175],[-157.9927069,21.3503192],[-157.9927024,21.3503225],[-157.9926993,21.3503269],[-157.9926979,21.3503321],[-157.9926984,21.3503374],[-157.9927007,21.3503422],[-157.9927046,21.3503461]]]}},{"type":"Feature","properties":{},"geometry":{"type":"Polygon","coordinates":[[[-157.9927011,21.3505686],[-157.9927061,21.3505711],[-157.9927117,21.350572],[-157.9927174,21.350571],[-157.9927224,21.3505685],[-157.9927262,21.3505645],[-157.9927284,21.3505596],[-157.9927288,21.3505544],[-157.9927274,21.3505493],[-157.9927242,21.3505449],[-157.9927197,21.3505417],[-157.9927143,21.35054],[-157.9927087,21.35054],[-157.9927033,21.3505417],[-157.9926989,21.350545],[-157.9926958,21.3505494],[-157.9926944,21.3505546],[-157.9926949,21.3505599],[-157.9926972,21.3505647],[-157.9927011,21.3505686]]]}},{"type":"Feature","properties":{},"geometry":{"type":"Polygon","coordinates":[[[-157.9928426,21.3505711],[-157.9928477,21.3505736],[-157.9928533,21.3505744],[-157.9928589,21.3505735],[-157.9928639,21.3505709],[-157.9928678,21.350567],[-157.99287,21.3505621],[-157.9928704,21.3505568],[-157.9928689,21.3505517],[-157.9928658,21.3505473],[-157.9928613,21.3505441],[-157.9928559,21.3505424],[-157.9928502,21.3505425],[-157.9928449,21.3505442],[-157.9928404,21.3505475],[-157.9928373,21.3505519],[-157.9928359,21.350557],[-157.9928364,21.3505623],[-157.9928387,21.3505672],[-157.9928426,21.3505711]]]}},{"type":"Feature","properties":{},"geometry":{"type":"Polygon","coordinates":[[[-157.9929568,21.350403],[-157.9929618,21.3504055],[-157.9929674,21.3504063],[-157.9929731,21.3504054],[-157.9929781,21.3504028],[-157.9929819,21.3503989],[-157.9929841,21.350394],[-157.9929845,21.3503887],[-157.9929831,21.3503836],[-157.9929799,21.3503792],[-157.9929754,21.350376],[-157.9929701,21.3503743],[-157.9929644,21.3503744],[-157.992959,21.3503761],[-157.9929546,21.3503793],[-157.9929515,21.3503838],[-157.9929501,21.3503889],[-157.9929506,21.3503942],[-157.9929529,21.3503991],[-157.9929568,21.350403]]]}},{"type":"Feature","properties":{},"geometry":{"type":"Polygon","coordinates":[[[-157.9929515,21.3505546],[-157.9929565,21.3505571],[-157.9929621,21.350558],[-157.9929678,21.350557],[-157.9929728,21.3505545],[-157.9929766,21.3505505],[-157.9929788,21.3505456],[-157.9929792,21.3505404],[-157.9929778,21.3505353],[-157.9929746,21.3505309],[-157.9929701,21.3505276],[-157.9929647,21.350526],[-157.9929591,21.350526],[-157.9929537,21.3505277],[-157.9929493,21.350531],[-157.9929462,21.3505354],[-157.9929448,21.3505406],[-157.9929452,21.3505459],[-157.9929476,21.3505507],[-157.9929515,21.3505546]]]}},{"type":"Feature","properties":{},"geometry":{"type":"Polygon","coordinates":[[[-157.993001,21.3504384],[-157.993006,21.3504409],[-157.9930117,21.3504418],[-157.9930173,21.3504408],[-157.9930223,21.3504383],[-157.9930261,21.3504343],[-157.9930283,21.3504294],[-157.9930288,21.3504242],[-157.9930273,21.3504191],[-157.9930242,21.3504147],[-157.9930197,21.3504115],[-157.9930143,21.3504098],[-157.9930086,21.3504098],[-157.9930033,21.3504115],[-157.9929988,21.3504148],[-157.9929957,21.3504192],[-157.9929943,21.3504244],[-157.9929948,21.3504297],[-157.9929971,21.3504345],[-157.993001,21.3504384]]]}},{"type":"Feature","properties":{},"geometry":{"type":"Polygon","coordinates":[[[-158.000678,21.3519591],[-158.0007248,21.3520543],[-157.9964768,21.3538641],[-157.9964474,21.3538041],[-157.9966687,21.3537099],[-157.9966515,21.3536748],[-158.0005507,21.3520133],[-158.000678,21.3519591]]]}},{"type":"Feature","properties":{},"geometry":{"type":"LineString","coordinates":[[-158.0219236,21.3584852],[-158.0219028,21.3585262],[-158.0216931,21.3584364],[-158.0216745,21.3582081]]}},{"type":"Feature","properties":{},"geometry":{"type":"Polygon","coordinates":[[[-158.0216533,21.3582081],[-158.0216745,21.3582081],[-158.0216922,21.3582081],[-158.0217152,21.3581777],[-158.0216788,21.3581249],[-158.0216202,21.358164],[-158.0216533,21.3582081]]]}},{"type":"Feature","properties":{},"geometry":{"type":"LineString","coordinates":[[-158.0186272,21.3670584],[-158.0185121,21.3671376]]}},{"type":"Feature","properties":{},"geometry":{"type":"LineString","coordinates":[[-158.0174533,21.3665388],[-158.017353,21.3667366]]}},{"type":"Feature","properties":{},"geometry":{"type":"LineString","coordinates":[[-158.0172174,21.3664579],[-158.0171377,21.3666816]]}},{"type":"Feature","properties":{},"geometry":{"type":"LineString","coordinates":[[-158.0169549,21.3664207],[-158.0167956,21.3665882]]}},{"type":"Feature","properties":{},"geometry":{"type":"LineString","coordinates":[[-158.016691,21.3662346],[-158.0165302,21.3663822]]}},{"type":"Feature","properties":{},"geometry":{"type":"LineString","coordinates":[[-158.0164741,21.36596],[-158.0163178,21.3660801]]}},{"type":"Feature","properties":{},"geometry":{"type":"LineString","coordinates":[[-158.0172035,21.3652345],[-158.017179,21.3650117]]}},{"type":"Feature","properties":{},"geometry":{"type":"LineString","coordinates":[[-158.0174267,21.3652369],[-158.0174091,21.3650062]]}},{"type":"Feature","properties":{},"geometry":{"type":"LineString","coordinates":[[-158.0181434,21.3652506],[-158.018167,21.3650282]]}},{"type":"Feature","properties":{},"geometry":{"type":"LineString","coordinates":[[-158.0183982,21.3653439],[-158.0185062,21.3651188]]}},{"type":"Feature","properties":{},"geometry":{"type":"LineString","coordinates":[[-158.0188513,21.3654814],[-158.0190017,21.3652287]]}},{"type":"Feature","properties":{},"geometry":{"type":"LineString","coordinates":[[-158.0195632,21.3656683],[-158.019621,21.3654539]]}},{"type":"Feature","properties":{},"geometry":{"type":"Polygon","coordinates":[[[-158.0168619,21.3664362],[-158.0169052,21.3663865],[-158.0168552,21.3663487],[-158.0168119,21.3663984],[-158.0168619,21.3664362]]]}},{"type":"Feature","properties":{},"geometry":{"type":"LineString","coordinates":[[-158.0204375,21.3702648],[-158.0202511,21.3703328]]}},{"type":"Feature","properties":{},"geometry":{"type":"LineString","coordinates":[[-158.0206482,21.3709782],[-158.0204426,21.3710569]]}},{"type":"Feature","properties":{},"geometry":{"type":"Polygon","coordinates":[[[-157.9752038,21.365591],[-157.9751964,21.3656415],[-157.9750177,21.3656189],[-157.975025,21.3655684],[-157.9752038,21.365591]]]}},{"type":"Feature","properties":{},"geometry":{"type":"LineString","coordinates":[[-157.9757992,21.3656999],[-157.9757447,21.3656976],[-157.975701,21.3656957],[-157.9756466,21.3656934]]}},{"type":"Feature","properties":{},"geometry":{"type":"Polygon","coordinates":[[[-157.9757047,21.3656369],[-157.9757032,21.3656614],[-157.9757476,21.3656638],[-157.9757491,21.3656393],[-157.9757047,21.3656369]]]}},{"type":"Feature","properties":{},"geometry":{"type":"LineString","coordinates":[[-157.9757047,21.3656369],[-157.9757032,21.3656614],[-157.975701,21.3656957]]}},{"type":"Feature","properties":{},"geometry":{"type":"LineString","coordinates":[[-157.9757491,21.3656393],[-157.9757476,21.3656638],[-157.9757447,21.3656976]]}},{"type":"Feature","properties":{},"geometry":{"type":"Polygon","coordinates":[[[-157.974689,21.365001],[-157.9747,21.3648906],[-157.9745423,21.3648771],[-157.9745314,21.3649875],[-157.974689,21.365001]]]}},{"type":"Feature","properties":{},"geometry":{"type":"Polygon","coordinates":[[[-157.974561,21.3653919],[-157.9745746,21.3653097],[-157.9744933,21.365298],[-157.9744797,21.3653802],[-157.974561,21.3653919]]]}},{"type":"Feature","properties":{},"geometry":{"type":"Polygon","coordinates":[[[-157.9743608,21.3654992],[-157.9743391,21.36548],[-157.9743929,21.3654271],[-157.9744146,21.3654463],[-157.9743608,21.3654992]]]}},{"type":"Feature","properties":{},"geometry":{"type":"Polygon","coordinates":[[[-157.9776362,21.3749002],[-157.9775905,21.3748421],[-157.9775578,21.3748009],[-157.97752,21.374827],[-157.9775079,21.3748351],[-157.9775863,21.3749344],[-157.9776362,21.3749002]]]}},{"type":"Feature","properties":{},"geometry":{"type":"Polygon","coordinates":[[[-157.9763072,21.3754575],[-157.9763039,21.3754435],[-157.9764675,21.3754103],[-157.9764769,21.3754503],[-157.9765394,21.3754376],[-157.9765471,21.3754702],[-157.9766102,21.3754574],[-157.9766147,21.3754765],[-157.9763254,21.3755352],[-157.9763219,21.3755202],[-157.9763072,21.3754575]]]}},{"type":"Feature","properties":{},"geometry":{"type":"Polygon","coordinates":[[[-157.976835,21.3754259],[-157.9768246,21.3753876],[-157.9768566,21.3753791],[-157.9768334,21.3752908],[-157.9768431,21.3752833],[-157.9768838,21.3752957],[-157.9769137,21.3754076],[-157.976835,21.3754259]]]}},{"type":"Feature","properties":{},"geometry":{"type":"Polygon","coordinates":[[[-157.9767387,21.3754465],[-157.9767219,21.3754341],[-157.9767272,21.3754012],[-157.9766635,21.3754152],[-157.9766555,21.3754251],[-157.9766617,21.3754613],[-157.9767387,21.3754465]]]}},{"type":"Feature","properties":{},"geometry":{"type":"LineString","coordinates":[[-157.9768431,21.3752833],[-157.9768298,21.3752421],[-157.976859,21.3752323],[-157.9768644,21.3752479]]}},{"type":"Feature","properties":{},"geometry":{"type":"LineString","coordinates":[[-157.9768246,21.3753876],[-157.9767683,21.3753982]]}},{"type":"Feature","properties":{},"geometry":{"type":"LineString","coordinates":[[-157.9766102,21.3754574],[-157.9766042,21.37543]]}},{"type":"Feature","properties":{},"geometry":{"type":"Polygon","coordinates":[[[-157.9698214,21.369893],[-157.9699036,21.369756],[-157.9698429,21.3697244],[-157.9699036,21.3696232],[-157.9708768,21.3701299],[-157.9708144,21.370234],[-157.9707496,21.3702003],[-157.9706726,21.3703285],[-157.9705714,21.3702758],[-157.9706541,21.370138],[-157.9703799,21.3699952],[-157.9702963,21.3701346],[-157.9702043,21.3700867],[-157.9702893,21.3699451],[-157.9700161,21.3698028],[-157.9699284,21.3699487],[-157.9698214,21.369893]]]}},{"type":"Feature","properties":{},"geometry":{"type":"Polygon","coordinates":[[[-157.9723943,21.3712332],[-157.9724797,21.3710897],[-157.9724188,21.3710583],[-157.9724705,21.3709718],[-157.9724775,21.3709624],[-157.9734439,21.3714613],[-157.9733779,21.3715721],[-157.9733107,21.3715374],[-157.9732927,21.3715677],[-157.9732305,21.3716721],[-157.9731289,21.3716197],[-157.9732128,21.3714786],[-157.9729484,21.3713421],[-157.972866,21.3714806],[-157.9727611,21.3714265],[-157.9728443,21.3712867],[-157.972581,21.3711509],[-157.9724997,21.3712876],[-157.9723943,21.3712332]]]}},{"type":"Feature","properties":{},"geometry":{"type":"Polygon","coordinates":[[[-157.9723314,21.3712046],[-157.9724188,21.3710583],[-157.9724705,21.3709718],[-157.9724342,21.370953],[-157.9723353,21.3711185],[-157.9723068,21.3711037],[-157.9722782,21.3710889],[-157.9723762,21.3709249],[-157.9723474,21.37091],[-157.9722991,21.3709908],[-157.9722327,21.371102],[-157.9722092,21.3711414],[-157.9723314,21.3712046]]]}},{"type":"Feature","properties":{},"geometry":{"type":"Polygon","coordinates":[[[-157.9722327,21.371102],[-157.972202,21.3710863],[-157.9722677,21.3709747],[-157.9722991,21.3709908],[-157.9722327,21.371102]]]}},{"type":"Feature","properties":{},"geometry":{"type":"LineString","coordinates":[[-157.972202,21.3710863],[-157.9722677,21.3709747],[-157.9723137,21.3708951]]}},{"type":"Feature","properties":{},"geometry":{"type":"LineString","coordinates":[[-157.9733487,21.3715943],[-157.9734122,21.3716275],[-157.9737319,21.3717949]]}},{"type":"Feature","properties":{},"geometry":{"type":"Polygon","coordinates":[[[-157.9736503,21.3719669],[-157.9736581,21.3719672],[-157.9736656,21.3719652],[-157.9736719,21.371961],[-157.9736765,21.3719552],[-157.9736789,21.3719483],[-157.9736787,21.371941],[-157.9736759,21.371934],[-157.9736708,21.3719282],[-157.9736639,21.3719243],[-157.973656,21.3719227],[-157.973648,21.3719237],[-157.9736408,21.3719271],[-157.9736353,21.3719325],[-157.9736319,21.3719394],[-157.9736312,21.3719466],[-157.973633,21.3719536],[-157.9736371,21.3719598],[-157.9736431,21.3719644],[-157.9736503,21.3719669]]]}},{"type":"Feature","properties":{},"geometry":{"type":"LineString","coordinates":[[-157.9716204,21.3708628],[-157.9717452,21.3706491]]}},{"type":"Feature","properties":{},"geometry":{"type":"Polygon","coordinates":[[[-157.9690799,21.3699527],[-157.968833,21.3698281],[-157.9688766,21.3697531],[-157.9687738,21.3697012],[-157.9681301,21.3708081],[-157.9682448,21.370866],[-157.9682838,21.3707989],[-157.9683871,21.370851],[-157.9684473,21.3707476],[-157.9683373,21.370692],[-157.9685344,21.3703533],[-157.9686346,21.3704039],[-157.9686892,21.3703102],[-157.9685836,21.3702569],[-157.9687833,21.3699138],[-157.9690301,21.3700384],[-157.9690799,21.3699527]]]}},{"type":"Feature","properties":{},"geometry":{"type":"Polygon","coordinates":[[[-157.9675343,21.3723122],[-157.9674379,21.3722644],[-157.9674831,21.3721854],[-157.9673708,21.3721297],[-157.9667336,21.3732435],[-157.9668473,21.3732999],[-157.9668857,21.3732328],[-157.9669731,21.3732762],[-157.9670256,21.3731846],[-157.9669307,21.3731375],[-157.967131,21.3727876],[-157.9672274,21.3728354],[-157.9672784,21.3727464],[-157.9671853,21.3727002],[-157.9673832,21.372354],[-157.9674823,21.3724031],[-157.9675343,21.3723122]]]}},{"type":"Feature","properties":{},"geometry":{"type":"Polygon","coordinates":[[[-157.9662791,21.3773982],[-157.9662774,21.3773442],[-157.9662124,21.3773459],[-157.966214,21.3773999],[-157.9662642,21.3773986],[-157.9662791,21.3773982]]]}},{"type":"Feature","properties":{},"geometry":{"type":"Polygon","coordinates":[[[-157.9662791,21.3799251],[-157.9662775,21.3798711],[-157.9662632,21.3798715],[-157.9662125,21.3798729],[-157.9662141,21.3799268],[-157.9662791,21.3799251]]]}},{"type":"Feature","properties":{},"geometry":{"type":"Polygon","coordinates":[[[-157.9585741,21.3603906],[-157.9585825,21.3603926],[-157.9585912,21.3603919],[-157.9585992,21.3603886],[-157.9586056,21.360383],[-157.9586095,21.360376],[-157.9586109,21.3603682],[-157.9586094,21.3603604],[-157.9586054,21.3603534],[-157.9585991,21.360348],[-157.9585913,21.3603448],[-157.9585829,21.360344],[-157.9585746,21.3603458],[-157.9585674,21.3603501],[-157.958562,21.3603562],[-157.958559,21.3603638],[-157.9585588,21.360372],[-157.9585615,21.3603797],[-157.9585668,21.3603862],[-157.9585741,21.3603906]]]}},{"type":"Feature","properties":{},"geometry":{"type":"Polygon","coordinates":[[[-157.9585271,21.3600264],[-157.9585356,21.3600284],[-157.9585443,21.3600277],[-157.9585523,21.3600244],[-157.9585586,21.3600188],[-157.9585626,21.3600117],[-157.9585639,21.3600039],[-157.9585625,21.3599961],[-157.9585584,21.3599891],[-157.9585522,21.3599837],[-157.9585444,21.3599805],[-157.9585359,21.3599797],[-157.9585276,21.3599816],[-157.9585204,21.3599858],[-157.958515,21.3599919],[-157.958512,21.3599996],[-157.9585118,21.3600077],[-157.9585145,21.3600154],[-157.9585198,21.3600219],[-157.9585271,21.3600264]]]}},{"type":"Feature","properties":{},"geometry":{"type":"Polygon","coordinates":[[[-157.9587039,21.3603626],[-157.9587124,21.3603646],[-157.9587211,21.3603639],[-157.9587291,21.3603606],[-157.9587354,21.360355],[-157.9587394,21.360348],[-157.9587407,21.3603401],[-157.9587393,21.3603323],[-157.9587352,21.3603254],[-157.958729,21.36032],[-157.9587212,21.3603167],[-157.9587127,21.360316],[-157.9587044,21.3603178],[-157.9586972,21.360322],[-157.9586918,21.3603282],[-157.9586888,21.3603358],[-157.9586886,21.3603439],[-157.9586914,21.3603516],[-157.9586967,21.3603581],[-157.9587039,21.3603626]]]}},{"type":"Feature","properties":{},"geometry":{"type":"Polygon","coordinates":[[[-157.9587219,21.3605615],[-157.9587253,21.3605658],[-157.95873,21.3605688],[-157.9587356,21.3605702],[-157.9587414,21.3605698],[-157.9587466,21.3605676],[-157.9587508,21.3605639],[-157.9587532,21.3605594],[-157.9587541,21.3605544],[-157.9587532,21.3605495],[-157.9587507,21.360545],[-157.9587469,21.3605416],[-157.958742,21.3605394],[-157.9587367,21.3605387],[-157.9587314,21.3605396],[-157.9587267,21.360542],[-157.9587228,21.360546],[-157.9587206,21.3605509],[-157.9587203,21.3605563],[-157.9587219,21.3605615]]]}},{"type":"Feature","properties":{},"geometry":{"type":"Polygon","coordinates":[[[-157.95863,21.3606184],[-157.9586334,21.3606228],[-157.9586382,21.3606258],[-157.9586437,21.3606272],[-157.9586495,21.3606267],[-157.9586548,21.3606245],[-157.9586589,21.3606208],[-157.9586614,21.3606163],[-157.9586622,21.3606114],[-157.9586614,21.3606064],[-157.9586589,21.360602],[-157.958655,21.3605985],[-157.9586502,21.3605963],[-157.9586448,21.3605956],[-157.9586395,21.3605966],[-157.9586348,21.360599],[-157.9586309,21.3606029],[-157.9586287,21.3606079],[-157.9586284,21.3606133],[-157.95863,21.3606184]]]}},{"type":"Feature","properties":{},"geometry":{"type":"Polygon","coordinates":[[[-157.9588399,21.3599449],[-157.9587761,21.3599423],[-157.9587775,21.3598729],[-157.9588683,21.3598745],[-157.9588674,21.3599271],[-157.9588399,21.3599449]]]}},{"type":"Feature","properties":{},"geometry":{"type":"Polygon","coordinates":[[[-157.9589016,21.3599619],[-157.9588669,21.3599844],[-157.9588629,21.3600327],[-157.9588967,21.3600448],[-157.9589563,21.3599722],[-157.9589016,21.3599619]]]}},{"type":"Feature","properties":{},"geometry":{"type":"Polygon","coordinates":[[[-157.9588612,21.3601134],[-157.9588173,21.3600819],[-157.9588398,21.3600546],[-157.9588838,21.3600861],[-157.9588612,21.3601134]]]}},{"type":"Feature","properties":{},"geometry":{"type":"Polygon","coordinates":[[[-157.9587619,21.3599497],[-157.9587467,21.35991],[-157.9587026,21.3599247],[-157.9587179,21.3599644],[-157.9587619,21.3599497]]]}},{"type":"Feature","properties":{},"geometry":{"type":"Polygon","coordinates":[[[-157.958864,21.3603272],[-157.9588644,21.3603156],[-157.9588654,21.3602811],[-157.9588154,21.3602798],[-157.958814,21.3603259],[-157.958864,21.3603272]]]}},{"type":"Feature","properties":{},"geometry":{"type":"LineString","coordinates":[[-157.9589574,21.3603883],[-157.958915,21.3604613]]}},{"type":"Feature","properties":{},"geometry":{"type":"LineString","coordinates":[[-157.9588644,21.3603156],[-157.9588779,21.3603195],[-157.9589259,21.3603332],[-157.9589565,21.360342]]}},{"type":"Feature","properties":{},"geometry":{"type":"LineString","coordinates":[[-157.9416976,21.3535536],[-157.9431902,21.353734]]}},{"type":"Feature","properties":{},"geometry":{"type":"LineString","coordinates":[[-157.9402057,21.3533734],[-157.9416976,21.3535536]]}},{"type":"Feature","properties":{},"geometry":{"type":"LineString","coordinates":[[-157.9428185,21.3563951],[-157.9435073,21.3556237]]}},{"type":"Feature","properties":{},"geometry":{"type":"LineString","coordinates":[[-157.9421448,21.3571495],[-157.9428185,21.3563951]]}},{"type":"Feature","properties":{},"geometry":{"type":"LineString","coordinates":[[-157.9452186,21.3566687],[-157.9467575,21.3552372]]}},{"type":"Feature","properties":{},"geometry":{"type":"LineString","coordinates":[[-157.9437097,21.3581298],[-157.9440182,21.3577871],[-157.9452186,21.3566687]]}},{"type":"Feature","properties":{},"geometry":{"type":"LineString","coordinates":[[-157.9399795,21.3528067],[-157.9401492,21.3527983]]}},{"type":"Feature","properties":{},"geometry":{"type":"LineString","coordinates":[[-157.9401701,21.3530738],[-157.9400082,21.3530873]]}},{"type":"Feature","properties":{},"geometry":{"type":"LineString","coordinates":[[-157.9484181,21.3580752],[-157.9485059,21.358129],[-157.9482454,21.3585269]]}},{"type":"Feature","properties":{},"geometry":{"type":"LineString","coordinates":[[-157.9482454,21.3585269],[-157.94819,21.3585492],[-157.9468021,21.3591075]]}},{"type":"Feature","properties":{},"geometry":{"type":"LineString","coordinates":[[-157.9468021,21.3591075],[-157.9453899,21.3596772]]}},{"type":"Feature","properties":{},"geometry":{"type":"LineString","coordinates":[[-157.9453899,21.3596772],[-157.9453897,21.3597236],[-157.9453848,21.3607582]]}},{"type":"Feature","properties":{},"geometry":{"type":"LineString","coordinates":[[-157.9453885,21.3612234],[-157.9453901,21.362233]]}},{"type":"Feature","properties":{},"geometry":{"type":"LineString","coordinates":[[-157.9453901,21.362233],[-157.9446056,21.3625436],[-157.9439973,21.3627845]]}},{"type":"Feature","properties":{},"geometry":{"type":"LineString","coordinates":[[-157.9439973,21.3627845],[-157.9426421,21.3633324],[-157.9425653,21.3631518],[-157.9425457,21.3631059]]}},{"type":"Feature","properties":{},"geometry":{"type":"LineString","coordinates":[[-157.941083,21.3639016],[-157.9411639,21.363929],[-157.9406516,21.3652518],[-157.9406249,21.3653019]]}},{"type":"Feature","properties":{},"geometry":{"type":"LineString","coordinates":[[-157.9569901,21.3615865],[-157.9568845,21.3617885]]}},{"type":"Feature","properties":{},"geometry":{"type":"LineString","coordinates":[[-157.9603469,21.3576041],[-157.9612187,21.3562703],[-157.9612876,21.3564256]]}},{"type":"Feature","properties":{},"geometry":{"type":"LineString","coordinates":[[-157.9623739,21.3561162],[-157.9612876,21.3564256]]}},{"type":"Feature","properties":{},"geometry":{"type":"LineString","coordinates":[[-157.9579911,21.3618547],[-157.9580307,21.3617947],[-157.958739,21.3607201]]}},{"type":"Feature","properties":{},"geometry":{"type":"LineString","coordinates":[[-157.942976,21.3589271],[-157.9427954,21.3587877],[-157.9427708,21.358795],[-157.9418433,21.3598186]]}},{"type":"Feature","properties":{},"geometry":{"type":"LineString","coordinates":[[-157.9432565,21.3512305],[-157.9437764,21.3522132]]}},{"type":"Feature","properties":{},"geometry":{"type":"LineString","coordinates":[[-157.94271,21.3502436],[-157.9427222,21.350266],[-157.9432565,21.3512305]]}},{"type":"Feature","properties":{},"geometry":{"type":"LineString","coordinates":[[-157.9436845,21.3523582],[-157.9418679,21.3524735]]}},{"type":"Feature","properties":{},"geometry":{"type":"LineString","coordinates":[[-157.9418679,21.3524735],[-157.9400118,21.352587]]}},{"type":"Feature","properties":{},"geometry":{"type":"LineString","coordinates":[[-157.9446338,21.3508424],[-157.9431203,21.3499733]]}},{"type":"Feature","properties":{},"geometry":{"type":"LineString","coordinates":[[-157.9504079,21.3541638],[-157.9493317,21.3535411]]}},{"type":"Feature","properties":{},"geometry":{"type":"LineString","coordinates":[[-157.9493317,21.3535411],[-157.9477595,21.3526389]]}},{"type":"Feature","properties":{},"geometry":{"type":"LineString","coordinates":[[-157.9477595,21.3526389],[-157.9461925,21.351739]]}},{"type":"Feature","properties":{},"geometry":{"type":"LineString","coordinates":[[-157.9461925,21.351739],[-157.9446338,21.3508424]]}},{"type":"Feature","properties":{},"geometry":{"type":"Polygon","coordinates":[[[-157.9537904,21.3625036],[-157.9536989,21.3623965],[-157.9538937,21.3622522],[-157.9539491,21.3622112],[-157.9540996,21.3620998],[-157.9541911,21.362207],[-157.9537904,21.3625036]]]}},{"type":"Feature","properties":{},"geometry":{"type":"Polygon","coordinates":[[[-157.9536514,21.3626065],[-157.9533981,21.3627949],[-157.9532635,21.362895],[-157.9530478,21.3630559],[-157.9529568,21.3629499],[-157.9531093,21.3628363],[-157.9531637,21.3627957],[-157.9535594,21.3625005],[-157.9536514,21.3626065]]]}},{"type":"Feature","properties":{},"geometry":{"type":"LineString","coordinates":[[-157.9430666,21.3499425],[-157.94271,21.3502436]]}},{"type":"Feature","properties":{},"geometry":{"type":"LineString","coordinates":[[-157.9602604,21.3520062],[-157.9601493,21.351945],[-157.9597362,21.3525959]]}},{"type":"Feature","properties":{},"geometry":{"type":"LineString","coordinates":[[-157.9594733,21.3524433],[-157.9597362,21.3525959]]}},{"type":"Feature","properties":{},"geometry":{"type":"LineString","coordinates":[[-157.9590881,21.3522267],[-157.9589555,21.3521486],[-157.9589137,21.3521815],[-157.958204,21.3532551],[-157.958173,21.3532626]]}},{"type":"Feature","properties":{},"geometry":{"type":"LineString","coordinates":[[-157.9607032,21.3522106],[-157.9605535,21.3521288]]}},{"type":"Feature","properties":{},"geometry":{"type":"LineString","coordinates":[[-157.9584031,21.3526751],[-157.9580648,21.3524979]]}},{"type":"Feature","properties":{},"geometry":{"type":"LineString","coordinates":[[-157.9577712,21.3522538],[-157.9575027,21.3521064]]}},{"type":"Feature","properties":{},"geometry":{"type":"LineString","coordinates":[[-157.9575027,21.3521064],[-157.9560851,21.3542601]]}},{"type":"Feature","properties":{},"geometry":{"type":"LineString","coordinates":[[-157.9560851,21.3542601],[-157.9555529,21.3550652],[-157.9551103,21.3557349]]}},{"type":"Feature","properties":{},"geometry":{"type":"LineString","coordinates":[[-157.9548857,21.3556088],[-157.9541603,21.3552067]]}},{"type":"Feature","properties":{},"geometry":{"type":"LineString","coordinates":[[-157.9537759,21.3549759],[-157.9530102,21.3545485]]}},{"type":"Feature","properties":{},"geometry":{"type":"LineString","coordinates":[[-157.9535101,21.3530225],[-157.9530467,21.3527333]]}},{"type":"Feature","properties":{},"geometry":{"type":"LineString","coordinates":[[-157.9525095,21.3524184],[-157.9521954,21.3522324],[-157.9519554,21.3521053]]}},{"type":"Feature","properties":{},"geometry":{"type":"LineString","coordinates":[[-157.9519554,21.3521053],[-157.9518326,21.3521403],[-157.9517567,21.3521746],[-157.9516968,21.3522276],[-157.9516426,21.3522912],[-157.9510875,21.3531727]]}},{"type":"Feature","properties":{},"geometry":{"type":"LineString","coordinates":[[-157.9510875,21.3531727],[-157.9504404,21.3541594],[-157.9504079,21.3541638]]}},{"type":"Feature","properties":{},"geometry":{"type":"LineString","coordinates":[[-157.9535101,21.3530225],[-157.9535389,21.3530998],[-157.9535389,21.3531893],[-157.953523,21.3532571],[-157.9527547,21.3544063]]}},{"type":"Feature","properties":{},"geometry":{"type":"LineString","coordinates":[[-157.9658738,21.3452697],[-157.9659408,21.3453089],[-157.966186,21.3455363]]}},{"type":"Feature","properties":{},"geometry":{"type":"LineString","coordinates":[[-157.966499,21.3458328],[-157.9669285,21.3462428],[-157.9668377,21.346339]]}},{"type":"Feature","properties":{},"geometry":{"type":"LineString","coordinates":[[-157.9431203,21.3499733],[-157.9430666,21.3499425]]}},{"type":"Feature","properties":{},"geometry":{"type":"Polygon","coordinates":[[[-157.9899887,21.3849764],[-157.9899082,21.3849314],[-157.9896936,21.3844319],[-157.9897258,21.384332],[-157.989817,21.3842921],[-157.9899243,21.384342],[-157.9901174,21.3848065],[-157.9901121,21.3849264],[-157.9899887,21.3849764]]]}},{"type":"Feature","properties":{},"geometry":{"type":"LineString","coordinates":[[-157.943732,21.3522824],[-157.9436845,21.3523582]]}},{"type":"Feature","properties":{},"geometry":{"type":"LineString","coordinates":[[-157.9437764,21.3522132],[-157.943732,21.3522824]]}}]}